{
"type": "FeatureCollection",
"name": "barr_01",
"crs": { "type": "name", "properties": { "name": "urn:ogc:def:crs:OGC:1.3:CRS84" } },
"features": [
{ "type": "Feature", "properties": { "nombre": "Sin Barrio03" }, "geometry": { "type": "MultiPolygon", "coordinates": [ [ [ [ -64.098306111815901, -30.990391204009391, 0.0 ], [ -64.099686324665527, -30.989116651448757, 0.0 ], [ -64.09583311815696, -30.981441044653078, 0.0 ], [ -64.091963312756974, -30.982892396253206, 0.0 ], [ -64.093469461014337, -30.985866250150373, 0.0 ], [ -64.094660524702689, -30.985441455764771, 0.0 ], [ -64.097007448391466, -30.990076252008496, 0.0 ], [ -64.098090741410303, -30.989541313853497, 0.0 ], [ -64.098306111815901, -30.990391204009391, 0.0 ] ] ] ] } },
{ "type": "Feature", "properties": { "nombre": "Italia Parque Suizo" }, "geometry": { "type": "MultiPolygon", "coordinates": [ [ [ [ -64.103582763221951, -30.972215083414486, 0.0 ], [ -64.10287252438188, -30.973065575007279, 0.0 ], [ -64.102487558369063, -30.973497151661473, 0.0 ], [ -64.102106256994688, -30.973937419050429, 0.0 ], [ -64.102415628613869, -30.974227647445446, 0.0 ], [ -64.102034981325886, -30.974667337035914, 0.0 ], [ -64.102168773280113, -30.974756143877446, 0.0 ], [ -64.101688877245678, -30.975167077773396, 0.0 ], [ -64.100463799365571, -30.976193548204144, 0.0 ], [ -64.100234205629704, -30.976325635584363, 0.0 ], [ -64.099099922081308, -30.976732836556259, 0.0 ], [ -64.09845972871932, -30.976952641756654, 0.0 ], [ -64.098678187788821, -30.977130394453479, 0.0 ], [ -64.0989452060481, -30.977258541006929, 0.0 ], [ -64.099835992648295, -30.977594164686288, 0.0 ], [ -64.100158406607818, -30.97768980460069, 0.0 ], [ -64.100400375965691, -30.977717488057198, 0.0 ], [ -64.100811310113897, -30.977659074206297, 0.0 ], [ -64.101362525338018, -30.977560566614482, 0.0 ], [ -64.101663081401213, -30.977487074864786, 0.0 ], [ -64.102256752255386, -30.977385913381418, 0.0 ], [ -64.102863868985153, -30.977299506589642, 0.0 ], [ -64.103028633856894, -30.976848501952478, 0.0 ], [ -64.103156438728774, -30.976762753515146, 0.0 ], [ -64.10332776273448, -30.976478146670381, 0.0 ], [ -64.103657, -30.975921999992241, 0.0 ], [ -64.10372833411509, -30.975808336120384, 0.0 ], [ -64.10395089903885, -30.97588079535911, 0.0 ], [ -64.104492308460706, -30.975515659898115, 0.0 ], [ -64.104794957501952, -30.97537212840998, 0.0 ], [ -64.104451359724152, -30.974698039233168, 0.0 ], [ -64.104598213556457, -30.974623852704838, 0.0 ], [ -64.104030945375712, -30.973498986680262, 0.0 ], [ -64.104165713935075, -30.973456364353595, 0.0 ], [ -64.10401253484018, -30.973052977991095, 0.0 ], [ -64.103958000000105, -30.973060999992232, 0.0 ], [ -64.103722000000104, -30.972549999992239, 0.0 ], [ -64.103582763221951, -30.972215083414486, 0.0 ] ] ] ] } },
{ "type": "Feature", "properties": { "nombre": "Tiro Federal" }, "geometry": { "type": "MultiPolygon", "coordinates": [ [ [ [ -64.113758178078712, -30.981482930149141, 0.0 ], [ -64.114002210374053, -30.981272758565762, 0.0 ], [ -64.11365236943135, -30.981304375496727, 0.0 ], [ -64.109655482747769, -30.981717727090153, 0.0 ], [ -64.109091550114613, -30.981751170709959, 0.0 ], [ -64.108261254678453, -30.981715396667038, 0.0 ], [ -64.107087662553027, -30.981559578584697, 0.0 ], [ -64.10591637062366, -30.981315069017271, 0.0 ], [ -64.104740418580477, -30.981097758911307, 0.0 ], [ -64.103172585950745, -30.980792264225428, 0.0 ], [ -64.102732934248067, -30.980663741552895, 0.0 ], [ -64.102859656769951, -30.980930788047321, 0.0 ], [ -64.104635799551801, -30.984545682386997, 0.0 ], [ -64.104790473737566, -30.984673605133597, 0.0 ], [ -64.105398274631156, -30.984460535884015, 0.0 ], [ -64.107684738556003, -30.984107754159826, 0.0 ], [ -64.108561282963393, -30.983978682823867, 0.0 ], [ -64.109031859234307, -30.98390886251854, 0.0 ], [ -64.11010581333835, -30.983770935538839, 0.0 ], [ -64.110486899653779, -30.983713319168032, 0.0 ], [ -64.110764674223631, -30.98362083976167, 0.0 ], [ -64.110982337103735, -30.98349741646814, 0.0 ], [ -64.112813338511785, -30.982160320656046, 0.0 ], [ -64.113758178078712, -30.981482930149141, 0.0 ] ] ] ] } },
{ "type": "Feature", "properties": { "nombre": "Vicente Aguero" }, "geometry": { "type": "MultiPolygon", "coordinates": [ [ [ [ -64.092461812520469, -30.974404296880689, 0.0 ], [ -64.090534668504631, -30.975122290868168, 0.0 ], [ -64.08729219220038, -30.976336540300643, 0.0 ], [ -64.090827832919658, -30.983313836183019, 0.0 ], [ -64.091963312756974, -30.982892396253206, 0.0 ], [ -64.09583311815696, -30.981441044653078, 0.0 ], [ -64.092461812520469, -30.974404296880689, 0.0 ] ] ] ] } },
{ "type": "Feature", "properties": { "nombre": "Barrio Guemes" }, "geometry": { "type": "MultiPolygon", "coordinates": [ [ [ [ -64.08976736229863, -30.992824713561326, 0.0 ], [ -64.087184537929275, -30.992823439804003, 0.0 ], [ -64.087167599497036, -30.99411288832377, 0.0 ], [ -64.089747588481103, -30.994131517399815, 0.0 ], [ -64.08976736229863, -30.992824713561326, 0.0 ] ] ] ] } },
{ "type": "Feature", "properties": { "nombre": "Camino Real" }, "geometry": { "type": "MultiPolygon", "coordinates": [ [ [ [ -64.099153000000101, -30.965103999992227, 0.0 ], [ -64.097074646648096, -30.965100709364201, 0.0 ], [ -64.096870353708297, -30.965201741648695, 0.0 ], [ -64.096677800673802, -30.965167029998195, 0.0 ], [ -64.093799775230394, -30.965178618410608, 0.0 ], [ -64.093967491196693, -30.965329888271398, 0.0 ], [ -64.092093591471397, -30.966198295563203, 0.0 ], [ -64.090742514707401, -30.96696224406352, 0.0 ], [ -64.090453992253501, -30.96707552153492, 0.0 ], [ -64.090230636118832, -30.967195911013462, 0.0 ], [ -64.090960254516759, -30.970150942803105, 0.0 ], [ -64.091342061105252, -30.970568716960134, -1.7976931348623157e+308 ], [ -64.095538848338478, -30.972782336216113, 0.0 ], [ -64.096234475942254, -30.973007526911974, 0.0 ], [ -64.098076511154019, -30.97211113372213, 0.0 ], [ -64.098334, -30.972701999992218, 0.0 ], [ -64.100874, -30.97185999999224, 0.0 ], [ -64.100417, -30.971029999992236, 0.0 ], [ -64.100393, -30.970765999992235, 0.0 ], [ -64.09956, -30.967150999992228, 0.0 ], [ -64.099350000000101, -30.96600199999224, 0.0 ], [ -64.099153000000101, -30.965103999992227, 0.0 ] ] ] ] } },
{ "type": "Feature", "properties": { "nombre": "Barrio Norte" }, "geometry": { "type": "MultiPolygon", "coordinates": [ [ [ [ -64.090534668504631, -30.975122290868168, 0.0 ], [ -64.092461812520469, -30.974404296880689, 0.0 ], [ -64.091342061105252, -30.970568716960134, -1.7976931348623157e+308 ], [ -64.091092901360838, -30.970607429969363, 0.0 ], [ -64.088891481512078, -30.971419522365277, 0.0 ], [ -64.089611863500352, -30.973073705264493, 0.0 ], [ -64.089947852758215, -30.973796607468181, 0.0 ], [ -64.090056812408818, -30.974111008074605, 0.0 ], [ -64.090534668504631, -30.975122290868168, 0.0 ] ] ] ] } },
{ "type": "Feature", "properties": { "nombre": "La Represa" }, "geometry": { "type": "MultiPolygon", "coordinates": [ [ [ [ -64.09845972871932, -30.976952641756654, 0.0 ], [ -64.099099922081308, -30.976732836556259, 0.0 ], [ -64.100234205629704, -30.976325635584363, 0.0 ], [ -64.100463799365571, -30.976193548204144, 0.0 ], [ -64.102168773280113, -30.974756143877446, 0.0 ], [ -64.102034981325886, -30.974667337035914, 0.0 ], [ -64.102415628613869, -30.974227647445446, 0.0 ], [ -64.102106256994688, -30.973937419050429, 0.0 ], [ -64.102487558369063, -30.973497151661473, 0.0 ], [ -64.10287252438188, -30.973065575007279, 0.0 ], [ -64.103582763221951, -30.972215083414486, 0.0 ], [ -64.103502178571645, -30.971846254665756, 0.0 ], [ -64.10283115019061, -30.972642642383068, 0.0 ], [ -64.102026961744158, -30.971694251350389, 0.0 ], [ -64.101304144027168, -30.972127163120447, 0.0 ], [ -64.100874332731962, -30.971860098083067, 0.0 ], [ -64.098334, -30.972701999992218, 0.0 ], [ -64.098076511154019, -30.97211113372213, 0.0 ], [ -64.096234475942254, -30.973007526911974, 0.0 ], [ -64.09582704990288, -30.973139113306587, 0.0 ], [ -64.096513608586434, -30.97408053382928, 0.0 ], [ -64.09845972871932, -30.976952641756654, 0.0 ] ] ] ] } },
{ "type": "Feature", "properties": { "nombre": "La Florida" }, "geometry": { "type": "MultiPolygon", "coordinates": [ [ [ [ -64.085437058112461, -30.978716683237533, 0.0 ], [ -64.083093581113147, -30.978720623038313, 0.0 ], [ -64.082552273622511, -30.978699420061279, 0.0 ], [ -64.082459499609641, -30.978714497728713, 0.0 ], [ -64.081837087244409, -30.979007146407621, 0.0 ], [ -64.080007235801034, -30.979927662839604, 0.0 ], [ -64.076966696171084, -30.981451713176291, 0.0 ], [ -64.076983, -30.982367999992238, 0.0 ], [ -64.079074, -30.982379999992236, 0.0 ], [ -64.079171913903835, -30.985231448884079, 0.0 ], [ -64.08394903814478, -30.985242927954985, 0.0 ], [ -64.08874639876673, -30.985282660081182, 0.0 ], [ -64.08665054613742, -30.981300540590873, 0.0 ], [ -64.085437058112461, -30.978716683237533, 0.0 ] ] ] ] } },
{ "type": "Feature", "properties": { "nombre": "Barrancas" }, "geometry": { "type": "MultiPolygon", "coordinates": [ [ [ [ -64.127879842061887, -30.971989203944098, 0.0 ], [ -64.123798150004745, -30.972346332996121, 0.0 ], [ -64.125224367012194, -30.979623924969044, 0.0 ], [ -64.127790063407232, -30.979251197073321, 0.0 ], [ -64.127879842061887, -30.971989203944098, 0.0 ] ] ] ] } },
{ "type": "Feature", "properties": { "nombre": "Sierras y Parques" }, "geometry": { "type": "MultiPolygon", "coordinates": [ [ [ [ -64.118250985965062, -31.00847439837321, 0.0 ], [ -64.114976972682399, -31.008450046102109, 0.0 ], [ -64.109390451123502, -31.008696764940503, 0.0 ], [ -64.113227793382507, -31.016452075723805, 0.0 ], [ -64.1139007991559, -31.016193040851498, 0.0 ], [ -64.114259536138107, -31.016926941781502, 0.0 ], [ -64.121712373277703, -31.015466288084419, 0.0 ], [ -64.118250985965062, -31.00847439837321, 0.0 ] ] ] ] } },
{ "type": "Feature", "properties": { "nombre": "Santa Elena" }, "geometry": { "type": "MultiPolygon", "coordinates": [ [ [ [ -64.078440193726991, -30.974666110740984, 0.0 ], [ -64.078406232160603, -30.974597753051889, 0.0 ], [ -64.077880526680801, -30.971162929566326, 0.0 ], [ -64.075537070110926, -30.971431362627211, 0.0 ], [ -64.073352703097527, -30.97168153314534, 0.0 ], [ -64.072608385311582, -30.972056020872412, 0.0 ], [ -64.066350558336666, -30.97286930822283, 0.0 ], [ -64.066772469079822, -30.976006934090492, 0.0 ], [ -64.074249133743379, -30.97514505185233, 0.0 ], [ -64.078440193726991, -30.974666110740984, 0.0 ] ] ] ] } },
{ "type": "Feature", "properties": { "nombre": "Sin Barrio05" }, "geometry": { "type": "MultiPolygon", "coordinates": [ [ [ [ -64.114066650124272, -30.975818837291932, 0.0 ], [ -64.113699238769797, -30.975907806252582, 0.0 ], [ -64.11274695270815, -30.976224896003487, 0.0 ], [ -64.112372535594147, -30.976282461203674, 0.0 ], [ -64.11181661967592, -30.978149843589659, 0.0 ], [ -64.111337327971739, -30.979183579714583, 0.0 ], [ -64.110678673658569, -30.979635409725091, 0.0 ], [ -64.109908813070604, -30.979585541190705, 0.0 ], [ -64.109774343226164, -30.980255061809121, 0.0 ], [ -64.109833908803537, -30.980709145080212, 0.0 ], [ -64.110638788512034, -30.98063686025116, 0.0 ], [ -64.113224823670791, -30.980319527145618, 0.0 ], [ -64.113193420875518, -30.979823353118718, 0.0 ], [ -64.113418, -30.979214999992241, 0.0 ], [ -64.1140240000001, -30.978884999992246, 0.0 ], [ -64.114066650124272, -30.975818837291932, 0.0 ] ] ] ] } },
{ "type": "Feature", "properties": { "nombre": "Las Vertientes" }, "geometry": { "type": "MultiPolygon", "coordinates": [ [ [ [ -64.103028633856894, -30.976848501952478, 0.0 ], [ -64.102863868985153, -30.977299506589642, 0.0 ], [ -64.105058133678014, -30.978062116714362, 0.0 ], [ -64.106105064466902, -30.978579403104568, 0.0 ], [ -64.107486149714049, -30.979057207945981, 0.0 ], [ -64.109908813070604, -30.979585541190705, 0.0 ], [ -64.109249224622559, -30.977202506436548, 0.0 ], [ -64.107516480161763, -30.977084667810797, 0.0 ], [ -64.106910133976413, -30.976949723033787, 0.0 ], [ -64.106255821308295, -30.976742541234692, 0.0 ], [ -64.106123728140901, -30.976686471623132, 0.0 ], [ -64.10395089903885, -30.97588079535911, 0.0 ], [ -64.10372833411509, -30.975808336120384, 0.0 ], [ -64.10332776273448, -30.976478146670381, 0.0 ], [ -64.103156438728774, -30.976762753515146, 0.0 ], [ -64.103028633856894, -30.976848501952478, 0.0 ] ] ] ] } },
{ "type": "Feature", "properties": { "nombre": "Santa Gema" }, "geometry": { "type": "MultiPolygon", "coordinates": [ [ [ [ -64.085476402069432, -30.988789422285802, 0.0 ], [ -64.085417629188001, -30.994100223130715, 0.0 ], [ -64.087167599497036, -30.99411288832377, 0.0 ], [ -64.087184537929275, -30.992823439804003, 0.0 ], [ -64.08976736229863, -30.992824713561326, 0.0 ], [ -64.089788568340083, -30.990010095572405, 0.0 ], [ -64.088646447091719, -30.990001137559815, 0.0 ], [ -64.088668652923417, -30.988814034344081, 0.0 ], [ -64.087564670915896, -30.988800454995548, 0.0 ], [ -64.085476402069432, -30.988789422285802, 0.0 ] ] ] ] } },
{ "type": "Feature", "properties": { "nombre": "Parque Agua Mansa" }, "geometry": { "type": "MultiPolygon", "coordinates": [ [ [ [ -64.086812699801996, -30.96899378854399, 0.0 ], [ -64.08583245727651, -30.96632578112122, 0.0 ], [ -64.085068486555727, -30.965685827716328, 0.0 ], [ -64.084528211483843, -30.965455839512842, 0.0 ], [ -64.083486474482683, -30.965493179652746, 0.0 ], [ -64.082648180443073, -30.965912053816563, 0.0 ], [ -64.082256003391748, -30.966453028952795, 0.0 ], [ -64.083093442123428, -30.970661725564668, 0.0 ], [ -64.084158241087735, -30.970604173916882, 0.0 ], [ -64.084473530865395, -30.970601527795814, 0.0 ], [ -64.084776256700053, -30.970661907460634, 0.0 ], [ -64.085436687778241, -30.97094808553679, 0.0 ], [ -64.086878205568325, -30.971658843660148, 0.0 ], [ -64.087025177473635, -30.971704082914002, 0.0 ], [ -64.087108523691242, -30.97169980656928, 0.0 ], [ -64.088891481512078, -30.971419522365277, 0.0 ], [ -64.091092901360838, -30.970607429969363, 0.0 ], [ -64.091342061105252, -30.970568716960134, -1.7976931348623157e+308 ], [ -64.090960254516759, -30.970150942803105, 0.0 ], [ -64.090230636118832, -30.967195911013462, 0.0 ], [ -64.086812699801996, -30.96899378854399, 0.0 ] ] ] ] } },
{ "type": "Feature", "properties": { "nombre": "Lomas de Jesus Maria" }, "geometry": { "type": "MultiPolygon", "coordinates": [ [ [ [ -64.10401253484018, -30.973052977991095, 0.0 ], [ -64.104165713935075, -30.973456364353595, 0.0 ], [ -64.104030945375712, -30.973498986680262, 0.0 ], [ -64.104598213556457, -30.974623852704838, 0.0 ], [ -64.104451359724152, -30.974698039233168, 0.0 ], [ -64.104794957501952, -30.97537212840998, 0.0 ], [ -64.104492308460706, -30.975515659898115, 0.0 ], [ -64.10395089903885, -30.97588079535911, 0.0 ], [ -64.106123728140901, -30.976686471623132, 0.0 ], [ -64.106255821308295, -30.976742541234692, 0.0 ], [ -64.106910133976413, -30.976949723033787, 0.0 ], [ -64.107179000000102, -30.976321999992237, 0.0 ], [ -64.107240000000104, -30.975444999992238, 0.0 ], [ -64.10708, -30.974065999992249, 0.0 ], [ -64.107676, -30.974065999992238, 0.0 ], [ -64.107829, -30.97309699999224, 0.0 ], [ -64.1071010000001, -30.973116999992236, 0.0 ], [ -64.106967452630556, -30.972579046249301, 0.0 ], [ -64.106803633414884, -30.972051458959363, 0.0 ], [ -64.105882178985468, -30.971225296125553, 0.0 ], [ -64.103502178571645, -30.971846254665756, 0.0 ], [ -64.103582763221951, -30.972215083414486, 0.0 ], [ -64.103602000000109, -30.972291999992233, 0.0 ], [ -64.103958000000105, -30.973060999992232, 0.0 ], [ -64.10401253484018, -30.973052977991095, 0.0 ] ] ] ] } },
{ "type": "Feature", "properties": { "nombre": "Anejos del Este" }, "geometry": { "type": "MultiPolygon", "coordinates": [ [ [ [ -64.080340251949849, -30.97840190325423, 0.0 ], [ -64.078440193726991, -30.974666110740984, 0.0 ], [ -64.077023946503431, -30.974837373322305, 0.0 ], [ -64.077395034221382, -30.977480280832335, 0.0 ], [ -64.078604698850043, -30.977058084859134, 0.0 ], [ -64.079172629352385, -30.978621876405271, 0.0 ], [ -64.080340251949849, -30.97840190325423, 0.0 ] ] ] ] } },
{ "type": "Feature", "properties": { "nombre": "Armada Nacional" }, "geometry": { "type": "MultiPolygon", "coordinates": [ [ [ [ -64.084707322636291, -30.97729708027914, 0.0 ], [ -64.08729219220038, -30.976336540300643, 0.0 ], [ -64.090534668504631, -30.975122290868168, 0.0 ], [ -64.090056812408818, -30.974111008074605, 0.0 ], [ -64.089947852758215, -30.973796607468181, 0.0 ], [ -64.089611863500352, -30.973073705264493, 0.0 ], [ -64.088891481512078, -30.971419522365277, 0.0 ], [ -64.087108523691242, -30.97169980656928, 0.0 ], [ -64.087025177473635, -30.971704082914002, 0.0 ], [ -64.086878205568325, -30.971658843660148, 0.0 ], [ -64.085436687778241, -30.97094808553679, 0.0 ], [ -64.084776256700053, -30.970661907460634, 0.0 ], [ -64.084473530865395, -30.970601527795814, 0.0 ], [ -64.084158241087735, -30.970604173916882, 0.0 ], [ -64.083093442123428, -30.970661725564668, 0.0 ], [ -64.083279449051346, -30.9715553613939, 0.0 ], [ -64.084176532456311, -30.975746385992871, 0.0 ], [ -64.084388337132211, -30.976571161631245, 0.0 ], [ -64.084707322636291, -30.97729708027914, 0.0 ] ] ] ] } },
{ "type": "Feature", "properties": { "nombre": "Latinoamerica" }, "geometry": { "type": "MultiPolygon", "coordinates": [ [ [ [ -64.096430951570596, -30.990322105405671, 0.0 ], [ -64.090260883670396, -30.987170381333137, 0.0 ], [ -64.08753885181001, -30.988207214203197, 0.0 ], [ -64.087570562467022, -30.988295608412766, 0.0 ], [ -64.087564670915896, -30.988800454995548, 0.0 ], [ -64.088668652923417, -30.988814034344081, 0.0 ], [ -64.088646447091719, -30.990001137559815, 0.0 ], [ -64.089788568340083, -30.990010095572405, 0.0 ], [ -64.089762547533297, -30.993463788953214, 0.0 ], [ -64.096430951570596, -30.990322105405671, 0.0 ] ] ] ] } },
{ "type": "Feature", "properties": { "nombre": "La Florida Norte" }, "geometry": { "type": "MultiPolygon", "coordinates": [ [ [ [ -64.082256003391748, -30.966453028952795, 0.0 ], [ -64.079505645503701, -30.968568039862813, 0.0 ], [ -64.079658111063551, -30.969703046419276, 0.0 ], [ -64.077868176098065, -30.969928808436908, 0.0 ], [ -64.075537070110926, -30.971431362627211, 0.0 ], [ -64.077880526680801, -30.971162929566326, 0.0 ], [ -64.078406232160603, -30.974597753051889, 0.0 ], [ -64.078440193726991, -30.974666110740984, 0.0 ], [ -64.080340251949849, -30.97840190325423, 0.0 ], [ -64.079172629352385, -30.978621876405271, 0.0 ], [ -64.080007235801034, -30.979927662839604, 0.0 ], [ -64.081837087244409, -30.979007146407621, 0.0 ], [ -64.082459499609641, -30.978714497728713, 0.0 ], [ -64.082552273622511, -30.978699420061279, 0.0 ], [ -64.083093581113147, -30.978720623038313, 0.0 ], [ -64.084023193701853, -30.978735705756399, 0.0 ], [ -64.085437058112461, -30.978716683237533, 0.0 ], [ -64.084707322636291, -30.97729708027914, 0.0 ], [ -64.084388337132211, -30.976571161631245, 0.0 ], [ -64.084176532456311, -30.975746385992871, 0.0 ], [ -64.083279449051346, -30.9715553613939, 0.0 ], [ -64.083093442123428, -30.970661725564668, 0.0 ], [ -64.082256003391748, -30.966453028952795, 0.0 ] ] ] ] } },
{ "type": "Feature", "properties": { "nombre": "Sin Barrio07" }, "geometry": { "type": "MultiPolygon", "coordinates": [ [ [ [ -64.076983051956219, -30.982368132348878, 0.0 ], [ -64.076926651118796, -30.988678576639952, 0.0 ], [ -64.076901862846185, -30.992227488907471, 0.0 ], [ -64.074056635938121, -30.992220687605084, 0.0 ], [ -64.074032491529977, -30.994017245315057, 0.0 ], [ -64.079037641374626, -30.994053847834561, 0.0 ], [ -64.079082035991973, -30.98874862384028, 0.0 ], [ -64.080612538456933, -30.988755847803251, 0.0 ], [ -64.080626308373255, -30.98644338781752, 0.0 ], [ -64.079166952265709, -30.98641268868505, 0.0 ], [ -64.079171913903835, -30.985231448884079, 0.0 ], [ -64.079074, -30.982379999992236, 0.0 ], [ -64.076983051956219, -30.982368132348878, 0.0 ] ] ] ] } },
{ "type": "Feature", "properties": { "nombre": "Pedro de Onate" }, "geometry": { "type": "MultiPolygon", "coordinates": [ [ [ [ -64.089328349120834, -30.980331312167134, 0.0 ], [ -64.086976483079098, -30.981209136937405, 0.0 ], [ -64.08665054613742, -30.981300540590873, 0.0 ], [ -64.08874639876673, -30.985282660081182, 0.0 ], [ -64.089562124290111, -30.986589969802523, 0.0 ], [ -64.090260883670396, -30.987170381333137, 0.0 ], [ -64.090406808224259, -30.987011847324652, 0.0 ], [ -64.093469461014337, -30.985866250150373, 0.0 ], [ -64.091963312756974, -30.982892396253206, 0.0 ], [ -64.090827832919658, -30.983313836183019, 0.0 ], [ -64.089328349120834, -30.980331312167134, 0.0 ] ] ] ] } },
{ "type": "Feature", "properties": { "nombre": "Sin Barrio06" }, "geometry": { "type": "MultiPolygon", "coordinates": [ [ [ [ -64.150521955911529, -30.975624434606246, 0.0 ], [ -64.139017387962568, -30.977310834353421, 0.0 ], [ -64.139067233748378, -30.977594966888301, 0.0 ], [ -64.128037753298273, -30.979213999038841, 0.0 ], [ -64.128252404783922, -30.982605772344883, 0.0 ], [ -64.12658987812074, -30.982850251211001, 0.0 ], [ -64.126581511281515, -30.982868551369023, 0.0 ], [ -64.126571325043457, -30.98288615361766, 0.0 ], [ -64.126559396929267, -30.982902923992814, 0.0 ], [ -64.126545817718466, -30.982918734861311, 0.0 ], [ -64.126530690756667, -30.982933465892454, 0.0 ], [ -64.126514131169031, -30.98294700497366, 0.0 ], [ -64.126496264984013, -30.982959249063853, 0.0 ], [ -64.126477228174323, -30.982970104977561, 0.0 ], [ -64.126457165622028, -30.982979490094266, 0.0 ], [ -64.126436230015912, -30.982987332987101, 0.0 ], [ -64.126414580689357, -30.982993573966521, 0.0 ], [ -64.126392382407772, -30.982998165534561, 0.0 ], [ -64.126369804114574, -30.983001072746379, 0.0 ], [ -64.126347017645344, -30.983002273476128, 0.0 ], [ -64.1263241964201, -30.983001758585441, 0.0 ], [ -64.126301514123384, -30.982999531992959, 0.0 ], [ -64.126279143382305, -30.982995610644476, 0.0 ], [ -64.126257254452909, -30.982990024384002, 0.0 ], [ -64.126236013924185, -30.982982815726601, 0.0 ], [ -64.126215583450289, -30.982974039534835, 0.0 ], [ -64.126196118520255, -30.982963762601234, 0.0 ], [ -64.126177767274527, -30.982952063139919, 0.0 ], [ -64.126160669377512, -30.982939030191318, 0.0 ], [ -64.126137287634407, -30.982916801912708, 0.0 ], [ -64.124810263057583, -30.983111923240262, 0.0 ], [ -64.124600568122958, -30.979716588074773, 0.0 ], [ -64.122581697074295, -30.980015861304437, 0.0 ], [ -64.114500699262933, -30.98117836758, 0.0 ], [ -64.114002210374053, -30.981272758565762, 0.0 ], [ -64.113758178078712, -30.981482930149141, 0.0 ], [ -64.112813338511785, -30.982160320656046, 0.0 ], [ -64.110983246903913, -30.983520803562254, 0.0 ], [ -64.110764674223631, -30.98362083976167, 0.0 ], [ -64.110486899653779, -30.983713319168032, 0.0 ], [ -64.11010581333835, -30.983770935538839, 0.0 ], [ -64.109031859234307, -30.98390886251854, 0.0 ], [ -64.108561282963393, -30.983978682823867, 0.0 ], [ -64.11033184452225, -30.985781544421133, 0.0 ], [ -64.114347637552385, -30.989306560664009, 0.0 ], [ -64.110562247760001, -30.992538894713597, 0.0 ], [ -64.118221737511803, -30.999213248783111, 0.0 ], [ -64.1162872661303, -31.000970688048401, 0.0 ], [ -64.119849963795204, -31.004302858673093, 0.0 ], [ -64.114976972682399, -31.008450046102109, 0.0 ], [ -64.118250985965062, -31.00847439837321, 0.0 ], [ -64.124959430535085, -31.008133578987724, 0.0 ], [ -64.12351971158219, -30.986035786742384, 0.0 ], [ -64.151152086344339, -30.984281646052722, 0.0 ], [ -64.150521955911529, -30.975624434606246, 0.0 ] ] ] ] } },
{ "type": "Feature", "properties": { "nombre": "Sarmiento" }, "geometry": { "type": "MultiPolygon", "coordinates": [ [ [ [ -64.098518739199235, -30.980481427801379, 0.0 ], [ -64.09583311815696, -30.981441044653078, 0.0 ], [ -64.099686324665527, -30.989116651448757, 0.0 ], [ -64.10188140863437, -30.987089510303026, 0.0 ], [ -64.098518739199235, -30.980481427801379, 0.0 ] ] ] ] } },
{ "type": "Feature", "properties": { "nombre": "San jose Obrero" }, "geometry": { "type": "MultiPolygon", "coordinates": [ [ [ [ -64.096430951570596, -30.990322105405671, 0.0 ], [ -64.097007448391466, -30.990076252008496, 0.0 ], [ -64.094660524702689, -30.985441455764771, 0.0 ], [ -64.093469461014337, -30.985866250150373, 0.0 ], [ -64.090406808224259, -30.987011847324652, 0.0 ], [ -64.090260883670396, -30.987170381333137, 0.0 ], [ -64.095472606369867, -30.989836166675378, 0.0 ], [ -64.096430951570596, -30.990322105405671, 0.0 ] ] ] ] } },
{ "type": "Feature", "properties": { "nombre": "Aires de Campo" }, "geometry": { "type": "MultiPolygon", "coordinates": [ [ [ [ -64.128037753298273, -30.979213999038841, 0.0 ], [ -64.127790063407232, -30.979251197073321, 0.0 ], [ -64.124600568122958, -30.979716588074773, 0.0 ], [ -64.124810263057583, -30.983111923240262, 0.0 ], [ -64.126137287634407, -30.982916801912708, 0.0 ], [ -64.126160669377512, -30.982939030191318, 0.0 ], [ -64.126177767274527, -30.982952063139919, 0.0 ], [ -64.126196118520255, -30.982963762601234, 0.0 ], [ -64.126215583450289, -30.982974039534835, 0.0 ], [ -64.126236013924185, -30.982982815726601, 0.0 ], [ -64.126257254452909, -30.982990024384002, 0.0 ], [ -64.126279143382305, -30.982995610644476, 0.0 ], [ -64.126301514123384, -30.982999531992959, 0.0 ], [ -64.1263241964201, -30.983001758585441, 0.0 ], [ -64.126347017645344, -30.983002273476128, 0.0 ], [ -64.126369804114574, -30.983001072746379, 0.0 ], [ -64.126392382407772, -30.982998165534561, 0.0 ], [ -64.126414580689357, -30.982993573966521, 0.0 ], [ -64.126436230015912, -30.982987332987101, 0.0 ], [ -64.126457165622028, -30.982979490094266, 0.0 ], [ -64.126477228174323, -30.982970104977561, 0.0 ], [ -64.126496264984013, -30.982959249063853, 0.0 ], [ -64.126514131169031, -30.98294700497366, 0.0 ], [ -64.126530690756667, -30.982933465892454, 0.0 ], [ -64.126545817718466, -30.982918734861311, 0.0 ], [ -64.126559396929267, -30.982902923992814, 0.0 ], [ -64.126571325043457, -30.98288615361766, 0.0 ], [ -64.126581511281515, -30.982868551369023, 0.0 ], [ -64.12658987812074, -30.982850251211001, 0.0 ], [ -64.128252404783922, -30.982605772344883, 0.0 ], [ -64.128037753298273, -30.979213999038841, 0.0 ] ] ] ] } },
{ "type": "Feature", "properties": { "nombre": "Sin Barrio01" }, "geometry": { "type": "MultiPolygon", "coordinates": [ [ [ [ -64.09265820304725, -30.974336282985696, 0.0 ], [ -64.093813697424707, -30.97390436251305, 0.0 ], [ -64.094955748717339, -30.973458817563717, 0.0 ], [ -64.09582704990288, -30.973139113306587, 0.0 ], [ -64.096234475942254, -30.973007526911974, 0.0 ], [ -64.095538848338478, -30.972782336216113, 0.0 ], [ -64.091342061105252, -30.970568716960134, -1.7976931348623157e+308 ], [ -64.092461812520469, -30.974404296880689, 0.0 ], [ -64.09265820304725, -30.974336282985696, 0.0 ] ] ] ] } },
{ "type": "Feature", "properties": { "nombre": "Alto los Molinos" }, "geometry": { "type": "MultiPolygon", "coordinates": [ [ [ [ -64.127790063407232, -30.979251197073321, 0.0 ], [ -64.128037753298273, -30.979213999038841, 0.0 ], [ -64.139067233748378, -30.977594966888301, 0.0 ], [ -64.138695000000112, -30.975524999992224, 0.0 ], [ -64.13542441287349, -30.976037557324428, 0.0 ], [ -64.134838824313718, -30.971807102218037, 0.0 ], [ -64.129810307575426, -30.972512852176664, 0.0 ], [ -64.129793124279246, -30.971978833600073, 0.0 ], [ -64.129104104027405, -30.971984857226001, 0.0 ], [ -64.128762000000108, -30.971965999992229, 0.0 ], [ -64.127879842061887, -30.971989203944098, 0.0 ], [ -64.127790063407232, -30.979251197073321, 0.0 ] ] ] ] } },
{ "type": "Feature", "properties": { "nombre": "Sin Barrio02" }, "geometry": { "type": "MultiPolygon", "coordinates": [ [ [ [ -64.08729219220038, -30.976336540300643, 0.0 ], [ -64.084707322636291, -30.97729708027914, 0.0 ], [ -64.08665054613742, -30.981300540590873, 0.0 ], [ -64.086976483079098, -30.981209136937405, 0.0 ], [ -64.089328349120834, -30.980331312167134, 0.0 ], [ -64.08729219220038, -30.976336540300643, 0.0 ] ] ] ] } },
{ "type": "Feature", "properties": { "nombre": "Quintas de Santa Elena" }, "geometry": { "type": "MultiPolygon", "coordinates": [ [ [ [ -64.064299844353741, -30.973091073303301, 0.0 ], [ -64.060183182626758, -30.973562737705755, 0.0 ], [ -64.060590725067115, -30.976680721926126, 0.0 ], [ -64.064809386079133, -30.976204298610394, 0.0 ], [ -64.064299844353741, -30.973091073303301, 0.0 ] ] ] ] } },
{ "type": "Feature", "properties": { "nombre": "Centro" }, "geometry": { "type": "MultiPolygon", "coordinates": [ [ [ [ -64.09582704990288, -30.973139113306587, 0.0 ], [ -64.094955748717339, -30.973458817563717, 0.0 ], [ -64.093813697424707, -30.97390436251305, 0.0 ], [ -64.09265820304725, -30.974336282985696, 0.0 ], [ -64.092461812520469, -30.974404296880689, 0.0 ], [ -64.09583311815696, -30.981441044653078, 0.0 ], [ -64.098518739199235, -30.980481427801379, 0.0 ], [ -64.101974612398834, -30.97917755985333, 0.0 ], [ -64.102463454254121, -30.980120632864129, 0.0 ], [ -64.103471705381054, -30.979742221190534, 0.0 ], [ -64.104975501924457, -30.979173089480465, 0.0 ], [ -64.105150170789045, -30.979063628907824, 0.0 ], [ -64.105058133678014, -30.978062116714362, 0.0 ], [ -64.102863868985153, -30.977299506589642, 0.0 ], [ -64.102256752255386, -30.977385913381418, 0.0 ], [ -64.101663081401213, -30.977487074864786, 0.0 ], [ -64.101362525338018, -30.977560566614482, 0.0 ], [ -64.100811310113897, -30.977659074206297, 0.0 ], [ -64.100400375965691, -30.977717488057198, 0.0 ], [ -64.100158406607818, -30.97768980460069, 0.0 ], [ -64.099835992648295, -30.977594164686288, 0.0 ], [ -64.0989452060481, -30.977258541006929, 0.0 ], [ -64.098678187788821, -30.977130394453479, 0.0 ], [ -64.09845972871932, -30.976952641756654, 0.0 ], [ -64.096513608586434, -30.97408053382928, 0.0 ], [ -64.09582704990288, -30.973139113306587, 0.0 ] ] ] ] } },
{ "type": "Feature", "properties": { "nombre": "Pueblo Nuevo" }, "geometry": { "type": "MultiPolygon", "coordinates": [ [ [ [ -64.101974612398834, -30.97917755985333, 0.0 ], [ -64.098518739199235, -30.980481427801379, 0.0 ], [ -64.10188140863437, -30.987089510303026, 0.0 ], [ -64.104635799551801, -30.984545682386997, 0.0 ], [ -64.102859656769951, -30.980930788047321, 0.0 ], [ -64.102732934248067, -30.980663741552895, 0.0 ], [ -64.102463454254121, -30.980120632864129, 0.0 ], [ -64.101974612398834, -30.97917755985333, 0.0 ] ] ] ] } },
{ "type": "Feature", "properties": { "nombre": "17 de Octubre" }, "geometry": { "type": "MultiPolygon", "coordinates": [ [ [ [ -64.085417629188001, -30.994100223130715, 0.0 ], [ -64.085476402069432, -30.988789422285802, 0.0 ], [ -64.079082035991973, -30.98874862384028, 0.0 ], [ -64.079037641374626, -30.994053847834561, 0.0 ], [ -64.085417629188001, -30.994100223130715, 0.0 ] ] ] ] } },
{ "type": "Feature", "properties": { "nombre": "Bulgheroni" }, "geometry": { "type": "MultiPolygon", "coordinates": [ [ [ [ -64.089562124290111, -30.986589969802523, 0.0 ], [ -64.08874639876673, -30.985282660081182, 0.0 ], [ -64.08394903814478, -30.985242927954985, 0.0 ], [ -64.079171913903835, -30.985231448884079, 0.0 ], [ -64.079166952265709, -30.98641268868505, 0.0 ], [ -64.080626308373255, -30.98644338781752, 0.0 ], [ -64.080612538456933, -30.988755847803251, 0.0 ], [ -64.085476402069432, -30.988789422285802, 0.0 ], [ -64.087564670915896, -30.988800454995548, 0.0 ], [ -64.087570562467022, -30.988295608412766, 0.0 ], [ -64.08753885181001, -30.988207214203197, 0.0 ], [ -64.089908846194533, -30.987303484273397, 0.0 ], [ -64.090260883670396, -30.987170381333137, 0.0 ], [ -64.089562124290111, -30.986589969802523, 0.0 ] ] ] ] } },
{ "type": "Feature", "properties": { "nombre": "La Costanera" }, "geometry": { "type": "MultiPolygon", "coordinates": [ [ [ [ -64.102463454254121, -30.980120632864129, 0.0 ], [ -64.102732934248067, -30.980663741552895, 0.0 ], [ -64.103172585950745, -30.980792264225428, 0.0 ], [ -64.104740418580477, -30.981097758911307, 0.0 ], [ -64.10591637062366, -30.981315069017271, 0.0 ], [ -64.107087662553027, -30.981559578584697, 0.0 ], [ -64.108261254678453, -30.981715396667038, 0.0 ], [ -64.109091550114613, -30.981751170709959, 0.0 ], [ -64.109655482747769, -30.981717727090153, 0.0 ], [ -64.11365236943135, -30.981304375496727, 0.0 ], [ -64.114002210374053, -30.981272758565762, 0.0 ], [ -64.114035988703463, -30.980175467063912, 0.0 ], [ -64.113225, -30.980319999992226, 0.0 ], [ -64.110638788512034, -30.98063686025116, 0.0 ], [ -64.109833908603179, -30.980709145715679, 0.0 ], [ -64.109774343226164, -30.980255061809121, 0.0 ], [ -64.109908813070604, -30.979585541190705, 0.0 ], [ -64.107486149714049, -30.979057207945981, 0.0 ], [ -64.106105064466902, -30.978579403104568, 0.0 ], [ -64.105058133678014, -30.978062116714362, 0.0 ], [ -64.105150170789045, -30.979063628907824, 0.0 ], [ -64.104975501924457, -30.979173089480465, 0.0 ], [ -64.102463454254121, -30.980120632864129, 0.0 ] ] ] ] } },
{ "type": "Feature", "properties": { "nombre": "Los Nogales" }, "geometry": { "type": "MultiPolygon", "coordinates": [ [ [ [ -64.121101541117483, -30.971666704347005, 0.0 ], [ -64.116756161976795, -30.972321633182922, 0.0 ], [ -64.115122683291105, -30.969795917765317, 0.0 ], [ -64.113069051253632, -30.969048158402572, 0.0 ], [ -64.11274695270815, -30.976224896003487, 0.0 ], [ -64.113699238769797, -30.975907806252582, 0.0 ], [ -64.114066650124272, -30.975818837291932, 0.0 ], [ -64.1140240000001, -30.978884999992246, 0.0 ], [ -64.113418, -30.979214999992241, 0.0 ], [ -64.113194, -30.979818999992244, 0.0 ], [ -64.113225, -30.980319999992226, 0.0 ], [ -64.114035988703463, -30.980175467063912, 0.0 ], [ -64.114002210374053, -30.981272758565762, 0.0 ], [ -64.114500699262933, -30.98117836758, 0.0 ], [ -64.122581697074295, -30.980015861304437, 0.0 ], [ -64.124600568122958, -30.979716588074773, 0.0 ], [ -64.125224367012194, -30.979623924969044, 0.0 ], [ -64.123798150004745, -30.972346332996121, 0.0 ], [ -64.121199396379041, -30.972655425942925, 0.0 ], [ -64.121101541117483, -30.971666704347005, 0.0 ] ] ] ] } },
{ "type": "Feature", "properties": { "nombre": "Sin Barrio04" }, "geometry": { "type": "MultiPolygon", "coordinates": [ [ [ [ -64.077395034221382, -30.977480280832335, 0.0 ], [ -64.077023946503431, -30.974837373322305, 0.0 ], [ -64.066772469079822, -30.976006934090492, 0.0 ], [ -64.066350558336666, -30.97286930822283, 0.0 ], [ -64.064299844353741, -30.973091073303301, 0.0 ], [ -64.064809386079133, -30.976204298610394, 0.0 ], [ -64.060590725067115, -30.976680721926126, 0.0 ], [ -64.060183182626758, -30.973562737705755, 0.0 ], [ -64.058987459368439, -30.97444450087983, 0.0 ], [ -64.054749199091049, -30.975394392184452, 0.0 ], [ -64.050542585967236, -30.975234257061054, 0.0 ], [ -64.046486877512294, -30.976815707069598, 0.0 ], [ -64.046485409808369, -30.982211343168029, 0.0 ], [ -64.054456532084373, -30.980399738989739, 0.0 ], [ -64.058752661119698, -30.980461840240853, 0.0 ], [ -64.061475930256591, -30.980576773551299, 0.0 ], [ -64.062749999350615, -30.98052053692609, 0.0 ], [ -64.065772409608741, -30.980072347751555, 0.0 ], [ -64.067505330310382, -30.979673454021516, 0.0 ], [ -64.06932742339724, -30.979480225488629, 0.0 ], [ -64.068761343924038, -30.975894178706042, 0.0 ], [ -64.071535035572523, -30.975616485344272, 0.0 ], [ -64.072150610734496, -30.979259525388326, 0.0 ], [ -64.074579375241655, -30.97921573176508, 0.0 ], [ -64.077593587084692, -30.978933218223194, 0.0 ], [ -64.079227635205996, -30.978716513447896, 0.0 ], [ -64.079172629352385, -30.978621876405271, 0.0 ], [ -64.078604698850043, -30.977058084859134, 0.0 ], [ -64.077395034221382, -30.977480280832335, 0.0 ] ] ] ] } },
{ "type": "Feature", "properties": { "nombre": "Los Ceibos" }, "geometry": { "type": "MultiPolygon", "coordinates": [ [ [ [ -64.072150610734496, -30.979259525388326, 0.0 ], [ -64.071535035572523, -30.975616485344272, 0.0 ], [ -64.068761343924038, -30.975894178706042, 0.0 ], [ -64.06932742339724, -30.979480225488629, 0.0 ], [ -64.072150610734496, -30.979259525388326, 0.0 ] ] ] ] } }
]
}
