{
"type": "FeatureCollection",
"name": "CAMINOREAL",
"crs": { "type": "name", "properties": { "name": "urn:ogc:def:crs:OGC:1.3:CRS84" } },
"features": [
{ "type": "Feature", "properties": { "orden": 1 }, "geometry": { "type": "Point", "coordinates": [ -64.097460036042193, -30.971198656166223 ] } },
{ "type": "Feature", "properties": { "orden": 2 }, "geometry": { "type": "Point", "coordinates": [ -64.097898846215799, -30.971215924672055 ] } },
{ "type": "Feature", "properties": { "orden": 3 }, "geometry": { "type": "Point", "coordinates": [ -64.098004163085889, -30.970837088469114 ] } },
{ "type": "Feature", "properties": { "orden": 4 }, "geometry": { "type": "Point", "coordinates": [ -64.098261841368256, -30.969932038739131 ] } },
{ "type": "Feature", "properties": { "orden": 5 }, "geometry": { "type": "Point", "coordinates": [ -64.098057828955106, -30.969671313588567 ] } },
{ "type": "Feature", "properties": { "orden": 6 }, "geometry": { "type": "Point", "coordinates": [ -64.098031181467135, -30.969472071058718 ] } },
{ "type": "Feature", "properties": { "orden": 7 }, "geometry": { "type": "Point", "coordinates": [ -64.097948092069302, -30.969131580186612 ] } },
{ "type": "Feature", "properties": { "orden": 8 }, "geometry": { "type": "Point", "coordinates": [ -64.097778827060949, -30.968713083687373 ] } },
{ "type": "Feature", "properties": { "orden": 9 }, "geometry": { "type": "Point", "coordinates": [ -64.098289397025766, -30.968614259246209 ] } },
{ "type": "Feature", "properties": { "orden": 10 }, "geometry": { "type": "Point", "coordinates": [ -64.099260902962115, -30.968338288886365 ] } },
{ "type": "Feature", "properties": { "orden": 11 }, "geometry": { "type": "Point", "coordinates": [ -64.098608918641091, -30.968322837591934 ] } },
{ "type": "Feature", "properties": { "orden": 12 }, "geometry": { "type": "Point", "coordinates": [ -64.097830463557415, -30.968434438126888 ] } },
{ "type": "Feature", "properties": { "orden": 13 }, "geometry": { "type": "Point", "coordinates": [ -64.097773842134245, -30.968277443661407 ] } },
{ "type": "Feature", "properties": { "orden": 14 }, "geometry": { "type": "Point", "coordinates": [ -64.097759257699565, -30.968067600154058 ] } },
{ "type": "Feature", "properties": { "orden": 15 }, "geometry": { "type": "Point", "coordinates": [ -64.097535356454699, -30.967665314979754 ] } },
{ "type": "Feature", "properties": { "orden": 16 }, "geometry": { "type": "Point", "coordinates": [ -64.097833576393271, -30.967641784648766 ] } },
{ "type": "Feature", "properties": { "orden": 17 }, "geometry": { "type": "Point", "coordinates": [ -64.098156100166676, -30.967612797881237 ] } },
{ "type": "Feature", "properties": { "orden": 18 }, "geometry": { "type": "Point", "coordinates": [ -64.098356382746786, -30.967548105228982 ] } },
{ "type": "Feature", "properties": { "orden": 19 }, "geometry": { "type": "Point", "coordinates": [ -64.098679026219301, -30.967529614515428 ] } },
{ "type": "Feature", "properties": { "orden": 20 }, "geometry": { "type": "Point", "coordinates": [ -64.098989006531824, -30.967469237227636 ] } },
{ "type": "Feature", "properties": { "orden": 21 }, "geometry": { "type": "Point", "coordinates": [ -64.099372258917811, -30.967423983324458 ] } },
{ "type": "Feature", "properties": { "orden": 22 }, "geometry": { "type": "Point", "coordinates": [ -64.098829818187511, -30.966866934819741 ] } },
{ "type": "Feature", "properties": { "orden": 23 }, "geometry": { "type": "Point", "coordinates": [ -64.09845277887139, -30.966922632638529 ] } },
{ "type": "Feature", "properties": { "orden": 24 }, "geometry": { "type": "Point", "coordinates": [ -64.098087560606288, -30.966946733782137 ] } },
{ "type": "Feature", "properties": { "orden": 25 }, "geometry": { "type": "Point", "coordinates": [ -64.09780797618852, -30.967001601450779 ] } },
{ "type": "Feature", "properties": { "orden": 26 }, "geometry": { "type": "Point", "coordinates": [ -64.097521940194724, -30.96702502820072 ] } },
{ "type": "Feature", "properties": { "orden": 27 }, "geometry": { "type": "Point", "coordinates": [ -64.097407919899581, -30.966642806032901 ] } },
{ "type": "Feature", "properties": { "orden": 28 }, "geometry": { "type": "Point", "coordinates": [ -64.097718018365015, -30.966592929189247 ] } },
{ "type": "Feature", "properties": { "orden": 29 }, "geometry": { "type": "Point", "coordinates": [ -64.09799784192424, -30.966559056443714 ] } },
{ "type": "Feature", "properties": { "orden": 30 }, "geometry": { "type": "Point", "coordinates": [ -64.098289907250802, -30.966530328224167 ] } },
{ "type": "Feature", "properties": { "orden": 31 }, "geometry": { "type": "Point", "coordinates": [ -64.098667125451939, -30.966490376936971 ] } },
{ "type": "Feature", "properties": { "orden": 32 }, "geometry": { "type": "Point", "coordinates": [ -64.099159788439323, -30.965893028809766 ] } },
{ "type": "Feature", "properties": { "orden": 33 }, "geometry": { "type": "Point", "coordinates": [ -64.098837451148611, -30.965937763971972 ] } },
{ "type": "Feature", "properties": { "orden": 34 }, "geometry": { "type": "Point", "coordinates": [ -64.098551598930072, -30.965976938950991 ] } },
{ "type": "Feature", "properties": { "orden": 35 }, "geometry": { "type": "Point", "coordinates": [ -64.098247473703424, -30.966016268618873 ] } },
{ "type": "Feature", "properties": { "orden": 36 }, "geometry": { "type": "Point", "coordinates": [ -64.097992315837871, -30.966076178215218 ] } },
{ "type": "Feature", "properties": { "orden": 37 }, "geometry": { "type": "Point", "coordinates": [ -64.097779193588593, -30.966083238304154 ] } },
{ "type": "Feature", "properties": { "orden": 38 }, "geometry": { "type": "Point", "coordinates": [ -64.097554549905126, -30.966148136971501 ] } },
{ "type": "Feature", "properties": { "orden": 39 }, "geometry": { "type": "Point", "coordinates": [ -64.097329305612178, -30.966160548478037 ] } },
{ "type": "Feature", "properties": { "orden": 40 }, "geometry": { "type": "Point", "coordinates": [ -64.097232299448322, -30.965667948635723 ] } },
{ "type": "Feature", "properties": { "orden": 41 }, "geometry": { "type": "Point", "coordinates": [ -64.098113136773819, -30.965455747356796 ] } },
{ "type": "Feature", "properties": { "orden": 42 }, "geometry": { "type": "Point", "coordinates": [ -64.098735308331882, -30.965529196029841 ] } },
{ "type": "Feature", "properties": { "orden": 43 }, "geometry": { "type": "Point", "coordinates": [ -64.096699477239255, -30.967016264302327 ] } }
]
}
