{
"type": "FeatureCollection",
"name": "CENTRO",
"crs": { "type": "name", "properties": { "name": "urn:ogc:def:crs:OGC:1.3:CRS84" } },
"features": [
{ "type": "Feature", "properties": { "orden": 1 }, "geometry": { "type": "Point", "coordinates": [ -64.095611069892996, -30.973461412551437 ] } },
{ "type": "Feature", "properties": { "orden": 2 }, "geometry": { "type": "Point", "coordinates": [ -64.09566641913554, -30.973612169420637 ] } },
{ "type": "Feature", "properties": { "orden": 3 }, "geometry": { "type": "Point", "coordinates": [ -64.095731182147745, -30.973733441309669 ] } },
{ "type": "Feature", "properties": { "orden": 4 }, "geometry": { "type": "Point", "coordinates": [ -64.095741891304556, -30.973817365071596 ] } },
{ "type": "Feature", "properties": { "orden": 5 }, "geometry": { "type": "Point", "coordinates": [ -64.095935389675304, -30.974111875166447 ] } },
{ "type": "Feature", "properties": { "orden": 6 }, "geometry": { "type": "Point", "coordinates": [ -64.095855172172051, -30.974131458922407 ] } },
{ "type": "Feature", "properties": { "orden": 7 }, "geometry": { "type": "Point", "coordinates": [ -64.095780237278476, -30.974186704021555 ] } },
{ "type": "Feature", "properties": { "orden": 8 }, "geometry": { "type": "Point", "coordinates": [ -64.095712518473363, -30.97423348641658 ] } },
{ "type": "Feature", "properties": { "orden": 9 }, "geometry": { "type": "Point", "coordinates": [ -64.095576480938391, -30.974274547072184 ] } },
{ "type": "Feature", "properties": { "orden": 10 }, "geometry": { "type": "Point", "coordinates": [ -64.095595044408441, -30.974192475420928 ] } },
{ "type": "Feature", "properties": { "orden": 11 }, "geometry": { "type": "Point", "coordinates": [ -64.095565220123419, -30.974142319589912 ] } },
{ "type": "Feature", "properties": { "orden": 12 }, "geometry": { "type": "Point", "coordinates": [ -64.095540294612803, -30.974094222573868 ] } },
{ "type": "Feature", "properties": { "orden": 13 }, "geometry": { "type": "Point", "coordinates": [ -64.095520267867613, -30.97404818437591 ] } },
{ "type": "Feature", "properties": { "orden": 14 }, "geometry": { "type": "Point", "coordinates": [ -64.095344471085923, -30.973595996179455 ] } },
{ "type": "Feature", "properties": { "orden": 15 }, "geometry": { "type": "Point", "coordinates": [ -64.095294812467145, -30.97351660333025 ] } },
{ "type": "Feature", "properties": { "orden": 16 }, "geometry": { "type": "Point", "coordinates": [ -64.094904770403417, -30.973727845712897 ] } },
{ "type": "Feature", "properties": { "orden": 17 }, "geometry": { "type": "Point", "coordinates": [ -64.095082163540766, -30.974106508223187 ] } },
{ "type": "Feature", "properties": { "orden": 18 }, "geometry": { "type": "Point", "coordinates": [ -64.09512752304515, -30.974236346345645 ] } },
{ "type": "Feature", "properties": { "orden": 19 }, "geometry": { "type": "Point", "coordinates": [ -64.095188985147018, -30.974282033347219 ] } },
{ "type": "Feature", "properties": { "orden": 20 }, "geometry": { "type": "Point", "coordinates": [ -64.095219408814714, -30.97438469330509 ] } },
{ "type": "Feature", "properties": { "orden": 21 }, "geometry": { "type": "Point", "coordinates": [ -64.094961597432416, -30.97443518707999 ] } },
{ "type": "Feature", "properties": { "orden": 22 }, "geometry": { "type": "Point", "coordinates": [ -64.094690144197301, -30.974571910901972 ] } },
{ "type": "Feature", "properties": { "orden": 23 }, "geometry": { "type": "Point", "coordinates": [ -64.094566819950117, -30.974659070806215 ] } },
{ "type": "Feature", "properties": { "orden": 24 }, "geometry": { "type": "Point", "coordinates": [ -64.094459958116971, -30.974693582005422 ] } },
{ "type": "Feature", "properties": { "orden": 25 }, "geometry": { "type": "Point", "coordinates": [ -64.094427049828951, -30.974586742181199 ] } },
{ "type": "Feature", "properties": { "orden": 26 }, "geometry": { "type": "Point", "coordinates": [ -64.094445111087168, -30.97446056727237 ] } },
{ "type": "Feature", "properties": { "orden": 27 }, "geometry": { "type": "Point", "coordinates": [ -64.094414712179514, -30.97436000727636 ] } },
{ "type": "Feature", "properties": { "orden": 28 }, "geometry": { "type": "Point", "coordinates": [ -64.09431575513068, -30.974232723274508 ] } },
{ "type": "Feature", "properties": { "orden": 29 }, "geometry": { "type": "Point", "coordinates": [ -64.094123962341854, -30.974087322176025 ] } },
{ "type": "Feature", "properties": { "orden": 30 }, "geometry": { "type": "Point", "coordinates": [ -64.094293907918342, -30.97402707254512 ] } },
{ "type": "Feature", "properties": { "orden": 31 }, "geometry": { "type": "Point", "coordinates": [ -64.094429921734161, -30.973983913071862 ] } },
{ "type": "Feature", "properties": { "orden": 32 }, "geometry": { "type": "Point", "coordinates": [ -64.094570258939854, -30.973892408428178 ] } },
{ "type": "Feature", "properties": { "orden": 33 }, "geometry": { "type": "Point", "coordinates": [ -64.094679820877488, -30.973880978285102 ] } },
{ "type": "Feature", "properties": { "orden": 34 }, "geometry": { "type": "Point", "coordinates": [ -64.093724495694801, -30.974113808717767 ] } },
{ "type": "Feature", "properties": { "orden": 35 }, "geometry": { "type": "Point", "coordinates": [ -64.093608459315575, -30.974198805651916 ] } },
{ "type": "Feature", "properties": { "orden": 36 }, "geometry": { "type": "Point", "coordinates": [ -64.093499567276623, -30.974269039454136 ] } },
{ "type": "Feature", "properties": { "orden": 37 }, "geometry": { "type": "Point", "coordinates": [ -64.093057758489905, -30.974430305731243 ] } },
{ "type": "Feature", "properties": { "orden": 38 }, "geometry": { "type": "Point", "coordinates": [ -64.093169288198794, -30.974805327443331 ] } },
{ "type": "Feature", "properties": { "orden": 39 }, "geometry": { "type": "Point", "coordinates": [ -64.093241145701711, -30.974907637274711 ] } },
{ "type": "Feature", "properties": { "orden": 40 }, "geometry": { "type": "Point", "coordinates": [ -64.093220406004363, -30.975012831045195 ] } },
{ "type": "Feature", "properties": { "orden": 41 }, "geometry": { "type": "Point", "coordinates": [ -64.09333831107169, -30.975091647122127 ] } },
{ "type": "Feature", "properties": { "orden": 42 }, "geometry": { "type": "Point", "coordinates": [ -64.093462139827849, -30.97504859176987 ] } },
{ "type": "Feature", "properties": { "orden": 43 }, "geometry": { "type": "Point", "coordinates": [ -64.093564055796392, -30.975007822157949 ] } },
{ "type": "Feature", "properties": { "orden": 44 }, "geometry": { "type": "Point", "coordinates": [ -64.094013178499509, -30.974846492198179 ] } },
{ "type": "Feature", "properties": { "orden": 45 }, "geometry": { "type": "Point", "coordinates": [ -64.093990187910649, -30.974754270826629 ] } },
{ "type": "Feature", "properties": { "orden": 46 }, "geometry": { "type": "Point", "coordinates": [ -64.093948009622366, -30.974689516676044 ] } },
{ "type": "Feature", "properties": { "orden": 47 }, "geometry": { "type": "Point", "coordinates": [ -64.09387615154867, -30.974587207248462 ] } },
{ "type": "Feature", "properties": { "orden": 48 }, "geometry": { "type": "Point", "coordinates": [ -64.093838009902981, -30.974448906095859 ] } },
{ "type": "Feature", "properties": { "orden": 49 }, "geometry": { "type": "Point", "coordinates": [ -64.093792532270541, -30.97430856667334 ] } },
{ "type": "Feature", "properties": { "orden": 50 }, "geometry": { "type": "Point", "coordinates": [ -64.093764475680246, -30.974199585218088 ] } },
{ "type": "Feature", "properties": { "orden": 51 }, "geometry": { "type": "Point", "coordinates": [ -64.094197067958319, -30.975153688463109 ] } },
{ "type": "Feature", "properties": { "orden": 52 }, "geometry": { "type": "Point", "coordinates": [ -64.094015053086224, -30.975224542021351 ] } },
{ "type": "Feature", "properties": { "orden": 53 }, "geometry": { "type": "Point", "coordinates": [ -64.093903291646498, -30.975256993896732 ] } },
{ "type": "Feature", "properties": { "orden": 54 }, "geometry": { "type": "Point", "coordinates": [ -64.093794470507333, -30.975333528445994 ] } },
{ "type": "Feature", "properties": { "orden": 55 }, "geometry": { "type": "Point", "coordinates": [ -64.093732127674258, -30.975424371968362 ] } },
{ "type": "Feature", "properties": { "orden": 56 }, "geometry": { "type": "Point", "coordinates": [ -64.09361988695531, -30.975414820360324 ] } },
{ "type": "Feature", "properties": { "orden": 57 }, "geometry": { "type": "Point", "coordinates": [ -64.093503226379823, -30.975445213002185 ] } },
{ "type": "Feature", "properties": { "orden": 58 }, "geometry": { "type": "Point", "coordinates": [ -64.093531402811564, -30.975564695303412 ] } },
{ "type": "Feature", "properties": { "orden": 59 }, "geometry": { "type": "Point", "coordinates": [ -64.093747308501435, -30.975686789056052 ] } },
{ "type": "Feature", "properties": { "orden": 60 }, "geometry": { "type": "Point", "coordinates": [ -64.093732234416592, -30.975861246962179 ] } },
{ "type": "Feature", "properties": { "orden": 61 }, "geometry": { "type": "Point", "coordinates": [ -64.093748224137158, -30.975980832379577 ] } },
{ "type": "Feature", "properties": { "orden": 62 }, "geometry": { "type": "Point", "coordinates": [ -64.093751739344412, -30.976075319032333 ] } },
{ "type": "Feature", "properties": { "orden": 63 }, "geometry": { "type": "Point", "coordinates": [ -64.093915382451527, -30.976103338538124 ] } },
{ "type": "Feature", "properties": { "orden": 64 }, "geometry": { "type": "Point", "coordinates": [ -64.09404860257888, -30.976028697619245 ] } },
{ "type": "Feature", "properties": { "orden": 65 }, "geometry": { "type": "Point", "coordinates": [ -64.09422603161282, -30.975983087218172 ] } },
{ "type": "Feature", "properties": { "orden": 66 }, "geometry": { "type": "Point", "coordinates": [ -64.094335404274148, -30.975954856020561 ] } },
{ "type": "Feature", "properties": { "orden": 67 }, "geometry": { "type": "Point", "coordinates": [ -64.094541578790043, -30.975864894025978 ] } },
{ "type": "Feature", "properties": { "orden": 68 }, "geometry": { "type": "Point", "coordinates": [ -64.094491823724809, -30.975777100261389 ] } },
{ "type": "Feature", "properties": { "orden": 69 }, "geometry": { "type": "Point", "coordinates": [ -64.094412771797593, -30.975685353941266 ] } },
{ "type": "Feature", "properties": { "orden": 70 }, "geometry": { "type": "Point", "coordinates": [ -64.094343277982773, -30.975576723684419 ] } },
{ "type": "Feature", "properties": { "orden": 71 }, "geometry": { "type": "Point", "coordinates": [ -64.094276581166326, -30.975499575165372 ] } },
{ "type": "Feature", "properties": { "orden": 72 }, "geometry": { "type": "Point", "coordinates": [ -64.094224245366078, -30.975399200957686 ] } },
{ "type": "Feature", "properties": { "orden": 73 }, "geometry": { "type": "Point", "coordinates": [ -64.09417938962082, -30.975313465925502 ] } },
{ "type": "Feature", "properties": { "orden": 74 }, "geometry": { "type": "Point", "coordinates": [ -64.094880867981402, -30.975477652196151 ] } },
{ "type": "Feature", "properties": { "orden": 75 }, "geometry": { "type": "Point", "coordinates": [ -64.094703736598717, -30.975122091307306 ] } },
{ "type": "Feature", "properties": { "orden": 76 }, "geometry": { "type": "Point", "coordinates": [ -64.094615294955233, -30.975061930134935 ] } },
{ "type": "Feature", "properties": { "orden": 77 }, "geometry": { "type": "Point", "coordinates": [ -64.094697327679128, -30.974987722270612 ] } },
{ "type": "Feature", "properties": { "orden": 78 }, "geometry": { "type": "Point", "coordinates": [ -64.094903979283899, -30.974939762972973 ] } },
{ "type": "Feature", "properties": { "orden": 79 }, "geometry": { "type": "Point", "coordinates": [ -64.095049096272533, -30.97483981583861 ] } },
{ "type": "Feature", "properties": { "orden": 80 }, "geometry": { "type": "Point", "coordinates": [ -64.095146064576184, -30.974792785834758 ] } },
{ "type": "Feature", "properties": { "orden": 81 }, "geometry": { "type": "Point", "coordinates": [ -64.095279785558418, -30.974762247085291 ] } },
{ "type": "Feature", "properties": { "orden": 82 }, "geometry": { "type": "Point", "coordinates": [ -64.095322891175698, -30.974694669951312 ] } },
{ "type": "Feature", "properties": { "orden": 83 }, "geometry": { "type": "Point", "coordinates": [ -64.095412292336462, -30.974838837088797 ] } },
{ "type": "Feature", "properties": { "orden": 84 }, "geometry": { "type": "Point", "coordinates": [ -64.095452202177214, -30.974918312530992 ] } },
{ "type": "Feature", "properties": { "orden": 85 }, "geometry": { "type": "Point", "coordinates": [ -64.095497514621457, -30.975043950164402 ] } },
{ "type": "Feature", "properties": { "orden": 86 }, "geometry": { "type": "Point", "coordinates": [ -64.095554510436457, -30.975125381045448 ] } },
{ "type": "Feature", "properties": { "orden": 87 }, "geometry": { "type": "Point", "coordinates": [ -64.095606775481741, -30.975219454206115 ] } },
{ "type": "Feature", "properties": { "orden": 88 }, "geometry": { "type": "Point", "coordinates": [ -64.095671419609303, -30.975330225267228 ] } },
{ "type": "Feature", "properties": { "orden": 89 }, "geometry": { "type": "Point", "coordinates": [ -64.095753005799281, -30.975430350769511 ] } },
{ "type": "Feature", "properties": { "orden": 90 }, "geometry": { "type": "Point", "coordinates": [ -64.095602102221122, -30.975450533919517 ] } },
{ "type": "Feature", "properties": { "orden": 91 }, "geometry": { "type": "Point", "coordinates": [ -64.095468404387134, -30.975483173180685 ] } },
{ "type": "Feature", "properties": { "orden": 92 }, "geometry": { "type": "Point", "coordinates": [ -64.095286222006919, -30.975539327391999 ] } },
{ "type": "Feature", "properties": { "orden": 93 }, "geometry": { "type": "Point", "coordinates": [ -64.095182084675045, -30.975599020468973 ] } },
{ "type": "Feature", "properties": { "orden": 94 }, "geometry": { "type": "Point", "coordinates": [ -64.096194766306894, -30.975264874975288 ] } },
{ "type": "Feature", "properties": { "orden": 95 }, "geometry": { "type": "Point", "coordinates": [ -64.096142476663999, -30.975168701906846 ] } },
{ "type": "Feature", "properties": { "orden": 96 }, "geometry": { "type": "Point", "coordinates": [ -64.096065333102231, -30.975030732399389 ] } },
{ "type": "Feature", "properties": { "orden": 97 }, "geometry": { "type": "Point", "coordinates": [ -64.095970840008107, -30.974867705654123 ] } },
{ "type": "Feature", "properties": { "orden": 98 }, "geometry": { "type": "Point", "coordinates": [ -64.095876779169458, -30.974742481724558 ] } },
{ "type": "Feature", "properties": { "orden": 99 }, "geometry": { "type": "Point", "coordinates": [ -64.095829508894411, -30.974658868121349 ] } },
{ "type": "Feature", "properties": { "orden": 100 }, "geometry": { "type": "Point", "coordinates": [ -64.095752654127452, -30.97454610032872 ] } },
{ "type": "Feature", "properties": { "orden": 101 }, "geometry": { "type": "Point", "coordinates": [ -64.095898729467692, -30.974530158708973 ] } },
{ "type": "Feature", "properties": { "orden": 102 }, "geometry": { "type": "Point", "coordinates": [ -64.095973640555016, -30.974472813378298 ] } },
{ "type": "Feature", "properties": { "orden": 103 }, "geometry": { "type": "Point", "coordinates": [ -64.096113099607862, -30.974517838216851 ] } },
{ "type": "Feature", "properties": { "orden": 104 }, "geometry": { "type": "Point", "coordinates": [ -64.096209213859922, -30.974609438722954 ] } },
{ "type": "Feature", "properties": { "orden": 105 }, "geometry": { "type": "Point", "coordinates": [ -64.09643886813349, -30.974867934987682 ] } },
{ "type": "Feature", "properties": { "orden": 106 }, "geometry": { "type": "Point", "coordinates": [ -64.096587585115557, -30.975083010220761 ] } },
{ "type": "Feature", "properties": { "orden": 107 }, "geometry": { "type": "Point", "coordinates": [ -64.096498145562833, -30.975148880674485 ] } },
{ "type": "Feature", "properties": { "orden": 108 }, "geometry": { "type": "Point", "coordinates": [ -64.0963911879047, -30.975174992823778 ] } },
{ "type": "Feature", "properties": { "orden": 109 }, "geometry": { "type": "Point", "coordinates": [ -64.096322170855487, -30.975534740808861 ] } },
{ "type": "Feature", "properties": { "orden": 110 }, "geometry": { "type": "Point", "coordinates": [ -64.096555586242715, -30.975482351008054 ] } },
{ "type": "Feature", "properties": { "orden": 111 }, "geometry": { "type": "Point", "coordinates": [ -64.096746292558137, -30.975319004090533 ] } },
{ "type": "Feature", "properties": { "orden": 112 }, "geometry": { "type": "Point", "coordinates": [ -64.096771627279452, -30.975402803564233 ] } },
{ "type": "Feature", "properties": { "orden": 113 }, "geometry": { "type": "Point", "coordinates": [ -64.096853478859401, -30.975526030101513 ] } },
{ "type": "Feature", "properties": { "orden": 114 }, "geometry": { "type": "Point", "coordinates": [ -64.096927994386093, -30.975647218509 ] } },
{ "type": "Feature", "properties": { "orden": 115 }, "geometry": { "type": "Point", "coordinates": [ -64.097216655814861, -30.975949319868448 ] } },
{ "type": "Feature", "properties": { "orden": 116 }, "geometry": { "type": "Point", "coordinates": [ -64.09706845346571, -30.975992585796028 ] } },
{ "type": "Feature", "properties": { "orden": 117 }, "geometry": { "type": "Point", "coordinates": [ -64.096940663163096, -30.976115492053221 ] } },
{ "type": "Feature", "properties": { "orden": 118 }, "geometry": { "type": "Point", "coordinates": [ -64.096760990001002, -30.976177928129722 ] } },
{ "type": "Feature", "properties": { "orden": 119 }, "geometry": { "type": "Point", "coordinates": [ -64.096525339983415, -30.976035003453639 ] } },
{ "type": "Feature", "properties": { "orden": 120 }, "geometry": { "type": "Point", "coordinates": [ -64.096486017390191, -30.975793795371818 ] } },
{ "type": "Feature", "properties": { "orden": 121 }, "geometry": { "type": "Point", "coordinates": [ -64.094722938655167, -30.976163709415005 ] } },
{ "type": "Feature", "properties": { "orden": 122 }, "geometry": { "type": "Point", "coordinates": [ -64.094472770056427, -30.976243542613421 ] } },
{ "type": "Feature", "properties": { "orden": 123 }, "geometry": { "type": "Point", "coordinates": [ -64.094355133157123, -30.976402066536444 ] } },
{ "type": "Feature", "properties": { "orden": 124 }, "geometry": { "type": "Point", "coordinates": [ -64.094284711074522, -30.976425767092664 ] } },
{ "type": "Feature", "properties": { "orden": 125 }, "geometry": { "type": "Point", "coordinates": [ -64.094142956335091, -30.976393361952198 ] } },
{ "type": "Feature", "properties": { "orden": 126 }, "geometry": { "type": "Point", "coordinates": [ -64.093897326142937, -30.976443750506437 ] } },
{ "type": "Feature", "properties": { "orden": 127 }, "geometry": { "type": "Point", "coordinates": [ -64.094115072756978, -30.976513318890493 ] } },
{ "type": "Feature", "properties": { "orden": 128 }, "geometry": { "type": "Point", "coordinates": [ -64.094133069258277, -30.976595080683136 ] } },
{ "type": "Feature", "properties": { "orden": 129 }, "geometry": { "type": "Point", "coordinates": [ -64.094226962022262, -30.976705604728092 ] } },
{ "type": "Feature", "properties": { "orden": 130 }, "geometry": { "type": "Point", "coordinates": [ -64.094298822123335, -30.976807913881235 ] } },
{ "type": "Feature", "properties": { "orden": 131 }, "geometry": { "type": "Point", "coordinates": [ -64.094317154338299, -30.976919077897854 ] } },
{ "type": "Feature", "properties": { "orden": 132 }, "geometry": { "type": "Point", "coordinates": [ -64.094281599039221, -30.977007594385242 ] } },
{ "type": "Feature", "properties": { "orden": 133 }, "geometry": { "type": "Point", "coordinates": [ -64.094312549908111, -30.977156458063895 ] } },
{ "type": "Feature", "properties": { "orden": 134 }, "geometry": { "type": "Point", "coordinates": [ -64.094413772685897, -30.977054783075602 ] } },
{ "type": "Feature", "properties": { "orden": 135 }, "geometry": { "type": "Point", "coordinates": [ -64.094547616902176, -30.977034745820234 ] } },
{ "type": "Feature", "properties": { "orden": 136 }, "geometry": { "type": "Point", "coordinates": [ -64.094632592158192, -30.977004620708431 ] } },
{ "type": "Feature", "properties": { "orden": 137 }, "geometry": { "type": "Point", "coordinates": [ -64.094724592038389, -30.976949231643388 ] } },
{ "type": "Feature", "properties": { "orden": 138 }, "geometry": { "type": "Point", "coordinates": [ -64.0947770412251, -30.976845869322183 ] } },
{ "type": "Feature", "properties": { "orden": 139 }, "geometry": { "type": "Point", "coordinates": [ -64.094899896658006, -30.976930943037857 ] } },
{ "type": "Feature", "properties": { "orden": 140 }, "geometry": { "type": "Point", "coordinates": [ -64.094982482212856, -30.976905038680691 ] } },
{ "type": "Feature", "properties": { "orden": 141 }, "geometry": { "type": "Point", "coordinates": [ -64.095055461807888, -30.976891817883736 ] } },
{ "type": "Feature", "properties": { "orden": 142 }, "geometry": { "type": "Point", "coordinates": [ -64.095091256153907, -30.976824302807525 ] } },
{ "type": "Feature", "properties": { "orden": 143 }, "geometry": { "type": "Point", "coordinates": [ -64.095129655766954, -30.976771468184282 ] } },
{ "type": "Feature", "properties": { "orden": 144 }, "geometry": { "type": "Point", "coordinates": [ -64.095063197269624, -30.976715321728317 ] } },
{ "type": "Feature", "properties": { "orden": 145 }, "geometry": { "type": "Point", "coordinates": [ -64.094947126802737, -30.976583982642548 ] } },
{ "type": "Feature", "properties": { "orden": 146 }, "geometry": { "type": "Point", "coordinates": [ -64.09487186973368, -30.976397688074556 ] } },
{ "type": "Feature", "properties": { "orden": 147 }, "geometry": { "type": "Point", "coordinates": [ -64.094822329847787, -30.976328795908216 ] } },
{ "type": "Feature", "properties": { "orden": 148 }, "geometry": { "type": "Point", "coordinates": [ -64.094797332180519, -30.976274398285927 ] } },
{ "type": "Feature", "properties": { "orden": 149 }, "geometry": { "type": "Point", "coordinates": [ -64.095209413684159, -30.977138355722179 ] } },
{ "type": "Feature", "properties": { "orden": 150 }, "geometry": { "type": "Point", "coordinates": [ -64.095156701010609, -30.977218616440446 ] } },
{ "type": "Feature", "properties": { "orden": 151 }, "geometry": { "type": "Point", "coordinates": [ -64.095050340168527, -30.977297231550608 ] } },
{ "type": "Feature", "properties": { "orden": 152 }, "geometry": { "type": "Point", "coordinates": [ -64.094827028961163, -30.977381038522115 ] } },
{ "type": "Feature", "properties": { "orden": 153 }, "geometry": { "type": "Point", "coordinates": [ -64.094649885334107, -30.977451851724151 ] } },
{ "type": "Feature", "properties": { "orden": 154 }, "geometry": { "type": "Point", "coordinates": [ -64.094476417973212, -30.977417615335995 ] } },
{ "type": "Feature", "properties": { "orden": 155 }, "geometry": { "type": "Point", "coordinates": [ -64.094470807299146, -30.977566788720484 ] } },
{ "type": "Feature", "properties": { "orden": 156 }, "geometry": { "type": "Point", "coordinates": [ -64.094594310622412, -30.977708567045799 ] } },
{ "type": "Feature", "properties": { "orden": 157 }, "geometry": { "type": "Point", "coordinates": [ -64.094649493139826, -30.97784462310781 ] } },
{ "type": "Feature", "properties": { "orden": 158 }, "geometry": { "type": "Point", "coordinates": [ -64.094684960248216, -30.977961942938279 ] } },
{ "type": "Feature", "properties": { "orden": 159 }, "geometry": { "type": "Point", "coordinates": [ -64.09474492211217, -30.978089556994238 ] } },
{ "type": "Feature", "properties": { "orden": 160 }, "geometry": { "type": "Point", "coordinates": [ -64.094828563653948, -30.978156059780407 ] } },
{ "type": "Feature", "properties": { "orden": 161 }, "geometry": { "type": "Point", "coordinates": [ -64.094866292567119, -30.978044420734932 ] } },
{ "type": "Feature", "properties": { "orden": 162 }, "geometry": { "type": "Point", "coordinates": [ -64.094931768781464, -30.978014460681532 ] } },
{ "type": "Feature", "properties": { "orden": 163 }, "geometry": { "type": "Point", "coordinates": [ -64.094999586511349, -30.977976079292539 ] } },
{ "type": "Feature", "properties": { "orden": 164 }, "geometry": { "type": "Point", "coordinates": [ -64.095123562049778, -30.977945623258549 ] } },
{ "type": "Feature", "properties": { "orden": 165 }, "geometry": { "type": "Point", "coordinates": [ -64.095193721190213, -30.977898820465018 ] } },
{ "type": "Feature", "properties": { "orden": 166 }, "geometry": { "type": "Point", "coordinates": [ -64.095263832290627, -30.977847817314025 ] } },
{ "type": "Feature", "properties": { "orden": 167 }, "geometry": { "type": "Point", "coordinates": [ -64.095351749227248, -30.977861774420859 ] } },
{ "type": "Feature", "properties": { "orden": 168 }, "geometry": { "type": "Point", "coordinates": [ -64.095526791459022, -30.977820383168421 ] } },
{ "type": "Feature", "properties": { "orden": 169 }, "geometry": { "type": "Point", "coordinates": [ -64.095454089642487, -30.977644569154375 ] } },
{ "type": "Feature", "properties": { "orden": 170 }, "geometry": { "type": "Point", "coordinates": [ -64.095387270519595, -30.977556920486606 ] } },
{ "type": "Feature", "properties": { "orden": 171 }, "geometry": { "type": "Point", "coordinates": [ -64.095315264772083, -30.97744201102886 ] } },
{ "type": "Feature", "properties": { "orden": 172 }, "geometry": { "type": "Point", "coordinates": [ -64.095286317968174, -30.977255324080588 ] } },
{ "type": "Feature", "properties": { "orden": 173 }, "geometry": { "type": "Point", "coordinates": [ -64.095822798611096, -30.977271777977471 ] } },
{ "type": "Feature", "properties": { "orden": 174 }, "geometry": { "type": "Point", "coordinates": [ -64.095780210007376, -30.977171321782464 ] } },
{ "type": "Feature", "properties": { "orden": 175 }, "geometry": { "type": "Point", "coordinates": [ -64.09569106995049, -30.977050256778497 ] } },
{ "type": "Feature", "properties": { "orden": 176 }, "geometry": { "type": "Point", "coordinates": [ -64.095660788805006, -30.976960197967312 ] } },
{ "type": "Feature", "properties": { "orden": 177 }, "geometry": { "type": "Point", "coordinates": [ -64.095889213147942, -30.976897349836527 ] } },
{ "type": "Feature", "properties": { "orden": 178 }, "geometry": { "type": "Point", "coordinates": [ -64.096054455585076, -30.976851840299251 ] } },
{ "type": "Feature", "properties": { "orden": 179 }, "geometry": { "type": "Point", "coordinates": [ -64.096158857732604, -30.976815248271429 ] } },
{ "type": "Feature", "properties": { "orden": 180 }, "geometry": { "type": "Point", "coordinates": [ -64.09625850493974, -30.97678919832962 ] } },
{ "type": "Feature", "properties": { "orden": 181 }, "geometry": { "type": "Point", "coordinates": [ -64.096355690637608, -30.976761068838442 ] } },
{ "type": "Feature", "properties": { "orden": 182 }, "geometry": { "type": "Point", "coordinates": [ -64.096479664145235, -30.9767306115445 ] } },
{ "type": "Feature", "properties": { "orden": 183 }, "geometry": { "type": "Point", "coordinates": [ -64.09650837295419, -30.976896296591441 ] } },
{ "type": "Feature", "properties": { "orden": 184 }, "geometry": { "type": "Point", "coordinates": [ -64.096521784815167, -30.977003301291624 ] } },
{ "type": "Feature", "properties": { "orden": 185 }, "geometry": { "type": "Point", "coordinates": [ -64.096574268000737, -30.977116275424201 ] } },
{ "type": "Feature", "properties": { "orden": 186 }, "geometry": { "type": "Point", "coordinates": [ -64.096685874677931, -30.977283357066511 ] } },
{ "type": "Feature", "properties": { "orden": 187 }, "geometry": { "type": "Point", "coordinates": [ -64.096782472686471, -30.977416960217493 ] } },
{ "type": "Feature", "properties": { "orden": 188 }, "geometry": { "type": "Point", "coordinates": [ -64.096670493584497, -30.977430513079629 ] } },
{ "type": "Feature", "properties": { "orden": 189 }, "geometry": { "type": "Point", "coordinates": [ -64.096551370156291, -30.977458829033363 ] } },
{ "type": "Feature", "properties": { "orden": 190 }, "geometry": { "type": "Point", "coordinates": [ -64.096425198382789, -30.977510308698729 ] } },
{ "type": "Feature", "properties": { "orden": 191 }, "geometry": { "type": "Point", "coordinates": [ -64.0971438042925, -30.977252163948009 ] } },
{ "type": "Feature", "properties": { "orden": 192 }, "geometry": { "type": "Point", "coordinates": [ -64.097101262378303, -30.977155908539316 ] } },
{ "type": "Feature", "properties": { "orden": 193 }, "geometry": { "type": "Point", "coordinates": [ -64.097059104937657, -30.9770932556623 ] } },
{ "type": "Feature", "properties": { "orden": 194 }, "geometry": { "type": "Point", "coordinates": [ -64.097019336957345, -30.977026381752012 ] } },
{ "type": "Feature", "properties": { "orden": 195 }, "geometry": { "type": "Point", "coordinates": [ -64.096972088532127, -30.976944868805624 ] } },
{ "type": "Feature", "properties": { "orden": 196 }, "geometry": { "type": "Point", "coordinates": [ -64.096927037425488, -30.9768423335472 ] } },
{ "type": "Feature", "properties": { "orden": 197 }, "geometry": { "type": "Point", "coordinates": [ -64.096859785213383, -30.976716882777147 ] } },
{ "type": "Feature", "properties": { "orden": 198 }, "geometry": { "type": "Point", "coordinates": [ -64.096777500245864, -30.976555853416212 ] } },
{ "type": "Feature", "properties": { "orden": 199 }, "geometry": { "type": "Point", "coordinates": [ -64.097016417289183, -30.976558025498505 ] } },
{ "type": "Feature", "properties": { "orden": 200 }, "geometry": { "type": "Point", "coordinates": [ -64.097137808716624, -30.976514987324816 ] } },
{ "type": "Feature", "properties": { "orden": 201 }, "geometry": { "type": "Point", "coordinates": [ -64.097244767634706, -30.976488874532027 ] } },
{ "type": "Feature", "properties": { "orden": 202 }, "geometry": { "type": "Point", "coordinates": [ -64.097495222784389, -30.976434237917864 ] } },
{ "type": "Feature", "properties": { "orden": 203 }, "geometry": { "type": "Point", "coordinates": [ -64.097810738986212, -30.976952447104367 ] } },
{ "type": "Feature", "properties": { "orden": 204 }, "geometry": { "type": "Point", "coordinates": [ -64.097667602588402, -30.977012473586587 ] } },
{ "type": "Feature", "properties": { "orden": 205 }, "geometry": { "type": "Point", "coordinates": [ -64.097558349976637, -30.977051208401488 ] } },
{ "type": "Feature", "properties": { "orden": 206 }, "geometry": { "type": "Point", "coordinates": [ -64.097437150338592, -30.977111048250816 ] } },
{ "type": "Feature", "properties": { "orden": 207 }, "geometry": { "type": "Point", "coordinates": [ -64.09731334488454, -30.977156207580272 ] } },
{ "type": "Feature", "properties": { "orden": 208 }, "geometry": { "type": "Point", "coordinates": [ -64.097293511912966, -30.977553344685933 ] } },
{ "type": "Feature", "properties": { "orden": 209 }, "geometry": { "type": "Point", "coordinates": [ -64.097502460832217, -30.977492759491792 ] } },
{ "type": "Feature", "properties": { "orden": 210 }, "geometry": { "type": "Point", "coordinates": [ -64.097666011164804, -30.977512373521446 ] } },
{ "type": "Feature", "properties": { "orden": 211 }, "geometry": { "type": "Point", "coordinates": [ -64.097650641229251, -30.977447392867038 ] } },
{ "type": "Feature", "properties": { "orden": 212 }, "geometry": { "type": "Point", "coordinates": [ -64.097718265120733, -30.977392208812446 ] } },
{ "type": "Feature", "properties": { "orden": 213 }, "geometry": { "type": "Point", "coordinates": [ -64.097815609932141, -30.977590916069893 ] } },
{ "type": "Feature", "properties": { "orden": 214 }, "geometry": { "type": "Point", "coordinates": [ -64.09785866685931, -30.977519137813726 ] } },
{ "type": "Feature", "properties": { "orden": 215 }, "geometry": { "type": "Point", "coordinates": [ -64.097935920302618, -30.977453369994173 ] } },
{ "type": "Feature", "properties": { "orden": 216 }, "geometry": { "type": "Point", "coordinates": [ -64.098040129964076, -30.977399975182252 ] } },
{ "type": "Feature", "properties": { "orden": 217 }, "geometry": { "type": "Point", "coordinates": [ -64.09813215221844, -30.977346683889518 ] } },
{ "type": "Feature", "properties": { "orden": 218 }, "geometry": { "type": "Point", "coordinates": [ -64.09827849589017, -30.977353841235981 ] } },
{ "type": "Feature", "properties": { "orden": 219 }, "geometry": { "type": "Point", "coordinates": [ -64.098652911144967, -30.977693016595879 ] } },
{ "type": "Feature", "properties": { "orden": 220 }, "geometry": { "type": "Point", "coordinates": [ -64.099607886696489, -30.977852920194746 ] } },
{ "type": "Feature", "properties": { "orden": 221 }, "geometry": { "type": "Point", "coordinates": [ -64.099293404959397, -30.977851396017158 ] } },
{ "type": "Feature", "properties": { "orden": 222 }, "geometry": { "type": "Point", "coordinates": [ -64.099108397948825, -30.977873973873987 ] } },
{ "type": "Feature", "properties": { "orden": 223 }, "geometry": { "type": "Point", "coordinates": [ -64.098451267100913, -30.977965678156185 ] } },
{ "type": "Feature", "properties": { "orden": 224 }, "geometry": { "type": "Point", "coordinates": [ -64.098327316748339, -30.97799823751793 ] } },
{ "type": "Feature", "properties": { "orden": 225 }, "geometry": { "type": "Point", "coordinates": [ -64.098166852278482, -30.978035307901184 ] } },
{ "type": "Feature", "properties": { "orden": 226 }, "geometry": { "type": "Point", "coordinates": [ -64.097919648370777, -30.978161330562465 ] } },
{ "type": "Feature", "properties": { "orden": 227 }, "geometry": { "type": "Point", "coordinates": [ -64.097766880546459, -30.978231940842875 ] } },
{ "type": "Feature", "properties": { "orden": 228 }, "geometry": { "type": "Point", "coordinates": [ -64.097667616916311, -30.978291594504405 ] } },
{ "type": "Feature", "properties": { "orden": 229 }, "geometry": { "type": "Point", "coordinates": [ -64.097598454004654, -30.978212368393766 ] } },
{ "type": "Feature", "properties": { "orden": 230 }, "geometry": { "type": "Point", "coordinates": [ -64.097616703904833, -30.978102994462393 ] } },
{ "type": "Feature", "properties": { "orden": 231 }, "geometry": { "type": "Point", "coordinates": [ -64.097595569584229, -30.977960349360643 ] } },
{ "type": "Feature", "properties": { "orden": 232 }, "geometry": { "type": "Point", "coordinates": [ -64.097530873324331, -30.977845379083966 ] } },
{ "type": "Feature", "properties": { "orden": 233 }, "geometry": { "type": "Point", "coordinates": [ -64.097495522977837, -30.977738560908247 ] } },
{ "type": "Feature", "properties": { "orden": 234 }, "geometry": { "type": "Point", "coordinates": [ -64.096931340224373, -30.978071009518594 ] } },
{ "type": "Feature", "properties": { "orden": 235 }, "geometry": { "type": "Point", "coordinates": [ -64.097212768835504, -30.978379473172776 ] } },
{ "type": "Feature", "properties": { "orden": 236 }, "geometry": { "type": "Point", "coordinates": [ -64.097196571462831, -30.978455223811292 ] } },
{ "type": "Feature", "properties": { "orden": 237 }, "geometry": { "type": "Point", "coordinates": [ -64.097021769120147, -30.978517618921828 ] } },
{ "type": "Feature", "properties": { "orden": 238 }, "geometry": { "type": "Point", "coordinates": [ -64.096555308202483, -30.978656002628039 ] } },
{ "type": "Feature", "properties": { "orden": 239 }, "geometry": { "type": "Point", "coordinates": [ -64.096346824798658, -30.978544352602526 ] } },
{ "type": "Feature", "properties": { "orden": 240 }, "geometry": { "type": "Point", "coordinates": [ -64.096484465016189, -30.978429764762648 ] } },
{ "type": "Feature", "properties": { "orden": 241 }, "geometry": { "type": "Point", "coordinates": [ -64.096461615169048, -30.978350144913716 ] } },
{ "type": "Feature", "properties": { "orden": 242 }, "geometry": { "type": "Point", "coordinates": [ -64.096212679625012, -30.978324952894813 ] } },
{ "type": "Feature", "properties": { "orden": 243 }, "geometry": { "type": "Point", "coordinates": [ -64.09631107991224, -30.978189694588618 ] } },
{ "type": "Feature", "properties": { "orden": 244 }, "geometry": { "type": "Point", "coordinates": [ -64.096245136634806, -30.977965515341467 ] } },
{ "type": "Feature", "properties": { "orden": 245 }, "geometry": { "type": "Point", "coordinates": [ -64.096330160155375, -30.977939589429358 ] } },
{ "type": "Feature", "properties": { "orden": 246 }, "geometry": { "type": "Point", "coordinates": [ -64.095835675118778, -30.978185326887925 ] } },
{ "type": "Feature", "properties": { "orden": 247 }, "geometry": { "type": "Point", "coordinates": [ -64.095686460877801, -30.978140384595992 ] } },
{ "type": "Feature", "properties": { "orden": 248 }, "geometry": { "type": "Point", "coordinates": [ -64.095446205894135, -30.978234838180764 ] } },
{ "type": "Feature", "properties": { "orden": 249 }, "geometry": { "type": "Point", "coordinates": [ -64.095468719007144, -30.978285055990796 ] } },
{ "type": "Feature", "properties": { "orden": 250 }, "geometry": { "type": "Point", "coordinates": [ -64.095472308036761, -30.978385843001579 ] } },
{ "type": "Feature", "properties": { "orden": 251 }, "geometry": { "type": "Point", "coordinates": [ -64.095579015398002, -30.97855086675974 ] } },
{ "type": "Feature", "properties": { "orden": 252 }, "geometry": { "type": "Point", "coordinates": [ -64.095624017950726, -30.97864920215719 ] } },
{ "type": "Feature", "properties": { "orden": 253 }, "geometry": { "type": "Point", "coordinates": [ -64.095782153293641, -30.978834793168133 ] } },
{ "type": "Feature", "properties": { "orden": 254 }, "geometry": { "type": "Point", "coordinates": [ -64.096105908365303, -30.978794239900711 ] } },
{ "type": "Feature", "properties": { "orden": 255 }, "geometry": { "type": "Point", "coordinates": [ -64.095983566789968, -30.978541133992081 ] } },
{ "type": "Feature", "properties": { "orden": 256 }, "geometry": { "type": "Point", "coordinates": [ -64.095931107460046, -30.978430259805613 ] } },
{ "type": "Feature", "properties": { "orden": 257 }, "geometry": { "type": "Point", "coordinates": [ -64.096273566180031, -30.979172982880499 ] } },
{ "type": "Feature", "properties": { "orden": 258 }, "geometry": { "type": "Point", "coordinates": [ -64.096006280633915, -30.979248763650993 ] } },
{ "type": "Feature", "properties": { "orden": 259 }, "geometry": { "type": "Point", "coordinates": [ -64.096003061831013, -30.979393716006914 ] } },
{ "type": "Feature", "properties": { "orden": 260 }, "geometry": { "type": "Point", "coordinates": [ -64.096174215791677, -30.979438471717298 ] } },
{ "type": "Feature", "properties": { "orden": 261 }, "geometry": { "type": "Point", "coordinates": [ -64.096163564662277, -30.979572985324726 ] } },
{ "type": "Feature", "properties": { "orden": 262 }, "geometry": { "type": "Point", "coordinates": [ -64.096198482139187, -30.979642000990847 ] } },
{ "type": "Feature", "properties": { "orden": 263 }, "geometry": { "type": "Point", "coordinates": [ -64.096260764592174, -30.979759092757853 ] } },
{ "type": "Feature", "properties": { "orden": 264 }, "geometry": { "type": "Point", "coordinates": [ -64.096347806616151, -30.979909580154736 ] } },
{ "type": "Feature", "properties": { "orden": 265 }, "geometry": { "type": "Point", "coordinates": [ -64.096591030686241, -30.979861307638679 ] } },
{ "type": "Feature", "properties": { "orden": 266 }, "geometry": { "type": "Point", "coordinates": [ -64.096533454699028, -30.979729473549494 ] } },
{ "type": "Feature", "properties": { "orden": 267 }, "geometry": { "type": "Point", "coordinates": [ -64.096407052121421, -30.97954781491989 ] } },
{ "type": "Feature", "properties": { "orden": 268 }, "geometry": { "type": "Point", "coordinates": [ -64.096374187864214, -30.979445176079395 ] } },
{ "type": "Feature", "properties": { "orden": 269 }, "geometry": { "type": "Point", "coordinates": [ -64.096329400243377, -30.979365742414078 ] } },
{ "type": "Feature", "properties": { "orden": 270 }, "geometry": { "type": "Point", "coordinates": [ -64.09636251693081, -30.979277246106587 ] } },
{ "type": "Feature", "properties": { "orden": 271 }, "geometry": { "type": "Point", "coordinates": [ -64.09695466142189, -30.978831142869272 ] } },
{ "type": "Feature", "properties": { "orden": 272 }, "geometry": { "type": "Point", "coordinates": [ -64.096877358163212, -30.978892709812641 ] } },
{ "type": "Feature", "properties": { "orden": 273 }, "geometry": { "type": "Point", "coordinates": [ -64.096765929807447, -30.978954566449612 ] } },
{ "type": "Feature", "properties": { "orden": 274 }, "geometry": { "type": "Point", "coordinates": [ -64.096619703828324, -30.978957908241362 ] } },
{ "type": "Feature", "properties": { "orden": 275 }, "geometry": { "type": "Point", "coordinates": [ -64.09663796716363, -30.979062771341951 ] } },
{ "type": "Feature", "properties": { "orden": 276 }, "geometry": { "type": "Point", "coordinates": [ -64.096780567332132, -30.979168679177306 ] } },
{ "type": "Feature", "properties": { "orden": 277 }, "geometry": { "type": "Point", "coordinates": [ -64.09682581162474, -30.979288015698501 ] } },
{ "type": "Feature", "properties": { "orden": 278 }, "geometry": { "type": "Point", "coordinates": [ -64.096897436248383, -30.97936932166737 ] } },
{ "type": "Feature", "properties": { "orden": 279 }, "geometry": { "type": "Point", "coordinates": [ -64.096917993352136, -30.97946156306287 ] } },
{ "type": "Feature", "properties": { "orden": 280 }, "geometry": { "type": "Point", "coordinates": [ -64.096948300557898, -30.979553721656988 ] } },
{ "type": "Feature", "properties": { "orden": 281 }, "geometry": { "type": "Point", "coordinates": [ -64.096929737360625, -30.979635793432948 ] } },
{ "type": "Feature", "properties": { "orden": 282 }, "geometry": { "type": "Point", "coordinates": [ -64.096947833017083, -30.979725955358088 ] } },
{ "type": "Feature", "properties": { "orden": 283 }, "geometry": { "type": "Point", "coordinates": [ -64.097144358991244, -30.97964447255649 ] } },
{ "type": "Feature", "properties": { "orden": 284 }, "geometry": { "type": "Point", "coordinates": [ -64.097184427114485, -30.979524411572548 ] } },
{ "type": "Feature", "properties": { "orden": 285 }, "geometry": { "type": "Point", "coordinates": [ -64.097277893737555, -30.979597130348974 ] } },
{ "type": "Feature", "properties": { "orden": 286 }, "geometry": { "type": "Point", "coordinates": [ -64.097381673471389, -30.979505933172245 ] } },
{ "type": "Feature", "properties": { "orden": 287 }, "geometry": { "type": "Point", "coordinates": [ -64.097494039442509, -30.979525982174341 ] } },
{ "type": "Feature", "properties": { "orden": 288 }, "geometry": { "type": "Point", "coordinates": [ -64.097569458142743, -30.97951273921381 ] } },
{ "type": "Feature", "properties": { "orden": 289 }, "geometry": { "type": "Point", "coordinates": [ -64.097595381379008, -30.97943480554088 ] } },
{ "type": "Feature", "properties": { "orden": 290 }, "geometry": { "type": "Point", "coordinates": [ -64.0977514301848, -30.979437680246367 ] } },
{ "type": "Feature", "properties": { "orden": 291 }, "geometry": { "type": "Point", "coordinates": [ -64.097836334342546, -30.979401252537155 ] } },
{ "type": "Feature", "properties": { "orden": 292 }, "geometry": { "type": "Point", "coordinates": [ -64.097735843471611, -30.97935379820699 ] } },
{ "type": "Feature", "properties": { "orden": 293 }, "geometry": { "type": "Point", "coordinates": [ -64.097615540134598, -30.979279207432775 ] } },
{ "type": "Feature", "properties": { "orden": 294 }, "geometry": { "type": "Point", "coordinates": [ -64.097665766211719, -30.979194766154052 ] } },
{ "type": "Feature", "properties": { "orden": 295 }, "geometry": { "type": "Point", "coordinates": [ -64.097599376659787, -30.979144921573415 ] } },
{ "type": "Feature", "properties": { "orden": 296 }, "geometry": { "type": "Point", "coordinates": [ -64.097512020964984, -30.97896713297364 ] } },
{ "type": "Feature", "properties": { "orden": 297 }, "geometry": { "type": "Point", "coordinates": [ -64.09745659338337, -30.978810076684542 ] } },
{ "type": "Feature", "properties": { "orden": 298 }, "geometry": { "type": "Point", "coordinates": [ -64.097426430152936, -30.978730519156411 ] } },
{ "type": "Feature", "properties": { "orden": 299 }, "geometry": { "type": "Point", "coordinates": [ -64.097297435235063, -30.978748417862722 ] } },
{ "type": "Feature", "properties": { "orden": 300 }, "geometry": { "type": "Point", "coordinates": [ -64.097183930258055, -30.978841797936067 ] } },
{ "type": "Feature", "properties": { "orden": 301 }, "geometry": { "type": "Point", "coordinates": [ -64.098100638411893, -30.978426538221719 ] } },
{ "type": "Feature", "properties": { "orden": 302 }, "geometry": { "type": "Point", "coordinates": [ -64.097979221007279, -30.978467477176647 ] } },
{ "type": "Feature", "properties": { "orden": 303 }, "geometry": { "type": "Point", "coordinates": [ -64.097865164044961, -30.97851255418923 ] } },
{ "type": "Feature", "properties": { "orden": 304 }, "geometry": { "type": "Point", "coordinates": [ -64.097910529560835, -30.978642391108803 ] } },
{ "type": "Feature", "properties": { "orden": 305 }, "geometry": { "type": "Point", "coordinates": [ -64.09799038081546, -30.978803440327638 ] } },
{ "type": "Feature", "properties": { "orden": 306 }, "geometry": { "type": "Point", "coordinates": [ -64.098094438995687, -30.978949581179943 ] } },
{ "type": "Feature", "properties": { "orden": 307 }, "geometry": { "type": "Point", "coordinates": [ -64.098091848611801, -30.979149137625551 ] } },
{ "type": "Feature", "properties": { "orden": 308 }, "geometry": { "type": "Point", "coordinates": [ -64.098105358826288, -30.979264542706808 ] } },
{ "type": "Feature", "properties": { "orden": 309 }, "geometry": { "type": "Point", "coordinates": [ -64.09823657529752, -30.979227721038885 ] } },
{ "type": "Feature", "properties": { "orden": 310 }, "geometry": { "type": "Point", "coordinates": [ -64.098313950081419, -30.979172453772673 ] } },
{ "type": "Feature", "properties": { "orden": 311 }, "geometry": { "type": "Point", "coordinates": [ -64.09843519982293, -30.979116813385929 ] } },
{ "type": "Feature", "properties": { "orden": 312 }, "geometry": { "type": "Point", "coordinates": [ -64.098612223225757, -30.979035494215712 ] } },
{ "type": "Feature", "properties": { "orden": 313 }, "geometry": { "type": "Point", "coordinates": [ -64.098752443220206, -30.978933484230105 ] } },
{ "type": "Feature", "properties": { "orden": 314 }, "geometry": { "type": "Point", "coordinates": [ -64.098933684451779, -30.979007555548247 ] } },
{ "type": "Feature", "properties": { "orden": 315 }, "geometry": { "type": "Point", "coordinates": [ -64.098944837059506, -30.978917145099665 ] } },
{ "type": "Feature", "properties": { "orden": 316 }, "geometry": { "type": "Point", "coordinates": [ -64.098863340779147, -30.978825422445755 ] } },
{ "type": "Feature", "properties": { "orden": 317 }, "geometry": { "type": "Point", "coordinates": [ -64.098796493675067, -30.978735675493219 ] } },
{ "type": "Feature", "properties": { "orden": 318 }, "geometry": { "type": "Point", "coordinates": [ -64.098758968770724, -30.978651980185933 ] } },
{ "type": "Feature", "properties": { "orden": 319 }, "geometry": { "type": "Point", "coordinates": [ -64.098699362169313, -30.978555870504501 ] } },
{ "type": "Feature", "properties": { "orden": 320 }, "geometry": { "type": "Point", "coordinates": [ -64.098656938391727, -30.97847011646666 ] } },
{ "type": "Feature", "properties": { "orden": 321 }, "geometry": { "type": "Point", "coordinates": [ -64.098599961966187, -30.978390787263333 ] } },
{ "type": "Feature", "properties": { "orden": 322 }, "geometry": { "type": "Point", "coordinates": [ -64.098368713675498, -30.978420058414049 ] } },
{ "type": "Feature", "properties": { "orden": 323 }, "geometry": { "type": "Point", "coordinates": [ -64.098274060644329, -30.978456569347305 ] } },
{ "type": "Feature", "properties": { "orden": 324 }, "geometry": { "type": "Point", "coordinates": [ -64.099271220935819, -30.978042717767856 ] } },
{ "type": "Feature", "properties": { "orden": 325 }, "geometry": { "type": "Point", "coordinates": [ -64.098984465332109, -30.978120770676011 ] } },
{ "type": "Feature", "properties": { "orden": 326 }, "geometry": { "type": "Point", "coordinates": [ -64.099063836524437, -30.978239816060839 ] } },
{ "type": "Feature", "properties": { "orden": 327 }, "geometry": { "type": "Point", "coordinates": [ -64.099125736338138, -30.978323303890587 ] } },
{ "type": "Feature", "properties": { "orden": 328 }, "geometry": { "type": "Point", "coordinates": [ -64.099195309795078, -30.978438231825589 ] } },
{ "type": "Feature", "properties": { "orden": 329 }, "geometry": { "type": "Point", "coordinates": [ -64.099174648235405, -30.978549726831094 ] } },
{ "type": "Feature", "properties": { "orden": 330 }, "geometry": { "type": "Point", "coordinates": [ -64.099217072508068, -30.978635480686016 ] } },
{ "type": "Feature", "properties": { "orden": 331 }, "geometry": { "type": "Point", "coordinates": [ -64.099278972719276, -30.978718968428101 ] } },
{ "type": "Feature", "properties": { "orden": 332 }, "geometry": { "type": "Point", "coordinates": [ -64.099258720464277, -30.978866166113566 ] } },
{ "type": "Feature", "properties": { "orden": 333 }, "geometry": { "type": "Point", "coordinates": [ -64.099380258166548, -30.97883572674483 ] } },
{ "type": "Feature", "properties": { "orden": 334 }, "geometry": { "type": "Point", "coordinates": [ -64.099473947976904, -30.978715208721454 ] } },
{ "type": "Feature", "properties": { "orden": 335 }, "geometry": { "type": "Point", "coordinates": [ -64.099518454356897, -30.978557302754641 ] } },
{ "type": "Feature", "properties": { "orden": 336 }, "geometry": { "type": "Point", "coordinates": [ -64.099617495075478, -30.978690882888419 ] } },
{ "type": "Feature", "properties": { "orden": 337 }, "geometry": { "type": "Point", "coordinates": [ -64.099674694379459, -30.978576976425447 ] } },
{ "type": "Feature", "properties": { "orden": 338 }, "geometry": { "type": "Point", "coordinates": [ -64.099800962034337, -30.978533894229859 ] } },
{ "type": "Feature", "properties": { "orden": 339 }, "geometry": { "type": "Point", "coordinates": [ -64.099920350701964, -30.978528676999918 ] } },
{ "type": "Feature", "properties": { "orden": 340 }, "geometry": { "type": "Point", "coordinates": [ -64.100000643213832, -30.978515391135193 ] } },
{ "type": "Feature", "properties": { "orden": 341 }, "geometry": { "type": "Point", "coordinates": [ -64.100097781273448, -30.978483058506807 ] } },
{ "type": "Feature", "properties": { "orden": 342 }, "geometry": { "type": "Point", "coordinates": [ -64.100008393689166, -30.978340995096659 ] } },
{ "type": "Feature", "properties": { "orden": 343 }, "geometry": { "type": "Point", "coordinates": [ -64.099864586999615, -30.978130083018183 ] } },
{ "type": "Feature", "properties": { "orden": 344 }, "geometry": { "type": "Point", "coordinates": [ -64.099740540624182, -30.978154243100771 ] } },
{ "type": "Feature", "properties": { "orden": 345 }, "geometry": { "type": "Point", "coordinates": [ -64.100430704545801, -30.978392007678835 ] } },
{ "type": "Feature", "properties": { "orden": 346 }, "geometry": { "type": "Point", "coordinates": [ -64.100246620194966, -30.97807011996326 ] } },
{ "type": "Feature", "properties": { "orden": 347 }, "geometry": { "type": "Point", "coordinates": [ -64.100403245114549, -30.978123395275937 ] } },
{ "type": "Feature", "properties": { "orden": 348 }, "geometry": { "type": "Point", "coordinates": [ -64.100504655073223, -30.9780385169109 ] } },
{ "type": "Feature", "properties": { "orden": 349 }, "geometry": { "type": "Point", "coordinates": [ -64.10072330452175, -30.977973643159636 ] } },
{ "type": "Feature", "properties": { "orden": 350 }, "geometry": { "type": "Point", "coordinates": [ -64.100904111383755, -30.978009908916636 ] } },
{ "type": "Feature", "properties": { "orden": 351 }, "geometry": { "type": "Point", "coordinates": [ -64.101016090444048, -30.977996352383432 ] } },
{ "type": "Feature", "properties": { "orden": 352 }, "geometry": { "type": "Point", "coordinates": [ -64.101201290078478, -30.977990573048327 ] } },
{ "type": "Feature", "properties": { "orden": 353 }, "geometry": { "type": "Point", "coordinates": [ -64.100886588530273, -30.978182287912652 ] } },
{ "type": "Feature", "properties": { "orden": 354 }, "geometry": { "type": "Point", "coordinates": [ -64.100637676636836, -30.978159204595226 ] } },
{ "type": "Feature", "properties": { "orden": 355 }, "geometry": { "type": "Point", "coordinates": [ -64.100697188473688, -30.978246912722209 ] } },
{ "type": "Feature", "properties": { "orden": 356 }, "geometry": { "type": "Point", "coordinates": [ -64.100624594385863, -30.978293739212738 ] } },
{ "type": "Feature", "properties": { "orden": 357 }, "geometry": { "type": "Point", "coordinates": [ -64.10183107461711, -30.978065016615393 ] } },
{ "type": "Feature", "properties": { "orden": 358 }, "geometry": { "type": "Point", "coordinates": [ -64.101920223275073, -30.978186077156817 ] } },
{ "type": "Feature", "properties": { "orden": 359 }, "geometry": { "type": "Point", "coordinates": [ -64.101882912815441, -30.978333420710491 ] } },
{ "type": "Feature", "properties": { "orden": 360 }, "geometry": { "type": "Point", "coordinates": [ -64.10191838891069, -30.97845073833167 ] } },
{ "type": "Feature", "properties": { "orden": 361 }, "geometry": { "type": "Point", "coordinates": [ -64.101972930587294, -30.978530086797637 ] } },
{ "type": "Feature", "properties": { "orden": 362 }, "geometry": { "type": "Point", "coordinates": [ -64.101998077711983, -30.978597083833971 ] } },
{ "type": "Feature", "properties": { "orden": 363 }, "geometry": { "type": "Point", "coordinates": [ -64.102062948739331, -30.97872675280739 ] } },
{ "type": "Feature", "properties": { "orden": 364 }, "geometry": { "type": "Point", "coordinates": [ -64.102055370942836, -30.97891584995725 ] } },
{ "type": "Feature", "properties": { "orden": 365 }, "geometry": { "type": "Point", "coordinates": [ -64.102056529437832, -30.979016657405612 ] } },
{ "type": "Feature", "properties": { "orden": 366 }, "geometry": { "type": "Point", "coordinates": [ -64.102151376696128, -30.978967784973484 ] } },
{ "type": "Feature", "properties": { "orden": 367 }, "geometry": { "type": "Point", "coordinates": [ -64.102237917493767, -30.978891188494902 ] } },
{ "type": "Feature", "properties": { "orden": 368 }, "geometry": { "type": "Point", "coordinates": [ -64.102313093545135, -30.978856941240199 ] } },
{ "type": "Feature", "properties": { "orden": 369 }, "geometry": { "type": "Point", "coordinates": [ -64.102412813461498, -30.978837187012747 ] } },
{ "type": "Feature", "properties": { "orden": 370 }, "geometry": { "type": "Point", "coordinates": [ -64.102514656938425, -30.978790109891872 ] } },
{ "type": "Feature", "properties": { "orden": 371 }, "geometry": { "type": "Point", "coordinates": [ -64.102609332727809, -30.978755696038178 ] } },
{ "type": "Feature", "properties": { "orden": 372 }, "geometry": { "type": "Point", "coordinates": [ -64.102708714379929, -30.978706539418567 ] } },
{ "type": "Feature", "properties": { "orden": 373 }, "geometry": { "type": "Point", "coordinates": [ -64.102832543257861, -30.978663475095662 ] } },
{ "type": "Feature", "properties": { "orden": 374 }, "geometry": { "type": "Point", "coordinates": [ -64.102639956157674, -30.978450882301043 ] } },
{ "type": "Feature", "properties": { "orden": 375 }, "geometry": { "type": "Point", "coordinates": [ -64.1025853173999, -30.978363133507909 ] } },
{ "type": "Feature", "properties": { "orden": 376 }, "geometry": { "type": "Point", "coordinates": [ -64.102552591899098, -30.978273097298661 ] } },
{ "type": "Feature", "properties": { "orden": 377 }, "geometry": { "type": "Point", "coordinates": [ -64.102510213138146, -30.978191544911905 ] } },
{ "type": "Feature", "properties": { "orden": 378 }, "geometry": { "type": "Point", "coordinates": [ -64.102472371388018, -30.978080548731498 ] } },
{ "type": "Feature", "properties": { "orden": 379 }, "geometry": { "type": "Point", "coordinates": [ -64.10223065120195, -30.978046905302548 ] } },
{ "type": "Feature", "properties": { "orden": 380 }, "geometry": { "type": "Point", "coordinates": [ -64.102770634938381, -30.977943579770404 ] } },
{ "type": "Feature", "properties": { "orden": 381 }, "geometry": { "type": "Point", "coordinates": [ -64.102991359831137, -30.978059315539813 ] } },
{ "type": "Feature", "properties": { "orden": 382 }, "geometry": { "type": "Point", "coordinates": [ -64.10319905493661, -30.978313786018539 ] } },
{ "type": "Feature", "properties": { "orden": 383 }, "geometry": { "type": "Point", "coordinates": [ -64.103798448822118, -30.979136207825565 ] } },
{ "type": "Feature", "properties": { "orden": 384 }, "geometry": { "type": "Point", "coordinates": [ -64.104020193193179, -30.979340148176984 ] } },
{ "type": "Feature", "properties": { "orden": 385 }, "geometry": { "type": "Point", "coordinates": [ -64.104282524570678, -30.979258092181755 ] } },
{ "type": "Feature", "properties": { "orden": 386 }, "geometry": { "type": "Point", "coordinates": [ -64.102755295751024, -30.979153518638508 ] } },
{ "type": "Feature", "properties": { "orden": 387 }, "geometry": { "type": "Point", "coordinates": [ -64.102905937664062, -30.979110225340257 ] } },
{ "type": "Feature", "properties": { "orden": 388 }, "geometry": { "type": "Point", "coordinates": [ -64.102993349434627, -30.979080073944889 ] } },
{ "type": "Feature", "properties": { "orden": 389 }, "geometry": { "type": "Point", "coordinates": [ -64.103054023545084, -30.979268588319847 ] } },
{ "type": "Feature", "properties": { "orden": 390 }, "geometry": { "type": "Point", "coordinates": [ -64.10309891324853, -30.979356420140437 ] } },
{ "type": "Feature", "properties": { "orden": 391 }, "geometry": { "type": "Point", "coordinates": [ -64.103129129675324, -30.979440176528271 ] } },
{ "type": "Feature", "properties": { "orden": 392 }, "geometry": { "type": "Point", "coordinates": [ -64.103193906177836, -30.979561444250304 ] } },
{ "type": "Feature", "properties": { "orden": 393 }, "geometry": { "type": "Point", "coordinates": [ -64.10330284804192, -30.979707539047393 ] } },
{ "type": "Feature", "properties": { "orden": 394 }, "geometry": { "type": "Point", "coordinates": [ -64.103122955214729, -30.979751082614147 ] } },
{ "type": "Feature", "properties": { "orden": 395 }, "geometry": { "type": "Point", "coordinates": [ -64.103020869473951, -30.979777158682737 ] } },
{ "type": "Feature", "properties": { "orden": 396 }, "geometry": { "type": "Point", "coordinates": [ -64.102904351814558, -30.979820160776558 ] } },
{ "type": "Feature", "properties": { "orden": 397 }, "geometry": { "type": "Point", "coordinates": [ -64.102637722182251, -30.979952659350296 ] } },
{ "type": "Feature", "properties": { "orden": 398 }, "geometry": { "type": "Point", "coordinates": [ -64.102607409412201, -30.979860502229698 ] } },
{ "type": "Feature", "properties": { "orden": 399 }, "geometry": { "type": "Point", "coordinates": [ -64.102552818133091, -30.9797769537691 ] } },
{ "type": "Feature", "properties": { "orden": 400 }, "geometry": { "type": "Point", "coordinates": [ -64.102498178659317, -30.979689204972868 ] } },
{ "type": "Feature", "properties": { "orden": 401 }, "geometry": { "type": "Point", "coordinates": [ -64.102453047887849, -30.979580371391645 ] } },
{ "type": "Feature", "properties": { "orden": 402 }, "geometry": { "type": "Point", "coordinates": [ -64.102408496667067, -30.979521941504458 ] } },
{ "type": "Feature", "properties": { "orden": 403 }, "geometry": { "type": "Point", "coordinates": [ -64.102382914422236, -30.97941714178382 ] } },
{ "type": "Feature", "properties": { "orden": 404 }, "geometry": { "type": "Point", "coordinates": [ -64.1022550536116, -30.979321616274827 ] } },
{ "type": "Feature", "properties": { "orden": 405 }, "geometry": { "type": "Point", "coordinates": [ -64.102361676114498, -30.979266097046338 ] } },
{ "type": "Feature", "properties": { "orden": 406 }, "geometry": { "type": "Point", "coordinates": [ -64.102526846823451, -30.97921427875659 ] } },
{ "type": "Feature", "properties": { "orden": 407 }, "geometry": { "type": "Point", "coordinates": [ -64.101034249263293, -30.979365633317311 ] } },
{ "type": "Feature", "properties": { "orden": 408 }, "geometry": { "type": "Point", "coordinates": [ -64.101216459333827, -30.979311571094168 ] } },
{ "type": "Feature", "properties": { "orden": 409 }, "geometry": { "type": "Point", "coordinates": [ -64.101274332378551, -30.979256468328149 ] } },
{ "type": "Feature", "properties": { "orden": 410 }, "geometry": { "type": "Point", "coordinates": [ -64.101272668209916, -30.979111557587828 ] } },
{ "type": "Feature", "properties": { "orden": 411 }, "geometry": { "type": "Point", "coordinates": [ -64.101429584841014, -30.979190033460483 ] } },
{ "type": "Feature", "properties": { "orden": 412 }, "geometry": { "type": "Point", "coordinates": [ -64.101531815179001, -30.979176559584747 ] } },
{ "type": "Feature", "properties": { "orden": 413 }, "geometry": { "type": "Point", "coordinates": [ -64.101759999285761, -30.979092699504694 ] } },
{ "type": "Feature", "properties": { "orden": 414 }, "geometry": { "type": "Point", "coordinates": [ -64.101676159225747, -30.97900940010673 ] } },
{ "type": "Feature", "properties": { "orden": 415 }, "geometry": { "type": "Point", "coordinates": [ -64.101616356504621, -30.978896490607468 ] } },
{ "type": "Feature", "properties": { "orden": 416 }, "geometry": { "type": "Point", "coordinates": [ -64.101499454335155, -30.978693752437941 ] } },
{ "type": "Feature", "properties": { "orden": 417 }, "geometry": { "type": "Point", "coordinates": [ -64.101435381322943, -30.978421251786969 ] } },
{ "type": "Feature", "properties": { "orden": 418 }, "geometry": { "type": "Point", "coordinates": [ -64.101347728429587, -30.978430400569891 ] } },
{ "type": "Feature", "properties": { "orden": 419 }, "geometry": { "type": "Point", "coordinates": [ -64.101270042508403, -30.97845836757746 ] } },
{ "type": "Feature", "properties": { "orden": 420 }, "geometry": { "type": "Point", "coordinates": [ -64.101156156003, -30.978518148550872 ] } },
{ "type": "Feature", "properties": { "orden": 421 }, "geometry": { "type": "Point", "coordinates": [ -64.100929735084748, -30.978543182407147 ] } },
{ "type": "Feature", "properties": { "orden": 422 }, "geometry": { "type": "Point", "coordinates": [ -64.100837640997071, -30.978590175205234 ] } },
{ "type": "Feature", "properties": { "orden": 423 }, "geometry": { "type": "Point", "coordinates": [ -64.100635811623917, -30.978633902237146 ] } },
{ "type": "Feature", "properties": { "orden": 424 }, "geometry": { "type": "Point", "coordinates": [ -64.100609794660599, -30.978703435840917 ] } },
{ "type": "Feature", "properties": { "orden": 425 }, "geometry": { "type": "Point", "coordinates": [ -64.100625335545445, -30.978783117172146 ] } },
{ "type": "Feature", "properties": { "orden": 426 }, "geometry": { "type": "Point", "coordinates": [ -64.100771753829832, -30.978796572104141 ] } },
{ "type": "Feature", "properties": { "orden": 427 }, "geometry": { "type": "Point", "coordinates": [ -64.100858247406592, -30.978898752746979 ] } },
{ "type": "Feature", "properties": { "orden": 428 }, "geometry": { "type": "Point", "coordinates": [ -64.101047019613446, -30.97899166014852 ] } },
{ "type": "Feature", "properties": { "orden": 429 }, "geometry": { "type": "Point", "coordinates": [ -64.100930887727117, -30.979068262960201 ] } },
{ "type": "Feature", "properties": { "orden": 430 }, "geometry": { "type": "Point", "coordinates": [ -64.101002853163038, -30.979178968758585 ] } },
{ "type": "Feature", "properties": { "orden": 431 }, "geometry": { "type": "Point", "coordinates": [ -64.099933299890679, -30.97902005141313 ] } },
{ "type": "Feature", "properties": { "orden": 432 }, "geometry": { "type": "Point", "coordinates": [ -64.10003555438746, -30.979008678877268 ] } },
{ "type": "Feature", "properties": { "orden": 433 }, "geometry": { "type": "Point", "coordinates": [ -64.10012716742078, -30.978919683504301 ] } },
{ "type": "Feature", "properties": { "orden": 434 }, "geometry": { "type": "Point", "coordinates": [ -64.100223438416918, -30.978811745139748 ] } },
{ "type": "Feature", "properties": { "orden": 435 }, "geometry": { "type": "Point", "coordinates": [ -64.100290407371304, -30.978911992101988 ] } },
{ "type": "Feature", "properties": { "orden": 436 }, "geometry": { "type": "Point", "coordinates": [ -64.100320693505324, -30.979002049683309 ] } },
{ "type": "Feature", "properties": { "orden": 437 }, "geometry": { "type": "Point", "coordinates": [ -64.10034079593558, -30.97905438749218 ] } },
{ "type": "Feature", "properties": { "orden": 438 }, "geometry": { "type": "Point", "coordinates": [ -64.100390365288462, -30.979125377542282 ] } },
{ "type": "Feature", "properties": { "orden": 439 }, "geometry": { "type": "Point", "coordinates": [ -64.100458202265727, -30.979301230027303 ] } },
{ "type": "Feature", "properties": { "orden": 440 }, "geometry": { "type": "Point", "coordinates": [ -64.100513369910615, -30.979435183175969 ] } },
{ "type": "Feature", "properties": { "orden": 441 }, "geometry": { "type": "Point", "coordinates": [ -64.100569962887974, -30.9794809089735 ] } },
{ "type": "Feature", "properties": { "orden": 442 }, "geometry": { "type": "Point", "coordinates": [ -64.10056593147975, -30.979554455969794 ] } },
{ "type": "Feature", "properties": { "orden": 443 }, "geometry": { "type": "Point", "coordinates": [ -64.100371605285417, -30.979614921580293 ] } },
{ "type": "Feature", "properties": { "orden": 444 }, "geometry": { "type": "Point", "coordinates": [ -64.100204938725383, -30.979536527465662 ] } },
{ "type": "Feature", "properties": { "orden": 445 }, "geometry": { "type": "Point", "coordinates": [ -64.10020614349466, -30.979641535279644 ] } },
{ "type": "Feature", "properties": { "orden": 446 }, "geometry": { "type": "Point", "coordinates": [ -64.100113782969999, -30.979665425867925 ] } },
{ "type": "Feature", "properties": { "orden": 447 }, "geometry": { "type": "Point", "coordinates": [ -64.100019225795592, -30.979710338712039 ] } },
{ "type": "Feature", "properties": { "orden": 448 }, "geometry": { "type": "Point", "coordinates": [ -64.099793548393677, -30.979800475496429 ] } },
{ "type": "Feature", "properties": { "orden": 449 }, "geometry": { "type": "Point", "coordinates": [ -64.09968133121879, -30.979580892885171 ] } },
{ "type": "Feature", "properties": { "orden": 450 }, "geometry": { "type": "Point", "coordinates": [ -64.09957007782215, -30.979445316428457 ] } },
{ "type": "Feature", "properties": { "orden": 451 }, "geometry": { "type": "Point", "coordinates": [ -64.099532455630495, -30.979353220750227 ] } },
{ "type": "Feature", "properties": { "orden": 452 }, "geometry": { "type": "Point", "coordinates": [ -64.099455953820069, -30.979271957787581 ] } },
{ "type": "Feature", "properties": { "orden": 453 }, "geometry": { "type": "Point", "coordinates": [ -64.099406216525765, -30.979186266267011 ] } },
{ "type": "Feature", "properties": { "orden": 454 }, "geometry": { "type": "Point", "coordinates": [ -64.09936386405596, -30.979106812962293 ] } },
{ "type": "Feature", "properties": { "orden": 455 }, "geometry": { "type": "Point", "coordinates": [ -64.09945624832946, -30.979085023073544 ] } },
{ "type": "Feature", "properties": { "orden": 456 }, "geometry": { "type": "Point", "coordinates": [ -64.099688581584815, -30.979150257004648 ] } },
{ "type": "Feature", "properties": { "orden": 457 }, "geometry": { "type": "Point", "coordinates": [ -64.099782439894327, -30.979044439862594 ] } },
{ "type": "Feature", "properties": { "orden": 458 }, "geometry": { "type": "Point", "coordinates": [ -64.098757953700186, -30.979414420283597 ] } },
{ "type": "Feature", "properties": { "orden": 459 }, "geometry": { "type": "Point", "coordinates": [ -64.09885987186496, -30.979373646463554 ] } },
{ "type": "Feature", "properties": { "orden": 460 }, "geometry": { "type": "Point", "coordinates": [ -64.099012833187331, -30.979319836136291 ] } },
{ "type": "Feature", "properties": { "orden": 461 }, "geometry": { "type": "Point", "coordinates": [ -64.099080481628675, -30.979266751528677 ] } },
{ "type": "Feature", "properties": { "orden": 462 }, "geometry": { "type": "Point", "coordinates": [ -64.09908914210402, -30.979384298111764 ] } },
{ "type": "Feature", "properties": { "orden": 463 }, "geometry": { "type": "Point", "coordinates": [ -64.099092638730411, -30.979476684285562 ] } },
{ "type": "Feature", "properties": { "orden": 464 }, "geometry": { "type": "Point", "coordinates": [ -64.09914734722274, -30.97957073507331 ] } },
{ "type": "Feature", "properties": { "orden": 465 }, "geometry": { "type": "Point", "coordinates": [ -64.09921668091998, -30.979664661383289 ] } },
{ "type": "Feature", "properties": { "orden": 466 }, "geometry": { "type": "Point", "coordinates": [ -64.099281452697554, -30.979785931177283 ] } },
{ "type": "Feature", "properties": { "orden": 467 }, "geometry": { "type": "Point", "coordinates": [ -64.099362637211698, -30.979850351486899 ] } },
{ "type": "Feature", "properties": { "orden": 468 }, "geometry": { "type": "Point", "coordinates": [ -64.099364178156151, -30.979984761520043 ] } },
{ "type": "Feature", "properties": { "orden": 469 }, "geometry": { "type": "Point", "coordinates": [ -64.099188748649013, -30.979992555504065 ] } },
{ "type": "Feature", "properties": { "orden": 470 }, "geometry": { "type": "Point", "coordinates": [ -64.099072036333794, -30.980018752930846 ] } },
{ "type": "Feature", "properties": { "orden": 471 }, "geometry": { "type": "Point", "coordinates": [ -64.098953103041495, -30.980063872403893 ] } },
{ "type": "Feature", "properties": { "orden": 472 }, "geometry": { "type": "Point", "coordinates": [ -64.098863684695715, -30.980131844674368 ] } },
{ "type": "Feature", "properties": { "orden": 473 }, "geometry": { "type": "Point", "coordinates": [ -64.098771997144937, -30.980214538718766 ] } },
{ "type": "Feature", "properties": { "orden": 474 }, "geometry": { "type": "Point", "coordinates": [ -64.098666918657656, -30.980192328503492 ] } },
{ "type": "Feature", "properties": { "orden": 475 }, "geometry": { "type": "Point", "coordinates": [ -64.098535340166222, -30.980197648271727 ] } },
{ "type": "Feature", "properties": { "orden": 476 }, "geometry": { "type": "Point", "coordinates": [ -64.09857741118654, -30.980039763341129 ] } },
{ "type": "Feature", "properties": { "orden": 477 }, "geometry": { "type": "Point", "coordinates": [ -64.098542275329891, -30.979951846950335 ] } },
{ "type": "Feature", "properties": { "orden": 478 }, "geometry": { "type": "Point", "coordinates": [ -64.098465725731032, -30.979866383085163 ] } },
{ "type": "Feature", "properties": { "orden": 479 }, "geometry": { "type": "Point", "coordinates": [ -64.098554326106537, -30.979727005735441 ] } },
{ "type": "Feature", "properties": { "orden": 480 }, "geometry": { "type": "Point", "coordinates": [ -64.098480599121771, -30.979675123662108 ] } },
{ "type": "Feature", "properties": { "orden": 481 }, "geometry": { "type": "Point", "coordinates": [ -64.098309732403067, -30.979655572936377 ] } },
{ "type": "Feature", "properties": { "orden": 482 }, "geometry": { "type": "Point", "coordinates": [ -64.098418939512356, -30.979612637123083 ] } },
{ "type": "Feature", "properties": { "orden": 483 }, "geometry": { "type": "Point", "coordinates": [ -64.098252539050748, -30.979557342185089 ] } },
{ "type": "Feature", "properties": { "orden": 484 }, "geometry": { "type": "Point", "coordinates": [ -64.098391116507699, -30.979524658497716 ] } },
{ "type": "Feature", "properties": { "orden": 485 }, "geometry": { "type": "Point", "coordinates": [ -64.09851523720134, -30.97950680013858 ] } },
{ "type": "Feature", "properties": { "orden": 486 }, "geometry": { "type": "Point", "coordinates": [ -64.0986614879439, -30.979505556340222 ] } },
{ "type": "Feature", "properties": { "orden": 487 }, "geometry": { "type": "Point", "coordinates": [ -64.097565871434213, -30.979838325853784 ] } },
{ "type": "Feature", "properties": { "orden": 488 }, "geometry": { "type": "Point", "coordinates": [ -64.097686223530516, -30.979917116968128 ] } },
{ "type": "Feature", "properties": { "orden": 489 }, "geometry": { "type": "Point", "coordinates": [ -64.097770815582777, -30.979853387240997 ] } },
{ "type": "Feature", "properties": { "orden": 490 }, "geometry": { "type": "Point", "coordinates": [ -64.097813536901427, -30.979752206788852 ] } },
{ "type": "Feature", "properties": { "orden": 491 }, "geometry": { "type": "Point", "coordinates": [ -64.097859344839875, -30.979707709870347 ] } },
{ "type": "Feature", "properties": { "orden": 492 }, "geometry": { "type": "Point", "coordinates": [ -64.097917604819528, -30.979686211086385 ] } },
{ "type": "Feature", "properties": { "orden": 493 }, "geometry": { "type": "Point", "coordinates": [ -64.097985831261695, -30.979683530822637 ] } },
{ "type": "Feature", "properties": { "orden": 494 }, "geometry": { "type": "Point", "coordinates": [ -64.098014495614166, -30.979845015062327 ] } },
{ "type": "Feature", "properties": { "orden": 495 }, "geometry": { "type": "Point", "coordinates": [ -64.098015000615348, -30.979889118374761 ] } },
{ "type": "Feature", "properties": { "orden": 496 }, "geometry": { "type": "Point", "coordinates": [ -64.098032544235352, -30.979930976492135 ] } },
{ "type": "Feature", "properties": { "orden": 497 }, "geometry": { "type": "Point", "coordinates": [ -64.09797725069329, -30.979998658081382 ] } },
{ "type": "Feature", "properties": { "orden": 498 }, "geometry": { "type": "Point", "coordinates": [ -64.097965616141337, -30.980047065302038 ] } },
{ "type": "Feature", "properties": { "orden": 499 }, "geometry": { "type": "Point", "coordinates": [ -64.098065266143863, -30.98002101391122 ] } },
{ "type": "Feature", "properties": { "orden": 500 }, "geometry": { "type": "Point", "coordinates": [ -64.098071199355573, -30.98011337940606 ] } },
{ "type": "Feature", "properties": { "orden": 501 }, "geometry": { "type": "Point", "coordinates": [ -64.098121080282482, -30.980211672390844 ] } },
{ "type": "Feature", "properties": { "orden": 502 }, "geometry": { "type": "Point", "coordinates": [ -64.098170768902222, -30.98029316409259 ] } },
{ "type": "Feature", "properties": { "orden": 503 }, "geometry": { "type": "Point", "coordinates": [ -64.098254462827256, -30.980363864850961 ] } },
{ "type": "Feature", "properties": { "orden": 504 }, "geometry": { "type": "Point", "coordinates": [ -64.098150514684974, -30.980440361617244 ] } },
{ "type": "Feature", "properties": { "orden": 505 }, "geometry": { "type": "Point", "coordinates": [ -64.097947141093456, -30.980349674472521 ] } },
{ "type": "Feature", "properties": { "orden": 506 }, "geometry": { "type": "Point", "coordinates": [ -64.097668252460693, -30.980263829439931 ] } },
{ "type": "Feature", "properties": { "orden": 507 }, "geometry": { "type": "Point", "coordinates": [ -64.097677031540627, -30.980391876927804 ] } },
{ "type": "Feature", "properties": { "orden": 508 }, "geometry": { "type": "Point", "coordinates": [ -64.097793687488007, -30.980573617070714 ] } },
{ "type": "Feature", "properties": { "orden": 509 }, "geometry": { "type": "Point", "coordinates": [ -64.097696810956222, -30.980629049759404 ] } },
{ "type": "Feature", "properties": { "orden": 510 }, "geometry": { "type": "Point", "coordinates": [ -64.097490485237373, -30.980706415950745 ] } },
{ "type": "Feature", "properties": { "orden": 511 }, "geometry": { "type": "Point", "coordinates": [ -64.097428392933438, -30.980606126107006 ] } },
{ "type": "Feature", "properties": { "orden": 512 }, "geometry": { "type": "Point", "coordinates": [ -64.097268953718611, -30.98030712876886 ] } },
{ "type": "Feature", "properties": { "orden": 513 }, "geometry": { "type": "Point", "coordinates": [ -64.097218881357506, -30.980192034171413 ] } },
{ "type": "Feature", "properties": { "orden": 514 }, "geometry": { "type": "Point", "coordinates": [ -64.097181381234762, -30.980110438563436 ] } },
{ "type": "Feature", "properties": { "orden": 515 }, "geometry": { "type": "Point", "coordinates": [ -64.097124356934572, -30.980026908406519 ] } },
{ "type": "Feature", "properties": { "orden": 516 }, "geometry": { "type": "Point", "coordinates": [ -64.097123660114093, -30.979966003815203 ] } },
{ "type": "Feature", "properties": { "orden": 517 }, "geometry": { "type": "Point", "coordinates": [ -64.09723547387442, -30.979937749389016 ] } },
{ "type": "Feature", "properties": { "orden": 518 }, "geometry": { "type": "Point", "coordinates": [ -64.097386648453551, -30.979940665925213 ] } },
{ "type": "Feature", "properties": { "orden": 519 }, "geometry": { "type": "Point", "coordinates": [ -64.096455105452193, -30.98033924376498 ] } },
{ "type": "Feature", "properties": { "orden": 520 }, "geometry": { "type": "Point", "coordinates": [ -64.096518097123592, -30.980305103265401 ] } },
{ "type": "Feature", "properties": { "orden": 521 }, "geometry": { "type": "Point", "coordinates": [ -64.096692062371076, -30.98016920321913 ] } },
{ "type": "Feature", "properties": { "orden": 522 }, "geometry": { "type": "Point", "coordinates": [ -64.096788674820061, -30.980090669533698 ] } },
{ "type": "Feature", "properties": { "orden": 523 }, "geometry": { "type": "Point", "coordinates": [ -64.096819030164212, -30.980187028464528 ] } },
{ "type": "Feature", "properties": { "orden": 524 }, "geometry": { "type": "Point", "coordinates": [ -64.096822356505427, -30.980264713630493 ] } },
{ "type": "Feature", "properties": { "orden": 525 }, "geometry": { "type": "Point", "coordinates": [ -64.096852375626341, -30.980331670331172 ] } },
{ "type": "Feature", "properties": { "orden": 526 }, "geometry": { "type": "Point", "coordinates": [ -64.096865644334542, -30.98042607396911 ] } },
{ "type": "Feature", "properties": { "orden": 527 }, "geometry": { "type": "Point", "coordinates": [ -64.096880894165778, -30.980480553897092 ] } },
{ "type": "Feature", "properties": { "orden": 528 }, "geometry": { "type": "Point", "coordinates": [ -64.096903552730879, -30.980543372359435 ] } },
{ "type": "Feature", "properties": { "orden": 529 }, "geometry": { "type": "Point", "coordinates": [ -64.09694387474228, -30.980658549876519 ] } },
{ "type": "Feature", "properties": { "orden": 530 }, "geometry": { "type": "Point", "coordinates": [ -64.097003192667984, -30.980729458450146 ] } },
{ "type": "Feature", "properties": { "orden": 531 }, "geometry": { "type": "Point", "coordinates": [ -64.097067337719636, -30.980796125273493 ] } },
{ "type": "Feature", "properties": { "orden": 532 }, "geometry": { "type": "Point", "coordinates": [ -64.097111934418791, -30.980858757370974 ] } },
{ "type": "Feature", "properties": { "orden": 533 }, "geometry": { "type": "Point", "coordinates": [ -64.096963724500768, -30.980902023326841 ] } },
{ "type": "Feature", "properties": { "orden": 534 }, "geometry": { "type": "Point", "coordinates": [ -64.09687850637296, -30.980911148436917 ] } },
{ "type": "Feature", "properties": { "orden": 535 }, "geometry": { "type": "Point", "coordinates": [ -64.096822634914687, -30.980928425757337 ] } },
{ "type": "Feature", "properties": { "orden": 536 }, "geometry": { "type": "Point", "coordinates": [ -64.096735339507092, -30.980969073845294 ] } },
{ "type": "Feature", "properties": { "orden": 537 }, "geometry": { "type": "Point", "coordinates": [ -64.096567893005911, -30.981035606661948 ] } },
{ "type": "Feature", "properties": { "orden": 538 }, "geometry": { "type": "Point", "coordinates": [ -64.096435856904208, -30.981001021310259 ] } },
{ "type": "Feature", "properties": { "orden": 539 }, "geometry": { "type": "Point", "coordinates": [ -64.096335112529871, -30.98114470104025 ] } },
{ "type": "Feature", "properties": { "orden": 540 }, "geometry": { "type": "Point", "coordinates": [ -64.096290276080111, -30.981061067082781 ] } },
{ "type": "Feature", "properties": { "orden": 541 }, "geometry": { "type": "Point", "coordinates": [ -64.096240012380534, -30.980929170831541 ] } },
{ "type": "Feature", "properties": { "orden": 542 }, "geometry": { "type": "Point", "coordinates": [ -64.096195032066959, -30.980832935881761 ] } },
{ "type": "Feature", "properties": { "orden": 543 }, "geometry": { "type": "Point", "coordinates": [ -64.096137600036769, -30.980713702589188 ] } },
{ "type": "Feature", "properties": { "orden": 544 }, "geometry": { "type": "Point", "coordinates": [ -64.09608441907956, -30.980539823768275 ] } },
{ "type": "Feature", "properties": { "orden": 545 }, "geometry": { "type": "Point", "coordinates": [ -64.096312443387774, -30.980441272028767 ] } }
]
}
