{
"type": "FeatureCollection",
"name": "LACOSTANERA",
"crs": { "type": "name", "properties": { "name": "urn:ogc:def:crs:OGC:1.3:CRS84" } },
"features": [
{ "type": "Feature", "properties": { "orden": 1 }, "geometry": { "type": "Point", "coordinates": [ -64.113430148064197, -30.979888439283922 ] } },
{ "type": "Feature", "properties": { "orden": 2 }, "geometry": { "type": "Point", "coordinates": [ -64.113500398062243, -30.98006006300934 ] } },
{ "type": "Feature", "properties": { "orden": 3 }, "geometry": { "type": "Point", "coordinates": [ -64.113739664713222, -30.98009160598998 ] } },
{ "type": "Feature", "properties": { "orden": 4 }, "geometry": { "type": "Point", "coordinates": [ -64.114064974105204, -30.979975381508172 ] } },
{ "type": "Feature", "properties": { "orden": 5 }, "geometry": { "type": "Point", "coordinates": [ -64.114139221892231, -30.980071357546386 ] } },
{ "type": "Feature", "properties": { "orden": 6 }, "geometry": { "type": "Point", "coordinates": [ -64.114160576517151, -30.980230800464515 ] } },
{ "type": "Feature", "properties": { "orden": 7 }, "geometry": { "type": "Point", "coordinates": [ -64.114181736003928, -30.980373442204868 ] } },
{ "type": "Feature", "properties": { "orden": 8 }, "geometry": { "type": "Point", "coordinates": [ -64.114202700338154, -30.980499282768921 ] } },
{ "type": "Feature", "properties": { "orden": 9 }, "geometry": { "type": "Point", "coordinates": [ -64.11419397514895, -30.980587573002261 ] } },
{ "type": "Feature", "properties": { "orden": 10 }, "geometry": { "type": "Point", "coordinates": [ -64.11422936950764, -30.980696486237111 ] } },
{ "type": "Feature", "properties": { "orden": 11 }, "geometry": { "type": "Point", "coordinates": [ -64.114264959185945, -30.980822200625578 ] } },
{ "type": "Feature", "properties": { "orden": 12 }, "geometry": { "type": "Point", "coordinates": [ -64.114266862740706, -30.980986012002237 ] } },
{ "type": "Feature", "properties": { "orden": 13 }, "geometry": { "type": "Point", "coordinates": [ -64.113828301189073, -30.981006597229491 ] } },
{ "type": "Feature", "properties": { "orden": 14 }, "geometry": { "type": "Point", "coordinates": [ -64.113444535817067, -30.981127525763906 ] } },
{ "type": "Feature", "properties": { "orden": 15 }, "geometry": { "type": "Point", "coordinates": [ -64.113278149039161, -30.981074350613934 ] } },
{ "type": "Feature", "properties": { "orden": 16 }, "geometry": { "type": "Point", "coordinates": [ -64.113152323402687, -30.981155248542169 ] } },
{ "type": "Feature", "properties": { "orden": 17 }, "geometry": { "type": "Point", "coordinates": [ -64.113040635258329, -30.981194017397915 ] } },
{ "type": "Feature", "properties": { "orden": 18 }, "geometry": { "type": "Point", "coordinates": [ -64.112738428604345, -30.981200821793596 ] } },
{ "type": "Feature", "properties": { "orden": 19 }, "geometry": { "type": "Point", "coordinates": [ -64.112543961170317, -30.981248704718087 ] } },
{ "type": "Feature", "properties": { "orden": 20 }, "geometry": { "type": "Point", "coordinates": [ -64.112412626099285, -30.981275040109882 ] } },
{ "type": "Feature", "properties": { "orden": 21 }, "geometry": { "type": "Point", "coordinates": [ -64.112178865268987, -30.981298056590038 ] } },
{ "type": "Feature", "properties": { "orden": 22 }, "geometry": { "type": "Point", "coordinates": [ -64.111769795688573, -30.981339384492237 ] } },
{ "type": "Feature", "properties": { "orden": 23 }, "geometry": { "type": "Point", "coordinates": [ -64.111637875917907, -30.981315315562341 ] } },
{ "type": "Feature", "properties": { "orden": 24 }, "geometry": { "type": "Point", "coordinates": [ -64.110405060190757, -30.981376327742606 ] } },
{ "type": "Feature", "properties": { "orden": 25 }, "geometry": { "type": "Point", "coordinates": [ -64.110063803140363, -30.981379260859715 ] } },
{ "type": "Feature", "properties": { "orden": 26 }, "geometry": { "type": "Point", "coordinates": [ -64.109381061437404, -30.980944051177037 ] } },
{ "type": "Feature", "properties": { "orden": 27 }, "geometry": { "type": "Point", "coordinates": [ -64.109562003664138, -30.980148561702801 ] } },
{ "type": "Feature", "properties": { "orden": 28 }, "geometry": { "type": "Point", "coordinates": [ -64.109456752942961, -30.980111659276979 ] } },
{ "type": "Feature", "properties": { "orden": 29 }, "geometry": { "type": "Point", "coordinates": [ -64.109351526596626, -30.98007685691287 ] } },
{ "type": "Feature", "properties": { "orden": 30 }, "geometry": { "type": "Point", "coordinates": [ -64.109231748101365, -30.980048480497672 ] } },
{ "type": "Feature", "properties": { "orden": 31 }, "geometry": { "type": "Point", "coordinates": [ -64.109158282492061, -30.980019706313399 ] } },
{ "type": "Feature", "properties": { "orden": 32 }, "geometry": { "type": "Point", "coordinates": [ -64.109119646589207, -30.980051543430029 ] } },
{ "type": "Feature", "properties": { "orden": 33 }, "geometry": { "type": "Point", "coordinates": [ -64.109029166968782, -30.980027115973062 ] } },
{ "type": "Feature", "properties": { "orden": 34 }, "geometry": { "type": "Point", "coordinates": [ -64.108931593425027, -30.980021652577559 ] } },
{ "type": "Feature", "properties": { "orden": 35 }, "geometry": { "type": "Point", "coordinates": [ -64.108819127659999, -30.97999321299838 ] } },
{ "type": "Feature", "properties": { "orden": 36 }, "geometry": { "type": "Point", "coordinates": [ -64.108719068076994, -30.979983570064253 ] } },
{ "type": "Feature", "properties": { "orden": 37 }, "geometry": { "type": "Point", "coordinates": [ -64.108594463395207, -30.979959435193418 ] } },
{ "type": "Feature", "properties": { "orden": 38 }, "geometry": { "type": "Point", "coordinates": [ -64.108499157508845, -30.979939249498027 ] } },
{ "type": "Feature", "properties": { "orden": 39 }, "geometry": { "type": "Point", "coordinates": [ -64.108409090820373, -30.979950524155594 ] } },
{ "type": "Feature", "properties": { "orden": 40 }, "geometry": { "type": "Point", "coordinates": [ -64.108299402616154, -30.979951465307998 ] } },
{ "type": "Feature", "properties": { "orden": 41 }, "geometry": { "type": "Point", "coordinates": [ -64.108194662250455, -30.979958664995888 ] } },
{ "type": "Feature", "properties": { "orden": 42 }, "geometry": { "type": "Point", "coordinates": [ -64.108197963087349, -30.980244285456688 ] } },
{ "type": "Feature", "properties": { "orden": 43 }, "geometry": { "type": "Point", "coordinates": [ -64.1083052626539, -30.980247565596866 ] } },
{ "type": "Feature", "properties": { "orden": 44 }, "geometry": { "type": "Point", "coordinates": [ -64.10839274646024, -30.980223711019065 ] } },
{ "type": "Feature", "properties": { "orden": 45 }, "geometry": { "type": "Point", "coordinates": [ -64.108444201473745, -30.980246373438263 ] } },
{ "type": "Feature", "properties": { "orden": 46 }, "geometry": { "type": "Point", "coordinates": [ -64.108514962476022, -30.980252067294607 ] } },
{ "type": "Feature", "properties": { "orden": 47 }, "geometry": { "type": "Point", "coordinates": [ -64.108600057266827, -30.980232433795504 ] } },
{ "type": "Feature", "properties": { "orden": 48 }, "geometry": { "type": "Point", "coordinates": [ -64.108648807718296, -30.980232015400198 ] } },
{ "type": "Feature", "properties": { "orden": 49 }, "geometry": { "type": "Point", "coordinates": [ -64.10873899605086, -30.980231241320379 ] } },
{ "type": "Feature", "properties": { "orden": 50 }, "geometry": { "type": "Point", "coordinates": [ -64.108846368462494, -30.980240821460804 ] } },
{ "type": "Feature", "properties": { "orden": 51 }, "geometry": { "type": "Point", "coordinates": [ -64.1089462583125, -30.980235763240149 ] } },
{ "type": "Feature", "properties": { "orden": 52 }, "geometry": { "type": "Point", "coordinates": [ -64.109024283317055, -30.980237193739541 ] } },
{ "type": "Feature", "properties": { "orden": 53 }, "geometry": { "type": "Point", "coordinates": [ -64.109143746201866, -30.980238268395738 ] } },
{ "type": "Feature", "properties": { "orden": 54 }, "geometry": { "type": "Point", "coordinates": [ -64.10925102147462, -30.980239447599917 ] } },
{ "type": "Feature", "properties": { "orden": 55 }, "geometry": { "type": "Point", "coordinates": [ -64.109338553609618, -30.980219792686469 ] } },
{ "type": "Feature", "properties": { "orden": 56 }, "geometry": { "type": "Point", "coordinates": [ -64.109384817926866, -30.980215194647641 ] } },
{ "type": "Feature", "properties": { "orden": 57 }, "geometry": { "type": "Point", "coordinates": [ -64.109475297808899, -30.980239621848341 ] } },
{ "type": "Feature", "properties": { "orden": 58 }, "geometry": { "type": "Point", "coordinates": [ -64.109083552679081, -30.98051393216322 ] } },
{ "type": "Feature", "properties": { "orden": 59 }, "geometry": { "type": "Point", "coordinates": [ -64.109104631841447, -30.980650274459855 ] } },
{ "type": "Feature", "properties": { "orden": 60 }, "geometry": { "type": "Point", "coordinates": [ -64.109137364324752, -30.980740308810066 ] } },
{ "type": "Feature", "properties": { "orden": 61 }, "geometry": { "type": "Point", "coordinates": [ -64.109160298137354, -30.980826226571541 ] } },
{ "type": "Feature", "properties": { "orden": 62 }, "geometry": { "type": "Point", "coordinates": [ -64.10919315220525, -30.980926761649901 ] } },
{ "type": "Feature", "properties": { "orden": 63 }, "geometry": { "type": "Point", "coordinates": [ -64.109220815436345, -30.981000036637369 ] } },
{ "type": "Feature", "properties": { "orden": 64 }, "geometry": { "type": "Point", "coordinates": [ -64.10923646105617, -30.98108811732244 ] } },
{ "type": "Feature", "properties": { "orden": 65 }, "geometry": { "type": "Point", "coordinates": [ -64.109281503033628, -30.981188547710229 ] } },
{ "type": "Feature", "properties": { "orden": 66 }, "geometry": { "type": "Point", "coordinates": [ -64.109304242724804, -30.981257664240374 ] } },
{ "type": "Feature", "properties": { "orden": 67 }, "geometry": { "type": "Point", "coordinates": [ -64.109310089676498, -30.981341628344438 ] } },
{ "type": "Feature", "properties": { "orden": 68 }, "geometry": { "type": "Point", "coordinates": [ -64.109308915541831, -30.981450857037959 ] } },
{ "type": "Feature", "properties": { "orden": 69 }, "geometry": { "type": "Point", "coordinates": [ -64.109331752509277, -30.981528374155261 ] } },
{ "type": "Feature", "properties": { "orden": 70 }, "geometry": { "type": "Point", "coordinates": [ -64.109391128570067, -30.981603477096836 ] } },
{ "type": "Feature", "properties": { "orden": 71 }, "geometry": { "type": "Point", "coordinates": [ -64.109144935320884, -30.981605591303524 ] } },
{ "type": "Feature", "properties": { "orden": 72 }, "geometry": { "type": "Point", "coordinates": [ -64.109131872996116, -30.981530090580119 ] } },
{ "type": "Feature", "properties": { "orden": 73 }, "geometry": { "type": "Point", "coordinates": [ -64.10910386957805, -30.98142741349044 ] } },
{ "type": "Feature", "properties": { "orden": 74 }, "geometry": { "type": "Point", "coordinates": [ -64.109066261769939, -30.981337421003651 ] } },
{ "type": "Feature", "properties": { "orden": 75 }, "geometry": { "type": "Point", "coordinates": [ -64.109045814033294, -30.981255682603667 ] } },
{ "type": "Feature", "properties": { "orden": 76 }, "geometry": { "type": "Point", "coordinates": [ -64.109030119975301, -30.981163401595193 ] } },
{ "type": "Feature", "properties": { "orden": 77 }, "geometry": { "type": "Point", "coordinates": [ -64.109004627197024, -30.981067003993825 ] } },
{ "type": "Feature", "properties": { "orden": 78 }, "geometry": { "type": "Point", "coordinates": [ -64.108976696931919, -30.98097062731167 ] } },
{ "type": "Feature", "properties": { "orden": 79 }, "geometry": { "type": "Point", "coordinates": [ -64.108958881205055, -30.980905669159981 ] } },
{ "type": "Feature", "properties": { "orden": 80 }, "geometry": { "type": "Point", "coordinates": [ -64.108928659226336, -30.980821914287372 ] } },
{ "type": "Feature", "properties": { "orden": 81 }, "geometry": { "type": "Point", "coordinates": [ -64.10892286122926, -30.980742150450116 ] } },
{ "type": "Feature", "properties": { "orden": 82 }, "geometry": { "type": "Point", "coordinates": [ -64.10890219517583, -30.980641510666178 ] } },
{ "type": "Feature", "properties": { "orden": 83 }, "geometry": { "type": "Point", "coordinates": [ -64.108894056832099, -30.980570168349015 ] } },
{ "type": "Feature", "properties": { "orden": 84 }, "geometry": { "type": "Point", "coordinates": [ -64.108858814252642, -30.980473854402749 ] } },
{ "type": "Feature", "properties": { "orden": 85 }, "geometry": { "type": "Point", "coordinates": [ -64.108685293998889, -30.980857609041465 ] } },
{ "type": "Feature", "properties": { "orden": 86 }, "geometry": { "type": "Point", "coordinates": [ -64.108462419598638, -30.980557070163062 ] } },
{ "type": "Feature", "properties": { "orden": 87 }, "geometry": { "type": "Point", "coordinates": [ -64.108386127874567, -30.980494714059812 ] } },
{ "type": "Feature", "properties": { "orden": 88 }, "geometry": { "type": "Point", "coordinates": [ -64.108254102646882, -30.98067227695978 ] } },
{ "type": "Feature", "properties": { "orden": 89 }, "geometry": { "type": "Point", "coordinates": [ -64.108350283114802, -30.980768068222371 ] } },
{ "type": "Feature", "properties": { "orden": 90 }, "geometry": { "type": "Point", "coordinates": [ -64.108217140943253, -30.980849024180966 ] } },
{ "type": "Feature", "properties": { "orden": 91 }, "geometry": { "type": "Point", "coordinates": [ -64.108113224763684, -30.980927628933227 ] } },
{ "type": "Feature", "properties": { "orden": 92 }, "geometry": { "type": "Point", "coordinates": [ -64.107967603252064, -30.980983487391541 ] } },
{ "type": "Feature", "properties": { "orden": 93 }, "geometry": { "type": "Point", "coordinates": [ -64.107853208614699, -30.980999171061427 ] } },
{ "type": "Feature", "properties": { "orden": 94 }, "geometry": { "type": "Point", "coordinates": [ -64.107804786225657, -30.981239027215601 ] } },
{ "type": "Feature", "properties": { "orden": 95 }, "geometry": { "type": "Point", "coordinates": [ -64.107779938482494, -30.981409369344838 ] } },
{ "type": "Feature", "properties": { "orden": 96 }, "geometry": { "type": "Point", "coordinates": [ -64.107856230570818, -30.981471725789522 ] } },
{ "type": "Feature", "properties": { "orden": 97 }, "geometry": { "type": "Point", "coordinates": [ -64.108012258335407, -30.981472487860163 ] } },
{ "type": "Feature", "properties": { "orden": 98 }, "geometry": { "type": "Point", "coordinates": [ -64.108117364426462, -30.981496790532795 ] } },
{ "type": "Feature", "properties": { "orden": 99 }, "geometry": { "type": "Point", "coordinates": [ -64.108310028372912, -30.981503539022885 ] } },
{ "type": "Feature", "properties": { "orden": 100 }, "geometry": { "type": "Point", "coordinates": [ -64.108509956444578, -30.981506024170436 ] } },
{ "type": "Feature", "properties": { "orden": 101 }, "geometry": { "type": "Point", "coordinates": [ -64.108675953008927, -30.981525603111027 ] } },
{ "type": "Feature", "properties": { "orden": 102 }, "geometry": { "type": "Point", "coordinates": [ -64.107594150736546, -30.981364754647313 ] } },
{ "type": "Feature", "properties": { "orden": 103 }, "geometry": { "type": "Point", "coordinates": [ -64.107646648227927, -30.981055551791904 ] } },
{ "type": "Feature", "properties": { "orden": 104 }, "geometry": { "type": "Point", "coordinates": [ -64.10763834095448, -30.980969508324705 ] } },
{ "type": "Feature", "properties": { "orden": 105 }, "geometry": { "type": "Point", "coordinates": [ -64.107634520629574, -30.980849820643048 ] } },
{ "type": "Feature", "properties": { "orden": 106 }, "geometry": { "type": "Point", "coordinates": [ -64.107620853139395, -30.980721815961154 ] } },
{ "type": "Feature", "properties": { "orden": 107 }, "geometry": { "type": "Point", "coordinates": [ -64.10776193907104, -30.980695401811793 ] } },
{ "type": "Feature", "properties": { "orden": 108 }, "geometry": { "type": "Point", "coordinates": [ -64.107859270623067, -30.98067986457065 ] } },
{ "type": "Feature", "properties": { "orden": 109 }, "geometry": { "type": "Point", "coordinates": [ -64.107976369346545, -30.980687261650566 ] } },
{ "type": "Feature", "properties": { "orden": 110 }, "geometry": { "type": "Point", "coordinates": [ -64.10793033408973, -30.980500724591472 ] } },
{ "type": "Feature", "properties": { "orden": 111 }, "geometry": { "type": "Point", "coordinates": [ -64.107587248786572, -30.980556175766246 ] } },
{ "type": "Feature", "properties": { "orden": 112 }, "geometry": { "type": "Point", "coordinates": [ -64.10750977002651, -30.981235255921327 ] } },
{ "type": "Feature", "properties": { "orden": 113 }, "geometry": { "type": "Point", "coordinates": [ -64.106431936925645, -30.981206686214442 ] } },
{ "type": "Feature", "properties": { "orden": 114 }, "geometry": { "type": "Point", "coordinates": [ -64.106539310264054, -30.981216268250844 ] } },
{ "type": "Feature", "properties": { "orden": 115 }, "geometry": { "type": "Point", "coordinates": [ -64.106659162227743, -30.981250947595679 ] } },
{ "type": "Feature", "properties": { "orden": 116 }, "geometry": { "type": "Point", "coordinates": [ -64.106800758301304, -30.981268637646483 ] } },
{ "type": "Feature", "properties": { "orden": 117 }, "geometry": { "type": "Point", "coordinates": [ -64.106942524134027, -30.981301028597397 ] } },
{ "type": "Feature", "properties": { "orden": 118 }, "geometry": { "type": "Point", "coordinates": [ -64.10706442593451, -30.981302084256921 ] } },
{ "type": "Feature", "properties": { "orden": 119 }, "geometry": { "type": "Point", "coordinates": [ -64.107208483946167, -30.981321853116722 ] } },
{ "type": "Feature", "properties": { "orden": 120 }, "geometry": { "type": "Point", "coordinates": [ -64.107337868194719, -30.981337546890888 ] } },
{ "type": "Feature", "properties": { "orden": 121 }, "geometry": { "type": "Point", "coordinates": [ -64.10737089040687, -30.981030611443956 ] } },
{ "type": "Feature", "properties": { "orden": 122 }, "geometry": { "type": "Point", "coordinates": [ -64.107386522229746, -30.980906556272966 ] } },
{ "type": "Feature", "properties": { "orden": 123 }, "geometry": { "type": "Point", "coordinates": [ -64.107402032746691, -30.980772000344754 ] } },
{ "type": "Feature", "properties": { "orden": 124 }, "geometry": { "type": "Point", "coordinates": [ -64.107412765175241, -30.98064588681067 ] } },
{ "type": "Feature", "properties": { "orden": 125 }, "geometry": { "type": "Point", "coordinates": [ -64.107418574010651, -30.980515614766681 ] } },
{ "type": "Feature", "properties": { "orden": 126 }, "geometry": { "type": "Point", "coordinates": [ -64.107269726695264, -30.980714324492109 ] } },
{ "type": "Feature", "properties": { "orden": 127 }, "geometry": { "type": "Point", "coordinates": [ -64.107111723312173, -30.980753485255491 ] } },
{ "type": "Feature", "properties": { "orden": 128 }, "geometry": { "type": "Point", "coordinates": [ -64.106775585575875, -30.980777369362485 ] } },
{ "type": "Feature", "properties": { "orden": 129 }, "geometry": { "type": "Point", "coordinates": [ -64.10598802745784, -30.980975247568168 ] } },
{ "type": "Feature", "properties": { "orden": 130 }, "geometry": { "type": "Point", "coordinates": [ -64.105723698744995, -30.980672958410032 ] } },
{ "type": "Feature", "properties": { "orden": 131 }, "geometry": { "type": "Point", "coordinates": [ -64.105051941349416, -30.980342649369106 ] } },
{ "type": "Feature", "properties": { "orden": 132 }, "geometry": { "type": "Point", "coordinates": [ -64.104975288946562, -30.980248788902035 ] } },
{ "type": "Feature", "properties": { "orden": 133 }, "geometry": { "type": "Point", "coordinates": [ -64.104898781887485, -30.980167529301159 ] } },
{ "type": "Feature", "properties": { "orden": 134 }, "geometry": { "type": "Point", "coordinates": [ -64.104834293188333, -30.980071464340678 ] } },
{ "type": "Feature", "properties": { "orden": 135 }, "geometry": { "type": "Point", "coordinates": [ -64.104740602779685, -30.979979849808711 ] } },
{ "type": "Feature", "properties": { "orden": 136 }, "geometry": { "type": "Point", "coordinates": [ -64.104661586039839, -30.979892310441379 ] } },
{ "type": "Feature", "properties": { "orden": 137 }, "geometry": { "type": "Point", "coordinates": [ -64.104572964532508, -30.979817455312414 ] } },
{ "type": "Feature", "properties": { "orden": 138 }, "geometry": { "type": "Point", "coordinates": [ -64.104501575085521, -30.979757155300181 ] } },
{ "type": "Feature", "properties": { "orden": 139 }, "geometry": { "type": "Point", "coordinates": [ -64.104420121237553, -30.979669636614204 ] } },
{ "type": "Feature", "properties": { "orden": 140 }, "geometry": { "type": "Point", "coordinates": [ -64.104356020341541, -30.979607173841529 ] } },
{ "type": "Feature", "properties": { "orden": 141 }, "geometry": { "type": "Point", "coordinates": [ -64.105321119640834, -30.980008489519349 ] } },
{ "type": "Feature", "properties": { "orden": 142 }, "geometry": { "type": "Point", "coordinates": [ -64.105239810076171, -30.979933572292111 ] } },
{ "type": "Feature", "properties": { "orden": 143 }, "geometry": { "type": "Point", "coordinates": [ -64.1051733919832, -30.979881631563487 ] } },
{ "type": "Feature", "properties": { "orden": 144 }, "geometry": { "type": "Point", "coordinates": [ -64.105111945804737, -30.979838049703083 ] } },
{ "type": "Feature", "properties": { "orden": 145 }, "geometry": { "type": "Point", "coordinates": [ -64.105057739619511, -30.97978810479707 ] } },
{ "type": "Feature", "properties": { "orden": 146 }, "geometry": { "type": "Point", "coordinates": [ -64.105003436688492, -30.97972975925525 ] } },
{ "type": "Feature", "properties": { "orden": 147 }, "geometry": { "type": "Point", "coordinates": [ -64.104948674036976, -30.979631510783378 ] } },
{ "type": "Feature", "properties": { "orden": 148 }, "geometry": { "type": "Point", "coordinates": [ -64.104982308499189, -30.979377079523612 ] } },
{ "type": "Feature", "properties": { "orden": 149 }, "geometry": { "type": "Point", "coordinates": [ -64.105054206179389, -30.97948148248383 ] } },
{ "type": "Feature", "properties": { "orden": 150 }, "geometry": { "type": "Point", "coordinates": [ -64.105113698647656, -30.97956708828962 ] } },
{ "type": "Feature", "properties": { "orden": 151 }, "geometry": { "type": "Point", "coordinates": [ -64.105192546081298, -30.979639926312117 ] } },
{ "type": "Feature", "properties": { "orden": 152 }, "geometry": { "type": "Point", "coordinates": [ -64.105288819322297, -30.979744120577919 ] } },
{ "type": "Feature", "properties": { "orden": 153 }, "geometry": { "type": "Point", "coordinates": [ -64.105637375758775, -30.980163309964883 ] } },
{ "type": "Feature", "properties": { "orden": 154 }, "geometry": { "type": "Point", "coordinates": [ -64.10556523478688, -30.980037905844124 ] } },
{ "type": "Feature", "properties": { "orden": 155 }, "geometry": { "type": "Point", "coordinates": [ -64.105527558217332, -30.979941611758409 ] } },
{ "type": "Feature", "properties": { "orden": 156 }, "geometry": { "type": "Point", "coordinates": [ -64.105666496724567, -30.979940422597632 ] } },
{ "type": "Feature", "properties": { "orden": 157 }, "geometry": { "type": "Point", "coordinates": [ -64.105756781743111, -30.979948051215231 ] } },
{ "type": "Feature", "properties": { "orden": 158 }, "geometry": { "type": "Point", "coordinates": [ -64.105859254363168, -30.979955575432811 ] } },
{ "type": "Feature", "properties": { "orden": 159 }, "geometry": { "type": "Point", "coordinates": [ -64.105949418299417, -30.979952703154467 ] } },
{ "type": "Feature", "properties": { "orden": 160 }, "geometry": { "type": "Point", "coordinates": [ -64.105945463679348, -30.980032550671783 ] } },
{ "type": "Feature", "properties": { "orden": 161 }, "geometry": { "type": "Point", "coordinates": [ -64.105946359876711, -30.980110256297884 ] } },
{ "type": "Feature", "properties": { "orden": 162 }, "geometry": { "type": "Point", "coordinates": [ -64.105942889684073, -30.980232106853656 ] } },
{ "type": "Feature", "properties": { "orden": 163 }, "geometry": { "type": "Point", "coordinates": [ -64.105811263342034, -30.980233233721858 ] } },
{ "type": "Feature", "properties": { "orden": 164 }, "geometry": { "type": "Point", "coordinates": [ -64.106163139057841, -30.980305833908268 ] } },
{ "type": "Feature", "properties": { "orden": 165 }, "geometry": { "type": "Point", "coordinates": [ -64.1061531615929, -30.980074879822496 ] } },
{ "type": "Feature", "properties": { "orden": 166 }, "geometry": { "type": "Point", "coordinates": [ -64.106265263309936, -30.980071819462026 ] } },
{ "type": "Feature", "properties": { "orden": 167 }, "geometry": { "type": "Point", "coordinates": [ -64.106372344590852, -30.980056199848335 ] } },
{ "type": "Feature", "properties": { "orden": 168 }, "geometry": { "type": "Point", "coordinates": [ -64.106460095307739, -30.980055448240517 ] } },
{ "type": "Feature", "properties": { "orden": 169 }, "geometry": { "type": "Point", "coordinates": [ -64.106560009385191, -30.980052492018498 ] } },
{ "type": "Feature", "properties": { "orden": 170 }, "geometry": { "type": "Point", "coordinates": [ -64.106674645521224, -30.98005781102917 ] } },
{ "type": "Feature", "properties": { "orden": 171 }, "geometry": { "type": "Point", "coordinates": [ -64.106691136959043, -30.980219397397065 ] } },
{ "type": "Feature", "properties": { "orden": 172 }, "geometry": { "type": "Point", "coordinates": [ -64.106591537781071, -30.980249655694564 ] } },
{ "type": "Feature", "properties": { "orden": 173 }, "geometry": { "type": "Point", "coordinates": [ -64.106472123301188, -30.980252778980578 ] } },
{ "type": "Feature", "properties": { "orden": 174 }, "geometry": { "type": "Point", "coordinates": [ -64.106381959110422, -30.980255651630035 ] } },
{ "type": "Feature", "properties": { "orden": 175 }, "geometry": { "type": "Point", "coordinates": [ -64.106277145532189, -30.980256549318728 ] } },
{ "type": "Feature", "properties": { "orden": 176 }, "geometry": { "type": "Point", "coordinates": [ -64.106816468784785, -30.980306538647731 ] } },
{ "type": "Feature", "properties": { "orden": 177 }, "geometry": { "type": "Point", "coordinates": [ -64.106801032941078, -30.980025222785756 ] } },
{ "type": "Feature", "properties": { "orden": 178 }, "geometry": { "type": "Point", "coordinates": [ -64.106903384486728, -30.980022245413842 ] } },
{ "type": "Feature", "properties": { "orden": 179 }, "geometry": { "type": "Point", "coordinates": [ -64.107010756529334, -30.980031827090581 ] } },
{ "type": "Feature", "properties": { "orden": 180 }, "geometry": { "type": "Point", "coordinates": [ -64.107110791786624, -30.980039371199776 ] } },
{ "type": "Feature", "properties": { "orden": 181 }, "geometry": { "type": "Point", "coordinates": [ -64.10722274790804, -30.980023709102856 ] } },
{ "type": "Feature", "properties": { "orden": 182 }, "geometry": { "type": "Point", "coordinates": [ -64.10734238032488, -30.980039486489808 ] } },
{ "type": "Feature", "properties": { "orden": 183 }, "geometry": { "type": "Point", "coordinates": [ -64.107444780363807, -30.980040708990948 ] } },
{ "type": "Feature", "properties": { "orden": 184 }, "geometry": { "type": "Point", "coordinates": [ -64.107530020747447, -30.980033677101222 ] } },
{ "type": "Feature", "properties": { "orden": 185 }, "geometry": { "type": "Point", "coordinates": [ -64.107637417107313, -30.98004535840607 ] } },
{ "type": "Feature", "properties": { "orden": 186 }, "geometry": { "type": "Point", "coordinates": [ -64.107744473837784, -30.980027637509917 ] } },
{ "type": "Feature", "properties": { "orden": 187 }, "geometry": { "type": "Point", "coordinates": [ -64.107851554789136, -30.980012016676657 ] } },
{ "type": "Feature", "properties": { "orden": 188 }, "geometry": { "type": "Point", "coordinates": [ -64.107944156191436, -30.980009122100913 ] } },
{ "type": "Feature", "properties": { "orden": 189 }, "geometry": { "type": "Point", "coordinates": [ -64.107965500529801, -30.980168566291887 ] } },
{ "type": "Feature", "properties": { "orden": 190 }, "geometry": { "type": "Point", "coordinates": [ -64.107868509206753, -30.980213505710559 ] } },
{ "type": "Feature", "properties": { "orden": 191 }, "geometry": { "type": "Point", "coordinates": [ -64.10775396989726, -30.980216588368624 ] } },
{ "type": "Feature", "properties": { "orden": 192 }, "geometry": { "type": "Point", "coordinates": [ -64.10765895502081, -30.980221603865211 ] } },
{ "type": "Feature", "properties": { "orden": 193 }, "geometry": { "type": "Point", "coordinates": [ -64.107546828955449, -30.980222565287526 ] } },
{ "type": "Feature", "properties": { "orden": 194 }, "geometry": { "type": "Point", "coordinates": [ -64.107459078117927, -30.98022331763714 ] } },
{ "type": "Feature", "properties": { "orden": 195 }, "geometry": { "type": "Point", "coordinates": [ -64.107351851342315, -30.980226337245636 ] } },
{ "type": "Feature", "properties": { "orden": 196 }, "geometry": { "type": "Point", "coordinates": [ -64.107227537641762, -30.980227402869158 ] } },
{ "type": "Feature", "properties": { "orden": 197 }, "geometry": { "type": "Point", "coordinates": [ -64.107142224314032, -30.980228134110231 ] } },
{ "type": "Feature", "properties": { "orden": 198 }, "geometry": { "type": "Point", "coordinates": [ -64.107010791991058, -30.980246063410203 ] } },
{ "type": "Feature", "properties": { "orden": 199 }, "geometry": { "type": "Point", "coordinates": [ -64.10692057934871, -30.980244736132562 ] } },
{ "type": "Feature", "properties": { "orden": 200 }, "geometry": { "type": "Point", "coordinates": [ -64.105778451410259, -30.981087310664716 ] } },
{ "type": "Feature", "properties": { "orden": 201 }, "geometry": { "type": "Point", "coordinates": [ -64.105475154481468, -30.980999591228514 ] } },
{ "type": "Feature", "properties": { "orden": 202 }, "geometry": { "type": "Point", "coordinates": [ -64.105387354451054, -30.980996141883526 ] } },
{ "type": "Feature", "properties": { "orden": 203 }, "geometry": { "type": "Point", "coordinates": [ -64.105280150899205, -30.98100125994608 ] } },
{ "type": "Feature", "properties": { "orden": 204 }, "geometry": { "type": "Point", "coordinates": [ -64.105185110852744, -30.981004173491499 ] } },
{ "type": "Feature", "properties": { "orden": 205 }, "geometry": { "type": "Point", "coordinates": [ -64.105075300306865, -30.980994611173326 ] } },
{ "type": "Feature", "properties": { "orden": 206 }, "geometry": { "type": "Point", "coordinates": [ -64.1049545470552, -30.980670088437666 ] } },
{ "type": "Feature", "properties": { "orden": 207 }, "geometry": { "type": "Point", "coordinates": [ -64.104946248924819, -30.980796180993529 ] } },
{ "type": "Feature", "properties": { "orden": 208 }, "geometry": { "type": "Point", "coordinates": [ -64.104933462894863, -30.980955917688004 ] } },
{ "type": "Feature", "properties": { "orden": 209 }, "geometry": { "type": "Point", "coordinates": [ -64.104823652422638, -30.980946355153897 ] } },
{ "type": "Feature", "properties": { "orden": 210 }, "geometry": { "type": "Point", "coordinates": [ -64.104679256659296, -30.980897181470144 ] } },
{ "type": "Feature", "properties": { "orden": 211 }, "geometry": { "type": "Point", "coordinates": [ -64.104501388605428, -30.980905003544365 ] } },
{ "type": "Feature", "properties": { "orden": 212 }, "geometry": { "type": "Point", "coordinates": [ -64.104528679630775, -30.980734641054234 ] } },
{ "type": "Feature", "properties": { "orden": 213 }, "geometry": { "type": "Point", "coordinates": [ -64.104459654477907, -30.980668019741355 ] } },
{ "type": "Feature", "properties": { "orden": 214 }, "geometry": { "type": "Point", "coordinates": [ -64.10436717860587, -30.980893548888186 ] } },
{ "type": "Feature", "properties": { "orden": 215 }, "geometry": { "type": "Point", "coordinates": [ -64.104271316304931, -30.980825056558359 ] } },
{ "type": "Feature", "properties": { "orden": 216 }, "geometry": { "type": "Point", "coordinates": [ -64.104154241773784, -30.980819756269629 ] } },
{ "type": "Feature", "properties": { "orden": 217 }, "geometry": { "type": "Point", "coordinates": [ -64.104056619219577, -30.980810088898167 ] } },
{ "type": "Feature", "properties": { "orden": 218 }, "geometry": { "type": "Point", "coordinates": [ -64.103959020861453, -30.980802521605654 ] } },
{ "type": "Feature", "properties": { "orden": 219 }, "geometry": { "type": "Point", "coordinates": [ -64.103933818951333, -30.980519188398233 ] } },
{ "type": "Feature", "properties": { "orden": 220 }, "geometry": { "type": "Point", "coordinates": [ -64.104018939192315, -30.980501658043512 ] } },
{ "type": "Feature", "properties": { "orden": 221 }, "geometry": { "type": "Point", "coordinates": [ -64.104150299973554, -30.980477431307555 ] } },
{ "type": "Feature", "properties": { "orden": 222 }, "geometry": { "type": "Point", "coordinates": [ -64.104225863479698, -30.980476785385072 ] } },
{ "type": "Feature", "properties": { "orden": 223 }, "geometry": { "type": "Point", "coordinates": [ -64.104311244410425, -30.980270220220557 ] } },
{ "type": "Feature", "properties": { "orden": 224 }, "geometry": { "type": "Point", "coordinates": [ -64.104430204985348, -30.98043933232028 ] } },
{ "type": "Feature", "properties": { "orden": 225 }, "geometry": { "type": "Point", "coordinates": [ -64.104525994428897, -30.980501524083941 ] } },
{ "type": "Feature", "properties": { "orden": 226 }, "geometry": { "type": "Point", "coordinates": [ -64.104094372266019, -30.980066238795366 ] } },
{ "type": "Feature", "properties": { "orden": 227 }, "geometry": { "type": "Point", "coordinates": [ -64.103925671137574, -30.979811436683356 ] } },
{ "type": "Feature", "properties": { "orden": 228 }, "geometry": { "type": "Point", "coordinates": [ -64.103775608803602, -30.979905134869444 ] } },
{ "type": "Feature", "properties": { "orden": 229 }, "geometry": { "type": "Point", "coordinates": [ -64.103673281377766, -30.979910209915783 ] } },
{ "type": "Feature", "properties": { "orden": 230 }, "geometry": { "type": "Point", "coordinates": [ -64.103600880924489, -30.979973839292608 ] } },
{ "type": "Feature", "properties": { "orden": 231 }, "geometry": { "type": "Point", "coordinates": [ -64.103508786855315, -30.980020833986661 ] } },
{ "type": "Feature", "properties": { "orden": 232 }, "geometry": { "type": "Point", "coordinates": [ -64.103411527656661, -30.980042668413262 ] } },
{ "type": "Feature", "properties": { "orden": 233 }, "geometry": { "type": "Point", "coordinates": [ -64.103299739929753, -30.980073028299358 ] } },
{ "type": "Feature", "properties": { "orden": 234 }, "geometry": { "type": "Point", "coordinates": [ -64.103188048774001, -30.980111788706246 ] } },
{ "type": "Feature", "properties": { "orden": 235 }, "geometry": { "type": "Point", "coordinates": [ -64.10311048287609, -30.980150257603455 ] } },
{ "type": "Feature", "properties": { "orden": 236 }, "geometry": { "type": "Point", "coordinates": [ -64.103033013546451, -30.980197127071662 ] } },
{ "type": "Feature", "properties": { "orden": 237 }, "geometry": { "type": "Point", "coordinates": [ -64.102940918975008, -30.980244121370927 ] } },
{ "type": "Feature", "properties": { "orden": 238 }, "geometry": { "type": "Point", "coordinates": [ -64.102725547097791, -30.980170347141595 ] } },
{ "type": "Feature", "properties": { "orden": 239 }, "geometry": { "type": "Point", "coordinates": [ -64.102755570265685, -30.980237302373968 ] } },
{ "type": "Feature", "properties": { "orden": 240 }, "geometry": { "type": "Point", "coordinates": [ -64.102790468535247, -30.9803042159783 ] } },
{ "type": "Feature", "properties": { "orden": 241 }, "geometry": { "type": "Point", "coordinates": [ -64.102839847117053, -30.98035840378294 ] } },
{ "type": "Feature", "properties": { "orden": 242 }, "geometry": { "type": "Point", "coordinates": [ -64.102889418994664, -30.980429392799831 ] } },
{ "type": "Feature", "properties": { "orden": 243 }, "geometry": { "type": "Point", "coordinates": [ -64.102963511227301, -30.980512774590483 ] } },
{ "type": "Feature", "properties": { "orden": 244 }, "geometry": { "type": "Point", "coordinates": [ -64.103123470405095, -30.980431594974785 ] } },
{ "type": "Feature", "properties": { "orden": 245 }, "geometry": { "type": "Point", "coordinates": [ -64.103210738322119, -30.980388842487844 ] } },
{ "type": "Feature", "properties": { "orden": 246 }, "geometry": { "type": "Point", "coordinates": [ -64.103327449833984, -30.980362641338733 ] } },
{ "type": "Feature", "properties": { "orden": 247 }, "geometry": { "type": "Point", "coordinates": [ -64.103419495986202, -30.980311446458959 ] } },
{ "type": "Feature", "properties": { "orden": 248 }, "geometry": { "type": "Point", "coordinates": [ -64.103506957003859, -30.980285495006722 ] } },
{ "type": "Feature", "properties": { "orden": 249 }, "geometry": { "type": "Point", "coordinates": [ -64.103628398330187, -30.980246651021663 ] } },
{ "type": "Feature", "properties": { "orden": 250 }, "geometry": { "type": "Point", "coordinates": [ -64.103700992344955, -30.980199822856452 ] } },
{ "type": "Feature", "properties": { "orden": 251 }, "geometry": { "type": "Point", "coordinates": [ -64.103817461729889, -30.98015261973686 ] } },
{ "type": "Feature", "properties": { "orden": 252 }, "geometry": { "type": "Point", "coordinates": [ -64.103972834655195, -30.980096682595939 ] } },
{ "type": "Feature", "properties": { "orden": 253 }, "geometry": { "type": "Point", "coordinates": [ -64.10367058946531, -30.980523538078831 ] } },
{ "type": "Feature", "properties": { "orden": 254 }, "geometry": { "type": "Point", "coordinates": [ -64.103736769498127, -30.980766614373838 ] } },
{ "type": "Feature", "properties": { "orden": 255 }, "geometry": { "type": "Point", "coordinates": [ -64.1036236757936, -30.980683566267512 ] } },
{ "type": "Feature", "properties": { "orden": 256 }, "geometry": { "type": "Point", "coordinates": [ -64.103487270325402, -30.980693133048135 ] } },
{ "type": "Feature", "properties": { "orden": 257 }, "geometry": { "type": "Point", "coordinates": [ -64.103370268473327, -30.980694132504759 ] } },
{ "type": "Feature", "properties": { "orden": 258 }, "geometry": { "type": "Point", "coordinates": [ -64.103179995481852, -30.98068315547296 ] } }
]
}
