{
"type": "FeatureCollection",
"name": "LOSNOGALES",
"crs": { "type": "name", "properties": { "name": "urn:ogc:def:crs:OGC:1.3:CRS84" } },
"features": [
{ "type": "Feature", "properties": { "orden": 2380 }, "geometry": { "type": "Point", "coordinates": [ -64.117510027396349, -30.972694035496083 ] } },
{ "type": "Feature", "properties": { "orden": 2180 }, "geometry": { "type": "Point", "coordinates": [ -64.118183434895187, -30.974867257540254 ] } },
{ "type": "Feature", "properties": { "orden": 880 }, "geometry": { "type": "Point", "coordinates": [ -64.114985882270744, -30.975131309467383 ] } },
{ "type": "Feature", "properties": { "orden": 2440 }, "geometry": { "type": "Point", "coordinates": [ -64.11921974289487, -30.972925185127703 ] } },
{ "type": "Feature", "properties": { "orden": 2450 }, "geometry": { "type": "Point", "coordinates": [ -64.119355811364656, -30.972904572333967 ] } },
{ "type": "Feature", "properties": { "orden": 2460 }, "geometry": { "type": "Point", "coordinates": [ -64.119479509720819, -30.972885833460367 ] } },
{ "type": "Feature", "properties": { "orden": 2470 }, "geometry": { "type": "Point", "coordinates": [ -64.119603208086588, -30.97286709442513 ] } },
{ "type": "Feature", "properties": { "orden": 2480 }, "geometry": { "type": "Point", "coordinates": [ -64.119726906347765, -30.972848355070035 ] } },
{ "type": "Feature", "properties": { "orden": 2490 }, "geometry": { "type": "Point", "coordinates": [ -64.119850604609354, -30.972829615800109 ] } },
{ "type": "Feature", "properties": { "orden": 2500 }, "geometry": { "type": "Point", "coordinates": [ -64.119974302757214, -30.972810876457132 ] } },
{ "type": "Feature", "properties": { "orden": 2510 }, "geometry": { "type": "Point", "coordinates": [ -64.120098001383838, -30.972792136712673 ] } },
{ "type": "Feature", "properties": { "orden": 2520 }, "geometry": { "type": "Point", "coordinates": [ -64.120221699436726, -30.972773396888211 ] } },
{ "type": "Feature", "properties": { "orden": 2390 }, "geometry": { "type": "Point", "coordinates": [ -64.118074912407025, -30.97278134767248 ] } },
{ "type": "Feature", "properties": { "orden": 2400 }, "geometry": { "type": "Point", "coordinates": [ -64.118369720873019, -30.972642808087588 ] } },
{ "type": "Feature", "properties": { "orden": 2410 }, "geometry": { "type": "Point", "coordinates": [ -64.118437903925567, -30.973048497811519 ] } },
{ "type": "Feature", "properties": { "orden": 2420 }, "geometry": { "type": "Point", "coordinates": [ -64.118770688272889, -30.972979773290344 ] } },
{ "type": "Feature", "properties": { "orden": 2430 }, "geometry": { "type": "Point", "coordinates": [ -64.118708166444435, -30.972673338842121 ] } },
{ "type": "Feature", "properties": { "orden": 1090 }, "geometry": { "type": "Point", "coordinates": [ -64.114936906226831, -30.972842014230736 ] } },
{ "type": "Feature", "properties": { "orden": 1100 }, "geometry": { "type": "Point", "coordinates": [ -64.115073251062796, -30.972822805270386 ] } },
{ "type": "Feature", "properties": { "orden": 1110 }, "geometry": { "type": "Point", "coordinates": [ -64.115197200680669, -30.972805342383566 ] } },
{ "type": "Feature", "properties": { "orden": 1120 }, "geometry": { "type": "Point", "coordinates": [ -64.115321150308915, -30.972787879273742 ] } },
{ "type": "Feature", "properties": { "orden": 1130 }, "geometry": { "type": "Point", "coordinates": [ -64.115445100366372, -30.972770415934228 ] } },
{ "type": "Feature", "properties": { "orden": 1140 }, "geometry": { "type": "Point", "coordinates": [ -64.115569049850038, -30.972752952447085 ] } },
{ "type": "Feature", "properties": { "orden": 1150 }, "geometry": { "type": "Point", "coordinates": [ -64.115692999284946, -30.972735488841945 ] } },
{ "type": "Feature", "properties": { "orden": 1160 }, "geometry": { "type": "Point", "coordinates": [ -64.115816948670826, -30.972718025119033 ] } },
{ "type": "Feature", "properties": { "orden": 1170 }, "geometry": { "type": "Point", "coordinates": [ -64.115940898007949, -30.972700561278117 ] } },
{ "type": "Feature", "properties": { "orden": 1030 }, "geometry": { "type": "Point", "coordinates": [ -64.114967381918703, -30.972007794113374 ] } },
{ "type": "Feature", "properties": { "orden": 1040 }, "geometry": { "type": "Point", "coordinates": [ -64.114991161312958, -30.972133109130784 ] } },
{ "type": "Feature", "properties": { "orden": 1050 }, "geometry": { "type": "Point", "coordinates": [ -64.115014331741932, -30.972255219888911 ] } },
{ "type": "Feature", "properties": { "orden": 1060 }, "geometry": { "type": "Point", "coordinates": [ -64.115037503254499, -30.97237733075897 ] } },
{ "type": "Feature", "properties": { "orden": 1070 }, "geometry": { "type": "Point", "coordinates": [ -64.115060674896, -30.972499441653646 ] } },
{ "type": "Feature", "properties": { "orden": 1070 }, "geometry": { "type": "Point", "coordinates": [ -64.115060674896, -30.972499441653646 ] } },
{ "type": "Feature", "properties": { "orden": 1025 }, "geometry": { "type": "Point", "coordinates": [ -64.115083846140735, -30.972621552567634 ] } },
{ "type": "Feature", "properties": { "orden": 1860 }, "geometry": { "type": "Point", "coordinates": [ -64.116565253625666, -30.974683568536019 ] } },
{ "type": "Feature", "properties": { "orden": 1870 }, "geometry": { "type": "Point", "coordinates": [ -64.116441551975058, -30.974702304681234 ] } },
{ "type": "Feature", "properties": { "orden": 1880 }, "geometry": { "type": "Point", "coordinates": [ -64.116317850590079, -30.974721040958009 ] } },
{ "type": "Feature", "properties": { "orden": 1890 }, "geometry": { "type": "Point", "coordinates": [ -64.116194149152946, -30.974739777117545 ] } },
{ "type": "Feature", "properties": { "orden": 1900 }, "geometry": { "type": "Point", "coordinates": [ -64.116070447663859, -30.974758513159628 ] } },
{ "type": "Feature", "properties": { "orden": 1910 }, "geometry": { "type": "Point", "coordinates": [ -64.115946746122617, -30.974777249084426 ] } },
{ "type": "Feature", "properties": { "orden": 1920 }, "geometry": { "type": "Point", "coordinates": [ -64.115823044208753, -30.974795984389903 ] } },
{ "type": "Feature", "properties": { "orden": 1930 }, "geometry": { "type": "Point", "coordinates": [ -64.115699342596798, -30.974814720222064 ] } },
{ "type": "Feature", "properties": { "orden": 1940 }, "geometry": { "type": "Point", "coordinates": [ -64.115575640779724, -30.97483345475403 ] } },
{ "type": "Feature", "properties": { "orden": 1950 }, "geometry": { "type": "Point", "coordinates": [ -64.115451939060719, -30.974852190098783 ] } },
{ "type": "Feature", "properties": { "orden": 1960 }, "geometry": { "type": "Point", "coordinates": [ -64.115328236898407, -30.974870924738362 ] } },
{ "type": "Feature", "properties": { "orden": 1970 }, "geometry": { "type": "Point", "coordinates": [ -64.115407274900946, -30.975258367028527 ] } },
{ "type": "Feature", "properties": { "orden": 1980 }, "geometry": { "type": "Point", "coordinates": [ -64.115530977502488, -30.975239632106273 ] } },
{ "type": "Feature", "properties": { "orden": 1990 }, "geometry": { "type": "Point", "coordinates": [ -64.115654679774536, -30.975220897014054 ] } },
{ "type": "Feature", "properties": { "orden": 1990 }, "geometry": { "type": "Point", "coordinates": [ -64.115654679774536, -30.975220897014054 ] } },
{ "type": "Feature", "properties": { "orden": 2000 }, "geometry": { "type": "Point", "coordinates": [ -64.115778381991433, -30.975202161551483 ] } },
{ "type": "Feature", "properties": { "orden": 2010 }, "geometry": { "type": "Point", "coordinates": [ -64.115902084119242, -30.975183426028035 ] } },
{ "type": "Feature", "properties": { "orden": 2020 }, "geometry": { "type": "Point", "coordinates": [ -64.116025786232044, -30.97516469033096 ] } },
{ "type": "Feature", "properties": { "orden": 1720 }, "geometry": { "type": "Point", "coordinates": [ -64.117037993181114, -30.974482582440611 ] } },
{ "type": "Feature", "properties": { "orden": 1850 }, "geometry": { "type": "Point", "coordinates": [ -64.116785436801052, -30.974520836176488 ] } },
{ "type": "Feature", "properties": { "orden": 1840 }, "geometry": { "type": "Point", "coordinates": [ -64.116808341857705, -30.974633107277061 ] } },
{ "type": "Feature", "properties": { "orden": 1830 }, "geometry": { "type": "Point", "coordinates": [ -64.116831246450559, -30.974745378407547 ] } },
{ "type": "Feature", "properties": { "orden": 1820 }, "geometry": { "type": "Point", "coordinates": [ -64.116854151623201, -30.974857649493249 ] } },
{ "type": "Feature", "properties": { "orden": 1810 }, "geometry": { "type": "Point", "coordinates": [ -64.116877056809969, -30.974969920122536 ] } },
{ "type": "Feature", "properties": { "orden": 1800 }, "geometry": { "type": "Point", "coordinates": [ -64.11689996153298, -30.975082190781769 ] } },
{ "type": "Feature", "properties": { "orden": 1790 }, "geometry": { "type": "Point", "coordinates": [ -64.116921743068417, -30.975188954991275 ] } },
{ "type": "Feature", "properties": { "orden": 1780 }, "geometry": { "type": "Point", "coordinates": [ -64.117174300675728, -30.975150700811053 ] } },
{ "type": "Feature", "properties": { "orden": 1770 }, "geometry": { "type": "Point", "coordinates": [ -64.117152519095043, -30.975043936841121 ] } },
{ "type": "Feature", "properties": { "orden": 1770 }, "geometry": { "type": "Point", "coordinates": [ -64.117152519095043, -30.975043936841121 ] } },
{ "type": "Feature", "properties": { "orden": 1760 }, "geometry": { "type": "Point", "coordinates": [ -64.117129614248526, -30.974931665977422 ] } },
{ "type": "Feature", "properties": { "orden": 1750 }, "geometry": { "type": "Point", "coordinates": [ -64.117106708811008, -30.974819395154789 ] } },
{ "type": "Feature", "properties": { "orden": 1740 }, "geometry": { "type": "Point", "coordinates": [ -64.117083803479545, -30.974707124388967 ] } },
{ "type": "Feature", "properties": { "orden": 1730 }, "geometry": { "type": "Point", "coordinates": [ -64.117060898569363, -30.974594853554027 ] } },
{ "type": "Feature", "properties": { "orden": 2030 }, "geometry": { "type": "Point", "coordinates": [ -64.11614948857023, -30.97514595456893 ] } },
{ "type": "Feature", "properties": { "orden": 2040 }, "geometry": { "type": "Point", "coordinates": [ -64.116273190465265, -30.975127218101921 ] } },
{ "type": "Feature", "properties": { "orden": 2070 }, "geometry": { "type": "Point", "coordinates": [ -64.116644296422351, -30.97507100996372 ] } },
{ "type": "Feature", "properties": { "orden": 2060 }, "geometry": { "type": "Point", "coordinates": [ -64.116520594289383, -30.97508974594254 ] } },
{ "type": "Feature", "properties": { "orden": 2050 }, "geometry": { "type": "Point", "coordinates": [ -64.116396892498472, -30.975108482644277 ] } },
{ "type": "Feature", "properties": { "orden": 2330 }, "geometry": { "type": "Point", "coordinates": [ -64.118906529351051, -30.973323513909534 ] } },
{ "type": "Feature", "properties": { "orden": 2340 }, "geometry": { "type": "Point", "coordinates": [ -64.118430802886706, -30.973395578096376 ] } },
{ "type": "Feature", "properties": { "orden": 2320 }, "geometry": { "type": "Point", "coordinates": [ -64.118669894953754, -30.973786153240955 ] } },
{ "type": "Feature", "properties": { "orden": 2200 }, "geometry": { "type": "Point", "coordinates": [ -64.118442147625856, -30.974823587547746 ] } },
{ "type": "Feature", "properties": { "orden": 2220 }, "geometry": { "type": "Point", "coordinates": [ -64.118665403112558, -30.974790153519589 ] } },
{ "type": "Feature", "properties": { "orden": 2210 }, "geometry": { "type": "Point", "coordinates": [ -64.118550167961146, -30.974807410756394 ] } },
{ "type": "Feature", "properties": { "orden": 2170 }, "geometry": { "type": "Point", "coordinates": [ -64.118072717234568, -30.974816550109818 ] } },
{ "type": "Feature", "properties": { "orden": 2160 }, "geometry": { "type": "Point", "coordinates": [ -64.117946230665538, -30.974836593140701 ] } },
{ "type": "Feature", "properties": { "orden": 2120 }, "geometry": { "type": "Point", "coordinates": [ -64.117494056765281, -30.974741056414459 ] } },
{ "type": "Feature", "properties": { "orden": 2110 }, "geometry": { "type": "Point", "coordinates": [ -64.117534839252599, -30.974604313905555 ] } },
{ "type": "Feature", "properties": { "orden": 2100 }, "geometry": { "type": "Point", "coordinates": [ -64.117514853757129, -30.974515877040602 ] } },
{ "type": "Feature", "properties": { "orden": 2130 }, "geometry": { "type": "Point", "coordinates": [ -64.117629386376876, -30.974800581958487 ] } },
{ "type": "Feature", "properties": { "orden": 2140 }, "geometry": { "type": "Point", "coordinates": [ -64.117576346563723, -30.975029229893718 ] } },
{ "type": "Feature", "properties": { "orden": 2150 }, "geometry": { "type": "Point", "coordinates": [ -64.117797114797355, -30.974902321487821 ] } },
{ "type": "Feature", "properties": { "orden": 2230 }, "geometry": { "type": "Point", "coordinates": [ -64.118783992745279, -30.974772393128127 ] } },
{ "type": "Feature", "properties": { "orden": 2240 }, "geometry": { "type": "Point", "coordinates": [ -64.118907734704408, -30.974753862065082 ] } },
{ "type": "Feature", "properties": { "orden": 2270 }, "geometry": { "type": "Point", "coordinates": [ -64.119132264702372, -30.974595239583653 ] } },
{ "type": "Feature", "properties": { "orden": 2090 }, "geometry": { "type": "Point", "coordinates": [ -64.117734184547302, -30.974040830325475 ] } },
{ "type": "Feature", "properties": { "orden": 2250 }, "geometry": { "type": "Point", "coordinates": [ -64.119047514477941, -30.974787843792409 ] } },
{ "type": "Feature", "properties": { "orden": 2260 }, "geometry": { "type": "Point", "coordinates": [ -64.119234979627237, -30.974759768244549 ] } },
{ "type": "Feature", "properties": { "orden": 2280 }, "geometry": { "type": "Point", "coordinates": [ -64.118822142137589, -30.974532343876803 ] } },
{ "type": "Feature", "properties": { "orden": 2290 }, "geometry": { "type": "Point", "coordinates": [ -64.118800396049139, -30.974425757710289 ] } },
{ "type": "Feature", "properties": { "orden": 2300 }, "geometry": { "type": "Point", "coordinates": [ -64.118778647316987, -30.974319172017164 ] } },
{ "type": "Feature", "properties": { "orden": 2310 }, "geometry": { "type": "Point", "coordinates": [ -64.118752007737882, -30.974188604088486 ] } },
{ "type": "Feature", "properties": { "orden": 2190 }, "geometry": { "type": "Point", "coordinates": [ -64.118275876178146, -30.974757881241096 ] } },
{ "type": "Feature", "properties": { "orden": 2350 }, "geometry": { "type": "Point", "coordinates": [ -64.118067891819777, -30.973576039775068 ] } },
{ "type": "Feature", "properties": { "orden": 2360 }, "geometry": { "type": "Point", "coordinates": [ -64.117939398807607, -30.97359550342178 ] } },
{ "type": "Feature", "properties": { "orden": 2370 }, "geometry": { "type": "Point", "coordinates": [ -64.117815699110153, -30.973614240930406 ] } },
{ "type": "Feature", "properties": { "orden": 2080 }, "geometry": { "type": "Point", "coordinates": [ -64.117463989785421, -30.973666792672695 ] } },
{ "type": "Feature", "properties": { "orden": 2560 }, "geometry": { "type": "Point", "coordinates": [ -64.120486051265544, -30.973425492548834 ] } },
{ "type": "Feature", "properties": { "orden": 2530 }, "geometry": { "type": "Point", "coordinates": [ -64.121061589942414, -30.973051779390381 ] } },
{ "type": "Feature", "properties": { "orden": 2540 }, "geometry": { "type": "Point", "coordinates": [ -64.120898770516135, -30.973076321673446 ] } },
{ "type": "Feature", "properties": { "orden": 2550 }, "geometry": { "type": "Point", "coordinates": [ -64.120745490972425, -30.973097238282634 ] } },
{ "type": "Feature", "properties": { "orden": 2580 }, "geometry": { "type": "Point", "coordinates": [ -64.119807678374414, -30.973737193610425 ] } },
{ "type": "Feature", "properties": { "orden": 2570 }, "geometry": { "type": "Point", "coordinates": [ -64.11972488333187, -30.973323952606822 ] } },
{ "type": "Feature", "properties": { "orden": 2590 }, "geometry": { "type": "Point", "coordinates": [ -64.119878510271406, -30.974080668814349 ] } },
{ "type": "Feature", "properties": { "orden": 2600 }, "geometry": { "type": "Point", "coordinates": [ -64.119962785648383, -30.974493688633281 ] } },
{ "type": "Feature", "properties": { "orden": 2670 }, "geometry": { "type": "Point", "coordinates": [ -64.120116343217575, -30.975076677832245 ] } },
{ "type": "Feature", "properties": { "orden": 2680 }, "geometry": { "type": "Point", "coordinates": [ -64.119989346016894, -30.975095928912108 ] } },
{ "type": "Feature", "properties": { "orden": 2690 }, "geometry": { "type": "Point", "coordinates": [ -64.119718554646454, -30.975027112584073 ] } },
{ "type": "Feature", "properties": { "orden": 2700 }, "geometry": { "type": "Point", "coordinates": [ -64.119745740186005, -30.975160344608287 ] } },
{ "type": "Feature", "properties": { "orden": 2710 }, "geometry": { "type": "Point", "coordinates": [ -64.11976746496282, -30.975266916229611 ] } },
{ "type": "Feature", "properties": { "orden": 2780 }, "geometry": { "type": "Point", "coordinates": [ -64.119821047533478, -30.975506708146845 ] } },
{ "type": "Feature", "properties": { "orden": 2790 }, "geometry": { "type": "Point", "coordinates": [ -64.119842795602807, -30.975613294072744 ] } },
{ "type": "Feature", "properties": { "orden": 2800 }, "geometry": { "type": "Point", "coordinates": [ -64.119864544304946, -30.975719879770974 ] } },
{ "type": "Feature", "properties": { "orden": 2770 }, "geometry": { "type": "Point", "coordinates": [ -64.120090910016259, -30.975575736469214 ] } },
{ "type": "Feature", "properties": { "orden": 2760 }, "geometry": { "type": "Point", "coordinates": [ -64.120215285696162, -30.97555676188766 ] } },
{ "type": "Feature", "properties": { "orden": 2750 }, "geometry": { "type": "Point", "coordinates": [ -64.120338974053752, -30.97553795564863 ] } },
{ "type": "Feature", "properties": { "orden": 2740 }, "geometry": { "type": "Point", "coordinates": [ -64.12046265506936, -30.975519157695029 ] } },
{ "type": "Feature", "properties": { "orden": 2730 }, "geometry": { "type": "Point", "coordinates": [ -64.120572755194985, -30.975434073717892 ] } },
{ "type": "Feature", "properties": { "orden": 2950 }, "geometry": { "type": "Point", "coordinates": [ -64.120823691877561, -30.975573107769414 ] } },
{ "type": "Feature", "properties": { "orden": 2960 }, "geometry": { "type": "Point", "coordinates": [ -64.120801421059582, -30.975464220744314 ] } },
{ "type": "Feature", "properties": { "orden": 2970 }, "geometry": { "type": "Point", "coordinates": [ -64.120779259620704, -30.975355866320786 ] } },
{ "type": "Feature", "properties": { "orden": 2980 }, "geometry": { "type": "Point", "coordinates": [ -64.120755223625139, -30.975238286876841 ] } },
{ "type": "Feature", "properties": { "orden": 2610 }, "geometry": { "type": "Point", "coordinates": [ -64.120961324801954, -30.974949192415004 ] } },
{ "type": "Feature", "properties": { "orden": 2620 }, "geometry": { "type": "Point", "coordinates": [ -64.120837581544151, -30.974967692339966 ] } },
{ "type": "Feature", "properties": { "orden": 2630 }, "geometry": { "type": "Point", "coordinates": [ -64.120713855483956, -30.974986357130391 ] } },
{ "type": "Feature", "properties": { "orden": 2640 }, "geometry": { "type": "Point", "coordinates": [ -64.120590146690603, -30.975005058320541 ] } },
{ "type": "Feature", "properties": { "orden": 2650 }, "geometry": { "type": "Point", "coordinates": [ -64.120466438102028, -30.975023756568753 ] } },
{ "type": "Feature", "properties": { "orden": 2660 }, "geometry": { "type": "Point", "coordinates": [ -64.120273234459106, -30.974956804268952 ] } },
{ "type": "Feature", "properties": { "orden": 2720 }, "geometry": { "type": "Point", "coordinates": [ -64.120311173966783, -30.975143275575427 ] } },
{ "type": "Feature", "properties": { "orden": 2720 }, "geometry": { "type": "Point", "coordinates": [ -64.120311173966783, -30.975143275575427 ] } },
{ "type": "Feature", "properties": { "orden": 3640 }, "geometry": { "type": "Point", "coordinates": [ -64.11789252400834, -30.976630035068091 ] } },
{ "type": "Feature", "properties": { "orden": 3590 }, "geometry": { "type": "Point", "coordinates": [ -64.118665612233769, -30.976590763922701 ] } },
{ "type": "Feature", "properties": { "orden": 3630 }, "geometry": { "type": "Point", "coordinates": [ -64.117929221864443, -30.976809899281534 ] } },
{ "type": "Feature", "properties": { "orden": 3520 }, "geometry": { "type": "Point", "coordinates": [ -64.119468496166732, -30.976228778477179 ] } },
{ "type": "Feature", "properties": { "orden": 3510 }, "geometry": { "type": "Point", "coordinates": [ -64.119446747822764, -30.976122192760492 ] } },
{ "type": "Feature", "properties": { "orden": 3500 }, "geometry": { "type": "Point", "coordinates": [ -64.119424999480131, -30.976015606984159 ] } },
{ "type": "Feature", "properties": { "orden": 3680 }, "geometry": { "type": "Point", "coordinates": [ -64.118623422746339, -30.976149921855889 ] } },
{ "type": "Feature", "properties": { "orden": 3670 }, "geometry": { "type": "Point", "coordinates": [ -64.117816760534126, -30.976259219918095 ] } },
{ "type": "Feature", "properties": { "orden": 3660 }, "geometry": { "type": "Point", "coordinates": [ -64.11783850739711, -30.976365806192977 ] } },
{ "type": "Feature", "properties": { "orden": 3650 }, "geometry": { "type": "Point", "coordinates": [ -64.117860254312518, -30.976472392226519 ] } },
{ "type": "Feature", "properties": { "orden": 3530 }, "geometry": { "type": "Point", "coordinates": [ -64.119444562932173, -30.976345855647249 ] } },
{ "type": "Feature", "properties": { "orden": 3560 }, "geometry": { "type": "Point", "coordinates": [ -64.119347252122054, -30.976546019886236 ] } },
{ "type": "Feature", "properties": { "orden": 3550 }, "geometry": { "type": "Point", "coordinates": [ -64.119481264073713, -30.97652571926708 ] } },
{ "type": "Feature", "properties": { "orden": 3540 }, "geometry": { "type": "Point", "coordinates": [ -64.119615275442683, -30.976505418547465 ] } },
{ "type": "Feature", "properties": { "orden": 3620 }, "geometry": { "type": "Point", "coordinates": [ -64.118128945593654, -30.976672055412646 ] } },
{ "type": "Feature", "properties": { "orden": 3610 }, "geometry": { "type": "Point", "coordinates": [ -64.118262339990693, -30.976651849436415 ] } },
{ "type": "Feature", "properties": { "orden": 3600 }, "geometry": { "type": "Point", "coordinates": [ -64.118396970074755, -30.976631456336271 ] } },
{ "type": "Feature", "properties": { "orden": 3570 }, "geometry": { "type": "Point", "coordinates": [ -64.119165579268454, -30.976515028871038 ] } },
{ "type": "Feature", "properties": { "orden": 3580 }, "geometry": { "type": "Point", "coordinates": [ -64.11896456174567, -30.976545479221468 ] } },
{ "type": "Feature", "properties": { "orden": 680 }, "geometry": { "type": "Point", "coordinates": [ -64.117573097689387, -30.977161740695642 ] } },
{ "type": "Feature", "properties": { "orden": 690 }, "geometry": { "type": "Point", "coordinates": [ -64.117408864102885, -30.977255291929794 ] } },
{ "type": "Feature", "properties": { "orden": 700 }, "geometry": { "type": "Point", "coordinates": [ -64.117274821046294, -30.977314510666016 ] } },
{ "type": "Feature", "properties": { "orden": 710 }, "geometry": { "type": "Point", "coordinates": [ -64.117140807769587, -30.977334809258927 ] } },
{ "type": "Feature", "properties": { "orden": 720 }, "geometry": { "type": "Point", "coordinates": [ -64.117006794118268, -30.977355107485884 ] } },
{ "type": "Feature", "properties": { "orden": 695 }, "geometry": { "type": "Point", "coordinates": [ -64.116872780719348, -30.977375405803375 ] } },
{ "type": "Feature", "properties": { "orden": 740 }, "geometry": { "type": "Point", "coordinates": [ -64.116738767153976, -30.977395703490473 ] } },
{ "type": "Feature", "properties": { "orden": 750 }, "geometry": { "type": "Point", "coordinates": [ -64.116604753319393, -30.977416001304782 ] } },
{ "type": "Feature", "properties": { "orden": 760 }, "geometry": { "type": "Point", "coordinates": [ -64.116470739631794, -30.977436298716427 ] } },
{ "type": "Feature", "properties": { "orden": 770 }, "geometry": { "type": "Point", "coordinates": [ -64.116336726259334, -30.977456596512038 ] } },
{ "type": "Feature", "properties": { "orden": 780 }, "geometry": { "type": "Point", "coordinates": [ -64.116202712656971, -30.977476893132202 ] } },
{ "type": "Feature", "properties": { "orden": 790 }, "geometry": { "type": "Point", "coordinates": [ -64.116053265860572, -30.977460612246027 ] } },
{ "type": "Feature", "properties": { "orden": 800 }, "geometry": { "type": "Point", "coordinates": [ -64.115861849293964, -30.97742092844684 ] } },
{ "type": "Feature", "properties": { "orden": 810 }, "geometry": { "type": "Point", "coordinates": [ -64.115893560221267, -30.977576367327384 ] } },
{ "type": "Feature", "properties": { "orden": 820 }, "geometry": { "type": "Point", "coordinates": [ -64.11599729208703, -30.977707163047647 ] } },
{ "type": "Feature", "properties": { "orden": 570 }, "geometry": { "type": "Point", "coordinates": [ -64.115951546447846, -30.977860597978847 ] } },
{ "type": "Feature", "properties": { "orden": 580 }, "geometry": { "type": "Point", "coordinates": [ -64.115983258259575, -30.978016036565965 ] } },
{ "type": "Feature", "properties": { "orden": 590 }, "geometry": { "type": "Point", "coordinates": [ -64.116147494574719, -30.977922487090453 ] } },
{ "type": "Feature", "properties": { "orden": 600 }, "geometry": { "type": "Point", "coordinates": [ -64.1162815392033, -30.977863269492644 ] } },
{ "type": "Feature", "properties": { "orden": 610 }, "geometry": { "type": "Point", "coordinates": [ -64.116415553425753, -30.977842971770766 ] } },
{ "type": "Feature", "properties": { "orden": 620 }, "geometry": { "type": "Point", "coordinates": [ -64.116549567379067, -30.97782267417621 ] } },
{ "type": "Feature", "properties": { "orden": 630 }, "geometry": { "type": "Point", "coordinates": [ -64.116683581271246, -30.977802376443652 ] } },
{ "type": "Feature", "properties": { "orden": 640 }, "geometry": { "type": "Point", "coordinates": [ -64.117018616755459, -30.977751631375231 ] } },
{ "type": "Feature", "properties": { "orden": 650 }, "geometry": { "type": "Point", "coordinates": [ -64.117353651693534, -30.977700885831382 ] } },
{ "type": "Feature", "properties": { "orden": 660 }, "geometry": { "type": "Point", "coordinates": [ -64.117590782514029, -30.977626052188135 ] } },
{ "type": "Feature", "properties": { "orden": 670 }, "geometry": { "type": "Point", "coordinates": [ -64.117604811431946, -30.977317178606079 ] } },
{ "type": "Feature", "properties": { "orden": 450 }, "geometry": { "type": "Point", "coordinates": [ -64.117741820959864, -30.978026655249568 ] } },
{ "type": "Feature", "properties": { "orden": 460 }, "geometry": { "type": "Point", "coordinates": [ -64.117577586090903, -30.978120206717726 ] } },
{ "type": "Feature", "properties": { "orden": 460 }, "geometry": { "type": "Point", "coordinates": [ -64.117577586090903, -30.978120206717726 ] } },
{ "type": "Feature", "properties": { "orden": 470 }, "geometry": { "type": "Point", "coordinates": [ -64.117443541744265, -30.978179425912259 ] } },
{ "type": "Feature", "properties": { "orden": 480 }, "geometry": { "type": "Point", "coordinates": [ -64.117309526992628, -30.978199724478127 ] } },
{ "type": "Feature", "properties": { "orden": 490 }, "geometry": { "type": "Point", "coordinates": [ -64.117175512387973, -30.978220022641437 ] } },
{ "type": "Feature", "properties": { "orden": 510 }, "geometry": { "type": "Point", "coordinates": [ -64.116773468417961, -30.97828091728978 ] } },
{ "type": "Feature", "properties": { "orden": 520 }, "geometry": { "type": "Point", "coordinates": [ -64.116639453568922, -30.978301214901975 ] } },
{ "type": "Feature", "properties": { "orden": 530 }, "geometry": { "type": "Point", "coordinates": [ -64.116505439077429, -30.978321513096589 ] } },
{ "type": "Feature", "properties": { "orden": 540 }, "geometry": { "type": "Point", "coordinates": [ -64.116248633591297, -30.978357527501359 ] } },
{ "type": "Feature", "properties": { "orden": 550 }, "geometry": { "type": "Point", "coordinates": [ -64.116030557386765, -30.978285845753241 ] } },
{ "type": "Feature", "properties": { "orden": 550 }, "geometry": { "type": "Point", "coordinates": [ -64.116030557386765, -30.978285845753241 ] } },
{ "type": "Feature", "properties": { "orden": 560 }, "geometry": { "type": "Point", "coordinates": [ -64.116166002330118, -30.978572079916592 ] } },
{ "type": "Feature", "properties": { "orden": 280 }, "geometry": { "type": "Point", "coordinates": [ -64.116120256594343, -30.978725514881955 ] } },
{ "type": "Feature", "properties": { "orden": 290 }, "geometry": { "type": "Point", "coordinates": [ -64.116151969009778, -30.978880953393737 ] } },
{ "type": "Feature", "properties": { "orden": 300 }, "geometry": { "type": "Point", "coordinates": [ -64.116316206607507, -30.978787403684258 ] } },
{ "type": "Feature", "properties": { "orden": 310 }, "geometry": { "type": "Point", "coordinates": [ -64.11645025200454, -30.978728185664622 ] } },
{ "type": "Feature", "properties": { "orden": 320 }, "geometry": { "type": "Point", "coordinates": [ -64.116584267702024, -30.978707887969705 ] } },
{ "type": "Feature", "properties": { "orden": 330 }, "geometry": { "type": "Point", "coordinates": [ -64.11671828281689, -30.978687590174822 ] } },
{ "type": "Feature", "properties": { "orden": 340 }, "geometry": { "type": "Point", "coordinates": [ -64.116852297870579, -30.978667292241582 ] } },
{ "type": "Feature", "properties": { "orden": 350 }, "geometry": { "type": "Point", "coordinates": [ -64.116986313384714, -30.978646994133449 ] } },
{ "type": "Feature", "properties": { "orden": 360 }, "geometry": { "type": "Point", "coordinates": [ -64.117120328837728, -30.978626695887552 ] } },
{ "type": "Feature", "properties": { "orden": 370 }, "geometry": { "type": "Point", "coordinates": [ -64.117254343708083, -30.978606397541071 ] } },
{ "type": "Feature", "properties": { "orden": 380 }, "geometry": { "type": "Point", "coordinates": [ -64.117388358517374, -30.978586099057154 ] } },
{ "type": "Feature", "properties": { "orden": 390 }, "geometry": { "type": "Point", "coordinates": [ -64.117522373786983, -30.97856580039803 ] } },
{ "type": "Feature", "properties": { "orden": 400 }, "geometry": { "type": "Point", "coordinates": [ -64.117671822819716, -30.978582079761445 ] } },
{ "type": "Feature", "properties": { "orden": 410 }, "geometry": { "type": "Point", "coordinates": [ -64.117863242028818, -30.978621760795281 ] } },
{ "type": "Feature", "properties": { "orden": 420 }, "geometry": { "type": "Point", "coordinates": [ -64.117831527263576, -30.978466322794834 ] } },
{ "type": "Feature", "properties": { "orden": 430 }, "geometry": { "type": "Point", "coordinates": [ -64.11772779219784, -30.978335528761821 ] } },
{ "type": "Feature", "properties": { "orden": 440 }, "geometry": { "type": "Point", "coordinates": [ -64.117773535440662, -30.978182093286801 ] } },
{ "type": "Feature", "properties": { "orden": 500 }, "geometry": { "type": "Point", "coordinates": [ -64.116974490668028, -30.978250470346484 ] } },
{ "type": "Feature", "properties": { "orden": 3710 }, "geometry": { "type": "Point", "coordinates": [ -64.118627694380507, -30.977099866864975 ] } },
{ "type": "Feature", "properties": { "orden": 3720 }, "geometry": { "type": "Point", "coordinates": [ -64.118333521089525, -30.977132408878301 ] } },
{ "type": "Feature", "properties": { "orden": 3770 }, "geometry": { "type": "Point", "coordinates": [ -64.118280070732823, -30.977837926217301 ] } },
{ "type": "Feature", "properties": { "orden": 3780 }, "geometry": { "type": "Point", "coordinates": [ -64.118319941000053, -30.978033333945994 ] } },
{ "type": "Feature", "properties": { "orden": 3790 }, "geometry": { "type": "Point", "coordinates": [ -64.118359811442346, -30.978228741652661 ] } },
{ "type": "Feature", "properties": { "orden": 3800 }, "geometry": { "type": "Point", "coordinates": [ -64.118261360919945, -30.97852751127747 ] } },
{ "type": "Feature", "properties": { "orden": 3810 }, "geometry": { "type": "Point", "coordinates": [ -64.118547430734552, -30.97848417911057 ] } },
{ "type": "Feature", "properties": { "orden": 3820 }, "geometry": { "type": "Point", "coordinates": [ -64.118791432412749, -30.977926332330306 ] } },
{ "type": "Feature", "properties": { "orden": 3750 }, "geometry": { "type": "Point", "coordinates": [ -64.118234534095564, -30.977428295323048 ] } },
{ "type": "Feature", "properties": { "orden": 3685 }, "geometry": { "type": "Point", "coordinates": [ -64.118237934915555, -30.977631416065687 ] } },
{ "type": "Feature", "properties": { "orden": 3910 }, "geometry": { "type": "Point", "coordinates": [ -64.119424368016723, -30.977625674689708 ] } },
{ "type": "Feature", "properties": { "orden": 3840 }, "geometry": { "type": "Point", "coordinates": [ -64.11932059088646, -30.978367062923272 ] } },
{ "type": "Feature", "properties": { "orden": 3850 }, "geometry": { "type": "Point", "coordinates": [ -64.119475222748079, -30.97834363931015 ] } },
{ "type": "Feature", "properties": { "orden": 3860 }, "geometry": { "type": "Point", "coordinates": [ -64.119629854773535, -30.978320214815387 ] } },
{ "type": "Feature", "properties": { "orden": 3870 }, "geometry": { "type": "Point", "coordinates": [ -64.119784486472398, -30.978296790835444 ] } },
{ "type": "Feature", "properties": { "orden": 3880 }, "geometry": { "type": "Point", "coordinates": [ -64.119954581220966, -30.978271024052056 ] } },
{ "type": "Feature", "properties": { "orden": 3690 }, "geometry": { "type": "Point", "coordinates": [ -64.1190804511767, -30.977190178168136 ] } },
{ "type": "Feature", "properties": { "orden": 3700 }, "geometry": { "type": "Point", "coordinates": [ -64.118925821079131, -30.977213601865902 ] } },
{ "type": "Feature", "properties": { "orden": 3730 }, "geometry": { "type": "Point", "coordinates": [ -64.118089870906147, -30.977195699834191 ] } },
{ "type": "Feature", "properties": { "orden": 3740 }, "geometry": { "type": "Point", "coordinates": [ -64.117953489298273, -30.977313416792168 ] } },
{ "type": "Feature", "properties": { "orden": 3900 }, "geometry": { "type": "Point", "coordinates": [ -64.119478062231508, -30.977888807728618 ] } },
{ "type": "Feature", "properties": { "orden": 3890 }, "geometry": { "type": "Point", "coordinates": [ -64.119513852181697, -30.978064229121717 ] } },
{ "type": "Feature", "properties": { "orden": 3980 }, "geometry": { "type": "Point", "coordinates": [ -64.120750151868961, -30.976800679614612 ] } },
{ "type": "Feature", "properties": { "orden": 3960 }, "geometry": { "type": "Point", "coordinates": [ -64.121209763237275, -30.976982859585654 ] } },
{ "type": "Feature", "properties": { "orden": 3970 }, "geometry": { "type": "Point", "coordinates": [ -64.121029362600481, -30.977010189803298 ] } },
{ "type": "Feature", "properties": { "orden": 3990 }, "geometry": { "type": "Point", "coordinates": [ -64.120549134256976, -30.976831132096521 ] } },
{ "type": "Feature", "properties": { "orden": 4000 }, "geometry": { "type": "Point", "coordinates": [ -64.120425431170048, -30.976849872814121 ] } },
{ "type": "Feature", "properties": { "orden": 4010 }, "geometry": { "type": "Point", "coordinates": [ -64.120301727787407, -30.97686861203281 ] } },
{ "type": "Feature", "properties": { "orden": 4020 }, "geometry": { "type": "Point", "coordinates": [ -64.120178024242236, -30.976887351851818 ] } },
{ "type": "Feature", "properties": { "orden": 4030 }, "geometry": { "type": "Point", "coordinates": [ -64.1200233949383, -30.976910776647323 ] } },
{ "type": "Feature", "properties": { "orden": 4040 }, "geometry": { "type": "Point", "coordinates": [ -64.120166637452527, -30.977117994383839 ] } },
{ "type": "Feature", "properties": { "orden": 4050 }, "geometry": { "type": "Point", "coordinates": [ -64.120188387148801, -30.977224580054479 ] } },
{ "type": "Feature", "properties": { "orden": 4060 }, "geometry": { "type": "Point", "coordinates": [ -64.120210136072899, -30.97733116569303 ] } },
{ "type": "Feature", "properties": { "orden": 4070 }, "geometry": { "type": "Point", "coordinates": [ -64.12023188614998, -30.977437751425025 ] } },
{ "type": "Feature", "properties": { "orden": 4080 }, "geometry": { "type": "Point", "coordinates": [ -64.120651150020436, -30.977258510809548 ] } },
{ "type": "Feature", "properties": { "orden": 4090 }, "geometry": { "type": "Point", "coordinates": [ -64.120566748498447, -30.977620518854717 ] } },
{ "type": "Feature", "properties": { "orden": 3950 }, "geometry": { "type": "Point", "coordinates": [ -64.121343989236067, -30.976681871431502 ] } },
{ "type": "Feature", "properties": { "orden": 3930 }, "geometry": { "type": "Point", "coordinates": [ -64.121742261040367, -30.976621532811837 ] } },
{ "type": "Feature", "properties": { "orden": 3940 }, "geometry": { "type": "Point", "coordinates": [ -64.121542893635933, -30.976651737522054 ] } },
{ "type": "Feature", "properties": { "orden": 4100 }, "geometry": { "type": "Point", "coordinates": [ -64.120309253619936, -30.97808432017823 ] } },
{ "type": "Feature", "properties": { "orden": 4110 }, "geometry": { "type": "Point", "coordinates": [ -64.12035013993227, -30.978286244669967 ] } },
{ "type": "Feature", "properties": { "orden": 4120 }, "geometry": { "type": "Point", "coordinates": [ -64.12059018004048, -30.97819303436729 ] } },
{ "type": "Feature", "properties": { "orden": 4130 }, "geometry": { "type": "Point", "coordinates": [ -64.120902215306813, -30.97799581312125 ] } },
{ "type": "Feature", "properties": { "orden": 4130 }, "geometry": { "type": "Point", "coordinates": [ -64.120902215306813, -30.97799581312125 ] } },
{ "type": "Feature", "properties": { "orden": 4140 }, "geometry": { "type": "Point", "coordinates": [ -64.121325660569298, -30.978455520058692 ] } },
{ "type": "Feature", "properties": { "orden": 4160 }, "geometry": { "type": "Point", "coordinates": [ -64.12138275729842, -30.978735306709932 ] } },
{ "type": "Feature", "properties": { "orden": 4170 }, "geometry": { "type": "Point", "coordinates": [ -64.121409946320199, -30.978868538409419 ] } },
{ "type": "Feature", "properties": { "orden": 4180 }, "geometry": { "type": "Point", "coordinates": [ -64.121437135764097, -30.979001770153157 ] } },
{ "type": "Feature", "properties": { "orden": 4190 }, "geometry": { "type": "Point", "coordinates": [ -64.121464325014969, -30.979135001869132 ] } },
{ "type": "Feature", "properties": { "orden": 4200 }, "geometry": { "type": "Point", "coordinates": [ -64.121491514319942, -30.979268233356247 ] } },
{ "type": "Feature", "properties": { "orden": 4210 }, "geometry": { "type": "Point", "coordinates": [ -64.121518703499419, -30.979401465094799 ] } },
{ "type": "Feature", "properties": { "orden": 4210 }, "geometry": { "type": "Point", "coordinates": [ -64.121518703499419, -30.979401465094799 ] } },
{ "type": "Feature", "properties": { "orden": 4210 }, "geometry": { "type": "Point", "coordinates": [ -64.121518703499419, -30.979401465094799 ] } },
{ "type": "Feature", "properties": { "orden": 4220 }, "geometry": { "type": "Point", "coordinates": [ -64.121545893215853, -30.979534696748608 ] } },
{ "type": "Feature", "properties": { "orden": 4230 }, "geometry": { "type": "Point", "coordinates": [ -64.121573083013431, -30.979667928392463 ] } },
{ "type": "Feature", "properties": { "orden": 4240 }, "geometry": { "type": "Point", "coordinates": [ -64.121600272437988, -30.979801160100404 ] } },
{ "type": "Feature", "properties": { "orden": 4150 }, "geometry": { "type": "Point", "coordinates": [ -64.121355568525146, -30.978602074919984 ] } },
{ "type": "Feature", "properties": { "orden": 4440 }, "geometry": { "type": "Point", "coordinates": [ -64.120198189666084, -30.980058899617958 ] } },
{ "type": "Feature", "properties": { "orden": 4540 }, "geometry": { "type": "Point", "coordinates": [ -64.119327254864672, -30.978874281371958 ] } },
{ "type": "Feature", "properties": { "orden": 4560 }, "geometry": { "type": "Point", "coordinates": [ -64.118978637667638, -30.978926476757128 ] } },
{ "type": "Feature", "properties": { "orden": 4570 }, "geometry": { "type": "Point", "coordinates": [ -64.11880894807048, -30.978952483108177 ] } },
{ "type": "Feature", "properties": { "orden": 4580 }, "geometry": { "type": "Point", "coordinates": [ -64.118638463052449, -30.978978290779661 ] } },
{ "type": "Feature", "properties": { "orden": 4590 }, "geometry": { "type": "Point", "coordinates": [ -64.118475940074759, -30.979002795906965 ] } },
{ "type": "Feature", "properties": { "orden": 4600 }, "geometry": { "type": "Point", "coordinates": [ -64.118305903943053, -30.979028991241183 ] } },
{ "type": "Feature", "properties": { "orden": 4525 }, "geometry": { "type": "Point", "coordinates": [ -64.11849804947903, -30.979326873511475 ] } },
{ "type": "Feature", "properties": { "orden": 4610 }, "geometry": { "type": "Point", "coordinates": [ -64.11849804947903, -30.979326873511475 ] } },
{ "type": "Feature", "properties": { "orden": 4630 }, "geometry": { "type": "Point", "coordinates": [ -64.118538849840263, -30.979526533996701 ] } },
{ "type": "Feature", "properties": { "orden": 4550 }, "geometry": { "type": "Point", "coordinates": [ -64.11926453391898, -30.97977507031278 ] } },
{ "type": "Feature", "properties": { "orden": 4640 }, "geometry": { "type": "Point", "coordinates": [ -64.118566850813593, -30.979660130577347 ] } },
{ "type": "Feature", "properties": { "orden": 4650 }, "geometry": { "type": "Point", "coordinates": [ -64.118593755923754, -30.979793693635735 ] } },
{ "type": "Feature", "properties": { "orden": 4660 }, "geometry": { "type": "Point", "coordinates": [ -64.118620583251968, -30.979926763601537 ] } },
{ "type": "Feature", "properties": { "orden": 4670 }, "geometry": { "type": "Point", "coordinates": [ -64.118648216105186, -30.980061420524219 ] } },
{ "type": "Feature", "properties": { "orden": 4450 }, "geometry": { "type": "Point", "coordinates": [ -64.120119694039417, -30.979805303771254 ] } },
{ "type": "Feature", "properties": { "orden": 4470 }, "geometry": { "type": "Point", "coordinates": [ -64.120038057868214, -30.979405621245643 ] } },
{ "type": "Feature", "properties": { "orden": 4480 }, "geometry": { "type": "Point", "coordinates": [ -64.120010064415538, -30.979268680717542 ] } },
{ "type": "Feature", "properties": { "orden": 4510 }, "geometry": { "type": "Point", "coordinates": [ -64.1198969416739, -30.978679334890487 ] } },
{ "type": "Feature", "properties": { "orden": 4520 }, "geometry": { "type": "Point", "coordinates": [ -64.119630954584395, -30.978825140962094 ] } },
{ "type": "Feature", "properties": { "orden": 4530 }, "geometry": { "type": "Point", "coordinates": [ -64.119479644282023, -30.978846600824824 ] } },
{ "type": "Feature", "properties": { "orden": 4490 }, "geometry": { "type": "Point", "coordinates": [ -64.119990563601874, -30.979118242111262 ] } },
{ "type": "Feature", "properties": { "orden": 4500 }, "geometry": { "type": "Point", "coordinates": [ -64.119819829682001, -30.978988357271916 ] } },
{ "type": "Feature", "properties": { "orden": 4460 }, "geometry": { "type": "Point", "coordinates": [ -64.120079020271149, -30.979605489440985 ] } },
{ "type": "Feature", "properties": { "orden": 190 }, "geometry": { "type": "Point", "coordinates": [ -64.11792891842309, -30.978990555406035 ] } },
{ "type": "Feature", "properties": { "orden": 200 }, "geometry": { "type": "Point", "coordinates": [ -64.117751201511666, -30.979070124725464 ] } },
{ "type": "Feature", "properties": { "orden": 210 }, "geometry": { "type": "Point", "coordinates": [ -64.117643745029142, -30.979142463157103 ] } },
{ "type": "Feature", "properties": { "orden": 220 }, "geometry": { "type": "Point", "coordinates": [ -64.117468900133858, -30.979299450974711 ] } },
{ "type": "Feature", "properties": { "orden": 235 }, "geometry": { "type": "Point", "coordinates": [ -64.117281763026114, -30.979308293272389 ] } },
{ "type": "Feature", "properties": { "orden": 240 }, "geometry": { "type": "Point", "coordinates": [ -64.116682660099954, -30.979497512000371 ] } },
{ "type": "Feature", "properties": { "orden": 80 }, "geometry": { "type": "Point", "coordinates": [ -64.117858414007813, -30.980415940465676 ] } },
{ "type": "Feature", "properties": { "orden": 90 }, "geometry": { "type": "Point", "coordinates": [ -64.117961504219082, -30.980400325813093 ] } },
{ "type": "Feature", "properties": { "orden": 100 }, "geometry": { "type": "Point", "coordinates": [ -64.118124902420504, -30.9803755760698 ] } },
{ "type": "Feature", "properties": { "orden": 130 }, "geometry": { "type": "Point", "coordinates": [ -64.118063611574357, -30.980080400176046 ] } },
{ "type": "Feature", "properties": { "orden": 140 }, "geometry": { "type": "Point", "coordinates": [ -64.117775501215988, -30.980009581016073 ] } },
{ "type": "Feature", "properties": { "orden": 150 }, "geometry": { "type": "Point", "coordinates": [ -64.117743786210667, -30.979854142895849 ] } },
{ "type": "Feature", "properties": { "orden": 160 }, "geometry": { "type": "Point", "coordinates": [ -64.117933601730854, -30.979612499443785 ] } },
{ "type": "Feature", "properties": { "orden": 170 }, "geometry": { "type": "Point", "coordinates": [ -64.11790215881615, -30.979360772300172 ] } },
{ "type": "Feature", "properties": { "orden": 180 }, "geometry": { "type": "Point", "coordinates": [ -64.117960633165509, -30.979145993208899 ] } },
{ "type": "Feature", "properties": { "orden": 50 }, "geometry": { "type": "Point", "coordinates": [ -64.117420010318639, -30.980397643669111 ] } },
{ "type": "Feature", "properties": { "orden": 60 }, "geometry": { "type": "Point", "coordinates": [ -64.117529286297199, -30.980381092186995 ] } },
{ "type": "Feature", "properties": { "orden": 110 }, "geometry": { "type": "Point", "coordinates": [ -64.118287269806714, -30.980350982794601 ] } },
{ "type": "Feature", "properties": { "orden": 120 }, "geometry": { "type": "Point", "coordinates": [ -64.118080375400268, -30.980162560227569 ] } },
{ "type": "Feature", "properties": { "orden": 0 }, "geometry": { "type": "Point", "coordinates": [ -64.116483624274565, -30.980683684720827 ] } },
{ "type": "Feature", "properties": { "orden": 10 }, "geometry": { "type": "Point", "coordinates": [ -64.116586715323052, -30.980668071322981 ] } },
{ "type": "Feature", "properties": { "orden": 20 }, "geometry": { "type": "Point", "coordinates": [ -64.116689806385509, -30.980652458045345 ] } },
{ "type": "Feature", "properties": { "orden": 30 }, "geometry": { "type": "Point", "coordinates": [ -64.116792897326192, -30.980636844296377 ] } },
{ "type": "Feature", "properties": { "orden": 245 }, "geometry": { "type": "Point", "coordinates": [ -64.116590464522744, -30.980426033514533 ] } },
{ "type": "Feature", "properties": { "orden": 247 }, "geometry": { "type": "Point", "coordinates": [ -64.116590464522744, -30.980426033514533 ] } },
{ "type": "Feature", "properties": { "orden": 40 }, "geometry": { "type": "Point", "coordinates": [ -64.117093815206928, -30.980470924456494 ] } },
{ "type": "Feature", "properties": { "orden": 70 }, "geometry": { "type": "Point", "coordinates": [ -64.117701815945111, -30.980330403970058 ] } },
{ "type": "Feature", "properties": { "orden": 243 }, "geometry": { "type": "Point", "coordinates": [ -64.116803083409067, -30.980089415806226 ] } },
{ "type": "Feature", "properties": { "orden": 4680 }, "geometry": { "type": "Point", "coordinates": [ -64.114201295764801, -30.980995142749066 ] } },
{ "type": "Feature", "properties": { "orden": 4690 }, "geometry": { "type": "Point", "coordinates": [ -64.11418994258463, -30.980821269318465 ] } },
{ "type": "Feature", "properties": { "orden": 4700 }, "geometry": { "type": "Point", "coordinates": [ -64.114182756385006, -30.980712561296038 ] } },
{ "type": "Feature", "properties": { "orden": 4710 }, "geometry": { "type": "Point", "coordinates": [ -64.114175569900382, -30.980603865840486 ] } },
{ "type": "Feature", "properties": { "orden": 4720 }, "geometry": { "type": "Point", "coordinates": [ -64.114168112478509, -30.980490777229257 ] } },
{ "type": "Feature", "properties": { "orden": 4730 }, "geometry": { "type": "Point", "coordinates": [ -64.114160070179707, -30.980368686711945 ] } },
{ "type": "Feature", "properties": { "orden": 4740 }, "geometry": { "type": "Point", "coordinates": [ -64.114151152636438, -30.980233295722005 ] } },
{ "type": "Feature", "properties": { "orden": 4750 }, "geometry": { "type": "Point", "coordinates": [ -64.114100404152651, -30.980097469436998 ] } },
{ "type": "Feature", "properties": { "orden": 4760 }, "geometry": { "type": "Point", "coordinates": [ -64.114077542730158, -30.979963524830044 ] } },
{ "type": "Feature", "properties": { "orden": 4790 }, "geometry": { "type": "Point", "coordinates": [ -64.113410533714458, -30.97987643131902 ] } },
{ "type": "Feature", "properties": { "orden": 4780 }, "geometry": { "type": "Point", "coordinates": [ -64.113459893937971, -30.980102683733538 ] } },
{ "type": "Feature", "properties": { "orden": 4770 }, "geometry": { "type": "Point", "coordinates": [ -64.113771551304964, -30.980098336127977 ] } },
{ "type": "Feature", "properties": { "orden": 1560 }, "geometry": { "type": "Point", "coordinates": [ -64.115603600673737, -30.974304664662441 ] } },
{ "type": "Feature", "properties": { "orden": 3145 }, "geometry": { "type": "Point", "coordinates": [ -64.121236307717652, -30.975615964671722 ] } },
{ "type": "Feature", "properties": { "orden": 3200 }, "geometry": { "type": "Point", "coordinates": [ -64.121253526738244, -30.975700344822858 ] } },
{ "type": "Feature", "properties": { "orden": 3190 }, "geometry": { "type": "Point", "coordinates": [ -64.121270745738741, -30.975784724920125 ] } },
{ "type": "Feature", "properties": { "orden": 3180 }, "geometry": { "type": "Point", "coordinates": [ -64.121287965058968, -30.975869105019012 ] } },
{ "type": "Feature", "properties": { "orden": 3170 }, "geometry": { "type": "Point", "coordinates": [ -64.121305637454356, -30.975955705573696 ] } },
{ "type": "Feature", "properties": { "orden": 3160 }, "geometry": { "type": "Point", "coordinates": [ -64.121323762743714, -30.976044526682465 ] } },
{ "type": "Feature", "properties": { "orden": 3150 }, "geometry": { "type": "Point", "coordinates": [ -64.121341887782847, -30.976133347778802 ] } },
{ "type": "Feature", "properties": { "orden": 3140 }, "geometry": { "type": "Point", "coordinates": [ -64.121296292873538, -30.976300498394995 ] } },
{ "type": "Feature", "properties": { "orden": 3130 }, "geometry": { "type": "Point", "coordinates": [ -64.121399378328903, -30.976284881019577 ] } },
{ "type": "Feature", "properties": { "orden": 3120 }, "geometry": { "type": "Point", "coordinates": [ -64.121502463666587, -30.976269263195281 ] } },
{ "type": "Feature", "properties": { "orden": 3110 }, "geometry": { "type": "Point", "coordinates": [ -64.121605548738799, -30.976253645738424 ] } },
{ "type": "Feature", "properties": { "orden": 3100 }, "geometry": { "type": "Point", "coordinates": [ -64.121708633836462, -30.976238028155962 ] } },
{ "type": "Feature", "properties": { "orden": 3090 }, "geometry": { "type": "Point", "coordinates": [ -64.121599600195779, -30.976094304367972 ] } },
{ "type": "Feature", "properties": { "orden": 3080 }, "geometry": { "type": "Point", "coordinates": [ -64.121581475119186, -30.976005483053356 ] } },
{ "type": "Feature", "properties": { "orden": 3070 }, "geometry": { "type": "Point", "coordinates": [ -64.12156334965286, -30.975916661804007 ] } },
{ "type": "Feature", "properties": { "orden": 3060 }, "geometry": { "type": "Point", "coordinates": [ -64.121545677269083, -30.975830061244203 ] } },
{ "type": "Feature", "properties": { "orden": 3050 }, "geometry": { "type": "Point", "coordinates": [ -64.121528457731301, -30.975745681184481 ] } },
{ "type": "Feature", "properties": { "orden": 3040 }, "geometry": { "type": "Point", "coordinates": [ -64.121511238225906, -30.975661301120422 ] } },
{ "type": "Feature", "properties": { "orden": 3030 }, "geometry": { "type": "Point", "coordinates": [ -64.121494018802125, -30.97557692108585 ] } },
{ "type": "Feature", "properties": { "orden": 3020 }, "geometry": { "type": "Point", "coordinates": [ -64.121473713377497, -30.975471169924543 ] } },
{ "type": "Feature", "properties": { "orden": 3010 }, "geometry": { "type": "Point", "coordinates": [ -64.121485620504245, -30.975304545211134 ] } },
{ "type": "Feature", "properties": { "orden": 3000 }, "geometry": { "type": "Point", "coordinates": [ -64.121313624415961, -30.975330602511509 ] } },
{ "type": "Feature", "properties": { "orden": 2990 }, "geometry": { "type": "Point", "coordinates": [ -64.12113899947505, -30.975357058132129 ] } },
{ "type": "Feature", "properties": { "orden": 3220 }, "geometry": { "type": "Point", "coordinates": [ -64.121216002729625, -30.975510213237861 ] } },
{ "type": "Feature", "properties": { "orden": 2810 }, "geometry": { "type": "Point", "coordinates": [ -64.11983045924886, -30.975844492417757 ] } },
{ "type": "Feature", "properties": { "orden": 2820 }, "geometry": { "type": "Point", "coordinates": [ -64.119849226613212, -30.975936467199265 ] } },
{ "type": "Feature", "properties": { "orden": 2830 }, "geometry": { "type": "Point", "coordinates": [ -64.119868075987057, -30.97602884153444 ] } },
{ "type": "Feature", "properties": { "orden": 2840 }, "geometry": { "type": "Point", "coordinates": [ -64.120024553774726, -30.975910319290268 ] } },
{ "type": "Feature", "properties": { "orden": 2850 }, "geometry": { "type": "Point", "coordinates": [ -64.120119392258303, -30.975895951929719 ] } },
{ "type": "Feature", "properties": { "orden": 2860 }, "geometry": { "type": "Point", "coordinates": [ -64.120214230568706, -30.975881585318845 ] } },
{ "type": "Feature", "properties": { "orden": 2870 }, "geometry": { "type": "Point", "coordinates": [ -64.12030906867713, -30.975867217590071 ] } },
{ "type": "Feature", "properties": { "orden": 2880 }, "geometry": { "type": "Point", "coordinates": [ -64.120403906926356, -30.975852850841203 ] } },
{ "type": "Feature", "properties": { "orden": 2890 }, "geometry": { "type": "Point", "coordinates": [ -64.120498744973489, -30.975838482974467 ] } },
{ "type": "Feature", "properties": { "orden": 2900 }, "geometry": { "type": "Point", "coordinates": [ -64.120593583160556, -30.975824115836261 ] } },
{ "type": "Feature", "properties": { "orden": 2910 }, "geometry": { "type": "Point", "coordinates": [ -64.120688421418265, -30.975809747864037 ] } },
{ "type": "Feature", "properties": { "orden": 2920 }, "geometry": { "type": "Point", "coordinates": [ -64.120783259479907, -30.975795380288194 ] } },
{ "type": "Feature", "properties": { "orden": 2930 }, "geometry": { "type": "Point", "coordinates": [ -64.120878097469671, -30.975781012696675 ] } },
{ "type": "Feature", "properties": { "orden": 2940 }, "geometry": { "type": "Point", "coordinates": [ -64.12097293567777, -30.975766644715254 ] } },
{ "type": "Feature", "properties": { "orden": 3340 }, "geometry": { "type": "Point", "coordinates": [ -64.119899319774859, -30.976203658527957 ] } },
{ "type": "Feature", "properties": { "orden": 3350 }, "geometry": { "type": "Point", "coordinates": [ -64.119917444293009, -30.976292479770315 ] } },
{ "type": "Feature", "properties": { "orden": 3360 }, "geometry": { "type": "Point", "coordinates": [ -64.119935568611538, -30.976381301053561 ] } },
{ "type": "Feature", "properties": { "orden": 3370 }, "geometry": { "type": "Point", "coordinates": [ -64.119953692444952, -30.976470122369161 ] } },
{ "type": "Feature", "properties": { "orden": 3380 }, "geometry": { "type": "Point", "coordinates": [ -64.11997181631429, -30.976558943680477 ] } },
{ "type": "Feature", "properties": { "orden": 3390 }, "geometry": { "type": "Point", "coordinates": [ -64.120133469357825, -30.976465780027294 ] } },
{ "type": "Feature", "properties": { "orden": 3400 }, "geometry": { "type": "Point", "coordinates": [ -64.120228308025602, -30.976451412492786 ] } },
{ "type": "Feature", "properties": { "orden": 3410 }, "geometry": { "type": "Point", "coordinates": [ -64.12032314688723, -30.97643704589019 ] } },
{ "type": "Feature", "properties": { "orden": 3420 }, "geometry": { "type": "Point", "coordinates": [ -64.120417985549238, -30.976422678171414 ] } },
{ "type": "Feature", "properties": { "orden": 3430 }, "geometry": { "type": "Point", "coordinates": [ -64.120512824300306, -30.976408311229257 ] } },
{ "type": "Feature", "properties": { "orden": 3440 }, "geometry": { "type": "Point", "coordinates": [ -64.120607662950405, -30.976393943574109 ] } },
{ "type": "Feature", "properties": { "orden": 3450 }, "geometry": { "type": "Point", "coordinates": [ -64.120702501640267, -30.976379576494004 ] } },
{ "type": "Feature", "properties": { "orden": 3460 }, "geometry": { "type": "Point", "coordinates": [ -64.120797340435004, -30.976365208478978 ] } },
{ "type": "Feature", "properties": { "orden": 3470 }, "geometry": { "type": "Point", "coordinates": [ -64.120892179031557, -30.976350840814934 ] } },
{ "type": "Feature", "properties": { "orden": 3480 }, "geometry": { "type": "Point", "coordinates": [ -64.120987017541907, -30.976336473128249 ] } },
{ "type": "Feature", "properties": { "orden": 3490 }, "geometry": { "type": "Point", "coordinates": [ -64.121081856294253, -30.976322105107798 ] } },
{ "type": "Feature", "properties": { "orden": 3230 }, "geometry": { "type": "Point", "coordinates": [ -64.121036543472144, -30.976100052316372 ] } },
{ "type": "Feature", "properties": { "orden": 3240 }, "geometry": { "type": "Point", "coordinates": [ -64.120941704675317, -30.976114420319185 ] } },
{ "type": "Feature", "properties": { "orden": 3250 }, "geometry": { "type": "Point", "coordinates": [ -64.120846866369362, -30.97612878821559 ] } },
{ "type": "Feature", "properties": { "orden": 3260 }, "geometry": { "type": "Point", "coordinates": [ -64.120752028032911, -30.976143156043168 ] } },
{ "type": "Feature", "properties": { "orden": 3270 }, "geometry": { "type": "Point", "coordinates": [ -64.120657189665707, -30.976157523801934 ] } },
{ "type": "Feature", "properties": { "orden": 3280 }, "geometry": { "type": "Point", "coordinates": [ -64.120562351268063, -30.976171891491614 ] } },
{ "type": "Feature", "properties": { "orden": 3290 }, "geometry": { "type": "Point", "coordinates": [ -64.12046751284575, -30.976186258864487 ] } },
{ "type": "Feature", "properties": { "orden": 3300 }, "geometry": { "type": "Point", "coordinates": [ -64.120372674337517, -30.97620062621462 ] } },
{ "type": "Feature", "properties": { "orden": 3310 }, "geometry": { "type": "Point", "coordinates": [ -64.120277835804671, -30.976214993247972 ] } },
{ "type": "Feature", "properties": { "orden": 3320 }, "geometry": { "type": "Point", "coordinates": [ -64.120182997198171, -30.976229359762762 ] } },
{ "type": "Feature", "properties": { "orden": 3330 }, "geometry": { "type": "Point", "coordinates": [ -64.120088158299566, -30.976243726476937 ] } },
{ "type": "Feature", "properties": { "orden": 1710 }, "geometry": { "type": "Point", "coordinates": [ -64.116714156433957, -30.973757922329195 ] } },
{ "type": "Feature", "properties": { "orden": 1700 }, "geometry": { "type": "Point", "coordinates": [ -64.116904861199203, -30.973729037473106 ] } },
{ "type": "Feature", "properties": { "orden": 1480 }, "geometry": { "type": "Point", "coordinates": [ -64.116380874391751, -30.973817193048173 ] } },
{ "type": "Feature", "properties": { "orden": 1480 }, "geometry": { "type": "Point", "coordinates": [ -64.116380874391751, -30.973817193048173 ] } },
{ "type": "Feature", "properties": { "orden": 1490 }, "geometry": { "type": "Point", "coordinates": [ -64.116241711824742, -30.973838271830608 ] } },
{ "type": "Feature", "properties": { "orden": 1500 }, "geometry": { "type": "Point", "coordinates": [ -64.115727331249474, -30.973916179589903 ] } },
{ "type": "Feature", "properties": { "orden": 1510 }, "geometry": { "type": "Point", "coordinates": [ -64.115284277638636, -30.973833296665646 ] } },
{ "type": "Feature", "properties": { "orden": 1510 }, "geometry": { "type": "Point", "coordinates": [ -64.115284277638636, -30.973833296665646 ] } },
{ "type": "Feature", "properties": { "orden": 1520 }, "geometry": { "type": "Point", "coordinates": [ -64.115343637567264, -30.97412427829974 ] } },
{ "type": "Feature", "properties": { "orden": 1630 }, "geometry": { "type": "Point", "coordinates": [ -64.116469507127846, -30.974173514508351 ] } },
{ "type": "Feature", "properties": { "orden": 1620 }, "geometry": { "type": "Point", "coordinates": [ -64.116345806699542, -30.974192250865116 ] } },
{ "type": "Feature", "properties": { "orden": 1610 }, "geometry": { "type": "Point", "coordinates": [ -64.116222105852856, -30.974210986330323 ] } },
{ "type": "Feature", "properties": { "orden": 1610 }, "geometry": { "type": "Point", "coordinates": [ -64.116222105852856, -30.974210986330323 ] } },
{ "type": "Feature", "properties": { "orden": 1610 }, "geometry": { "type": "Point", "coordinates": [ -64.116222105852856, -30.974210986330323 ] } },
{ "type": "Feature", "properties": { "orden": 1600 }, "geometry": { "type": "Point", "coordinates": [ -64.116098405091194, -30.974229722574766 ] } },
{ "type": "Feature", "properties": { "orden": 1590 }, "geometry": { "type": "Point", "coordinates": [ -64.115974703926668, -30.974248458309059 ] } },
{ "type": "Feature", "properties": { "orden": 1580 }, "geometry": { "type": "Point", "coordinates": [ -64.115851002712702, -30.974267193676763 ] } },
{ "type": "Feature", "properties": { "orden": 1570 }, "geometry": { "type": "Point", "coordinates": [ -64.115727301802011, -30.974285929619843 ] } },
{ "type": "Feature", "properties": { "orden": 1550 }, "geometry": { "type": "Point", "coordinates": [ -64.115479899679428, -30.974323400471206 ] } },
{ "type": "Feature", "properties": { "orden": 1540 }, "geometry": { "type": "Point", "coordinates": [ -64.115356198470309, -30.974342135130179 ] } },
{ "type": "Feature", "properties": { "orden": 1530 }, "geometry": { "type": "Point", "coordinates": [ -64.115232497351371, -30.974360870603814 ] } },
{ "type": "Feature", "properties": { "orden": 1690 }, "geometry": { "type": "Point", "coordinates": [ -64.116924203153758, -30.973980113236575 ] } },
{ "type": "Feature", "properties": { "orden": 1640 }, "geometry": { "type": "Point", "coordinates": [ -64.116671647624017, -30.974018366767901 ] } },
{ "type": "Feature", "properties": { "orden": 1650 }, "geometry": { "type": "Point", "coordinates": [ -64.116694552461851, -30.97413063803873 ] } },
{ "type": "Feature", "properties": { "orden": 1660 }, "geometry": { "type": "Point", "coordinates": [ -64.116717456978364, -30.974242908695739 ] } },
{ "type": "Feature", "properties": { "orden": 1670 }, "geometry": { "type": "Point", "coordinates": [ -64.116970013107021, -30.9742046548659 ] } },
{ "type": "Feature", "properties": { "orden": 1680 }, "geometry": { "type": "Point", "coordinates": [ -64.116947108056706, -30.974092383993867 ] } },
{ "type": "Feature", "properties": { "orden": 1320 }, "geometry": { "type": "Point", "coordinates": [ -64.116789633219355, -30.973013537573884 ] } },
{ "type": "Feature", "properties": { "orden": 1310 }, "geometry": { "type": "Point", "coordinates": [ -64.116652776860718, -30.973032564884466 ] } },
{ "type": "Feature", "properties": { "orden": 1300 }, "geometry": { "type": "Point", "coordinates": [ -64.11652785443944, -30.9730499326744 ] } },
{ "type": "Feature", "properties": { "orden": 1290 }, "geometry": { "type": "Point", "coordinates": [ -64.11640293196912, -30.973067300344578 ] } },
{ "type": "Feature", "properties": { "orden": 1290 }, "geometry": { "type": "Point", "coordinates": [ -64.11640293196912, -30.973067300344578 ] } },
{ "type": "Feature", "properties": { "orden": 1280 }, "geometry": { "type": "Point", "coordinates": [ -64.116278009449744, -30.973084667894952 ] } },
{ "type": "Feature", "properties": { "orden": 1270 }, "geometry": { "type": "Point", "coordinates": [ -64.116153087403433, -30.973102035294946 ] } },
{ "type": "Feature", "properties": { "orden": 1260 }, "geometry": { "type": "Point", "coordinates": [ -64.116028165308009, -30.973119402575247 ] } },
{ "type": "Feature", "properties": { "orden": 1250 }, "geometry": { "type": "Point", "coordinates": [ -64.115903242641409, -30.97313676976632 ] } },
{ "type": "Feature", "properties": { "orden": 1240 }, "geometry": { "type": "Point", "coordinates": [ -64.115778319925781, -30.973154136837639 ] } },
{ "type": "Feature", "properties": { "orden": 1230 }, "geometry": { "type": "Point", "coordinates": [ -64.11565339716104, -30.97317150378948 ] } },
{ "type": "Feature", "properties": { "orden": 1220 }, "geometry": { "type": "Point", "coordinates": [ -64.11552847486945, -30.973188870590636 ] } },
{ "type": "Feature", "properties": { "orden": 1210 }, "geometry": { "type": "Point", "coordinates": [ -64.11540355252869, -30.973206237271757 ] } },
{ "type": "Feature", "properties": { "orden": 1200 }, "geometry": { "type": "Point", "coordinates": [ -64.115278629616839, -30.973223603863996 ] } },
{ "type": "Feature", "properties": { "orden": 1190 }, "geometry": { "type": "Point", "coordinates": [ -64.11515355151829, -30.973240991712224 ] } },
{ "type": "Feature", "properties": { "orden": 1180 }, "geometry": { "type": "Point", "coordinates": [ -64.115016539261475, -30.973260038474621 ] } },
{ "type": "Feature", "properties": { "orden": 1470 }, "geometry": { "type": "Point", "coordinates": [ -64.11506655067106, -30.973527136215157 ] } },
{ "type": "Feature", "properties": { "orden": 1460 }, "geometry": { "type": "Point", "coordinates": [ -64.115203563239575, -30.973508089186474 ] } },
{ "type": "Feature", "properties": { "orden": 1450 }, "geometry": { "type": "Point", "coordinates": [ -64.115328641674338, -30.973490701282323 ] } },
{ "type": "Feature", "properties": { "orden": 1440 }, "geometry": { "type": "Point", "coordinates": [ -64.115453564921921, -30.973473334634289 ] } },
{ "type": "Feature", "properties": { "orden": 1430 }, "geometry": { "type": "Point", "coordinates": [ -64.115578487598412, -30.973455967897298 ] } },
{ "type": "Feature", "properties": { "orden": 1420 }, "geometry": { "type": "Point", "coordinates": [ -64.115703410225819, -30.973438601040289 ] } },
{ "type": "Feature", "properties": { "orden": 1410 }, "geometry": { "type": "Point", "coordinates": [ -64.115828333326178, -30.97342123403266 ] } },
{ "type": "Feature", "properties": { "orden": 1400 }, "geometry": { "type": "Point", "coordinates": [ -64.115953256377551, -30.973403866905542 ] } },
{ "type": "Feature", "properties": { "orden": 1390 }, "geometry": { "type": "Point", "coordinates": [ -64.116078179379855, -30.973386499658581 ] } },
{ "type": "Feature", "properties": { "orden": 1380 }, "geometry": { "type": "Point", "coordinates": [ -64.116203101810996, -30.973369132322805 ] } },
{ "type": "Feature", "properties": { "orden": 1370 }, "geometry": { "type": "Point", "coordinates": [ -64.116328024193066, -30.973351764867214 ] } },
{ "type": "Feature", "properties": { "orden": 1360 }, "geometry": { "type": "Point", "coordinates": [ -64.116452947048145, -30.973334397260736 ] } },
{ "type": "Feature", "properties": { "orden": 1350 }, "geometry": { "type": "Point", "coordinates": [ -64.116577869854211, -30.973317029534485 ] } },
{ "type": "Feature", "properties": { "orden": 1340 }, "geometry": { "type": "Point", "coordinates": [ -64.116702792611164, -30.973299661688674 ] } },
{ "type": "Feature", "properties": { "orden": 1330 }, "geometry": { "type": "Point", "coordinates": [ -64.116839649394109, -30.97328063452202 ] } },
{ "type": "Feature", "properties": { "orden": 940 }, "geometry": { "type": "Point", "coordinates": [ -64.114396918262884, -30.973785104992203 ] } },
{ "type": "Feature", "properties": { "orden": 930 }, "geometry": { "type": "Point", "coordinates": [ -64.114468462718094, -30.974430433920816 ] } },
{ "type": "Feature", "properties": { "orden": 785 }, "geometry": { "type": "Point", "coordinates": [ -64.114376349023118, -30.9751630962622 ] } },
{ "type": "Feature", "properties": { "orden": 840 }, "geometry": { "type": "Point", "coordinates": [ -64.115065272118287, -30.975580340284154 ] } },
{ "type": "Feature", "properties": { "orden": 850 }, "geometry": { "type": "Point", "coordinates": [ -64.115045205567327, -30.975468350685293 ] } },
{ "type": "Feature", "properties": { "orden": 860 }, "geometry": { "type": "Point", "coordinates": [ -64.115025430758166, -30.975356003664434 ] } },
{ "type": "Feature", "properties": { "orden": 870 }, "geometry": { "type": "Point", "coordinates": [ -64.11500565697915, -30.975243656500073 ] } },
{ "type": "Feature", "properties": { "orden": 890 }, "geometry": { "type": "Point", "coordinates": [ -64.114966108881006, -30.975018962300535 ] } },
{ "type": "Feature", "properties": { "orden": 900 }, "geometry": { "type": "Point", "coordinates": [ -64.11492656174137, -30.974794268013373 ] } },
{ "type": "Feature", "properties": { "orden": 910 }, "geometry": { "type": "Point", "coordinates": [ -64.114906787703248, -30.974681920883913 ] } },
{ "type": "Feature", "properties": { "orden": 920 }, "geometry": { "type": "Point", "coordinates": [ -64.114887014543314, -30.974569573511822 ] } },
{ "type": "Feature", "properties": { "orden": 1020 }, "geometry": { "type": "Point", "coordinates": [ -64.11450457479792, -30.972066924512792 ] } },
{ "type": "Feature", "properties": { "orden": 1010 }, "geometry": { "type": "Point", "coordinates": [ -64.11444112134707, -30.972338113224875 ] } },
{ "type": "Feature", "properties": { "orden": 1000 }, "geometry": { "type": "Point", "coordinates": [ -64.114397398824721, -30.972532741188072 ] } },
{ "type": "Feature", "properties": { "orden": 990 }, "geometry": { "type": "Point", "coordinates": [ -64.114387696031983, -30.972714468365492 ] } },
{ "type": "Feature", "properties": { "orden": 990 }, "geometry": { "type": "Point", "coordinates": [ -64.114387696031983, -30.972714468365492 ] } },
{ "type": "Feature", "properties": { "orden": 980 }, "geometry": { "type": "Point", "coordinates": [ -64.114389278172439, -30.972896593016383 ] } },
{ "type": "Feature", "properties": { "orden": 970 }, "geometry": { "type": "Point", "coordinates": [ -64.11439106308309, -30.973102108759672 ] } },
{ "type": "Feature", "properties": { "orden": 960 }, "geometry": { "type": "Point", "coordinates": [ -64.114393040851624, -30.973329749303641 ] } },
{ "type": "Feature", "properties": { "orden": 950 }, "geometry": { "type": "Point", "coordinates": [ -64.114395018837982, -30.973557411015399 ] } },
{ "type": "Feature", "properties": { "orden": 950 }, "geometry": { "type": "Point", "coordinates": [ -64.114395018837982, -30.973557411015399 ] } },
{ "type": "Feature", "properties": { "orden": 4350 }, "geometry": { "type": "Point", "coordinates": [ -64.12078621615639, -30.978540305053269 ] } },
{ "type": "Feature", "properties": { "orden": 4360 }, "geometry": { "type": "Point", "coordinates": [ -64.120430562538672, -30.978594183339617 ] } },
{ "type": "Feature", "properties": { "orden": 4370 }, "geometry": { "type": "Point", "coordinates": [ -64.12043727611659, -30.97877030249375 ] } },
{ "type": "Feature", "properties": { "orden": 4380 }, "geometry": { "type": "Point", "coordinates": [ -64.120474776803249, -30.978954073709101 ] } },
{ "type": "Feature", "properties": { "orden": 4390 }, "geometry": { "type": "Point", "coordinates": [ -64.120512277970633, -30.979137845039396 ] } },
{ "type": "Feature", "properties": { "orden": 4400 }, "geometry": { "type": "Point", "coordinates": [ -64.120549779629258, -30.979321616032959 ] } },
{ "type": "Feature", "properties": { "orden": 4410 }, "geometry": { "type": "Point", "coordinates": [ -64.120587280825134, -30.979505387268112 ] } },
{ "type": "Feature", "properties": { "orden": 4420 }, "geometry": { "type": "Point", "coordinates": [ -64.120624782694847, -30.979689158493692 ] } },
{ "type": "Feature", "properties": { "orden": 4420 }, "geometry": { "type": "Point", "coordinates": [ -64.120624782694847, -30.979689158493692 ] } },
{ "type": "Feature", "properties": { "orden": 4430 }, "geometry": { "type": "Point", "coordinates": [ -64.12066137819167, -30.97986848856716 ] } },
{ "type": "Feature", "properties": { "orden": 4250 }, "geometry": { "type": "Point", "coordinates": [ -64.121032470601833, -30.979890240869182 ] } },
{ "type": "Feature", "properties": { "orden": 4260 }, "geometry": { "type": "Point", "coordinates": [ -64.121005281190989, -30.979757009093287 ] } },
{ "type": "Feature", "properties": { "orden": 4270 }, "geometry": { "type": "Point", "coordinates": [ -64.12097809243626, -30.979623777318867 ] } },
{ "type": "Feature", "properties": { "orden": 4280 }, "geometry": { "type": "Point", "coordinates": [ -64.120950903930961, -30.979490545454684 ] } },
{ "type": "Feature", "properties": { "orden": 4290 }, "geometry": { "type": "Point", "coordinates": [ -64.120923715301004, -30.979357313842062 ] } },
{ "type": "Feature", "properties": { "orden": 4300 }, "geometry": { "type": "Point", "coordinates": [ -64.120896526958745, -30.97922408195706 ] } },
{ "type": "Feature", "properties": { "orden": 4310 }, "geometry": { "type": "Point", "coordinates": [ -64.120869338241747, -30.979090850135851 ] } },
{ "type": "Feature", "properties": { "orden": 4320 }, "geometry": { "type": "Point", "coordinates": [ -64.120842149894372, -30.978957618310421 ] } },
{ "type": "Feature", "properties": { "orden": 4330 }, "geometry": { "type": "Point", "coordinates": [ -64.120814962030281, -30.978824386351899 ] } },
{ "type": "Feature", "properties": { "orden": 4340 }, "geometry": { "type": "Point", "coordinates": [ -64.12078777376702, -30.978691154649951 ] } }
]
}
