{
"type": "FeatureCollection",
"name": "SANTAELENA",
"crs": { "type": "name", "properties": { "name": "urn:ogc:def:crs:OGC:1.3:CRS84" } },
"features": [
{ "type": "Feature", "properties": { "orden": 1860 }, "geometry": { "type": "Point", "coordinates": [ -64.073376638980605, -30.97378271314118 ] } },
{ "type": "Feature", "properties": { "orden": 2240 }, "geometry": { "type": "Point", "coordinates": [ -64.072285335551058, -30.973503640019292 ] } },
{ "type": "Feature", "properties": { "orden": 2230 }, "geometry": { "type": "Point", "coordinates": [ -64.072182156034316, -30.973514767346771 ] } },
{ "type": "Feature", "properties": { "orden": 2220 }, "geometry": { "type": "Point", "coordinates": [ -64.072093360362089, -30.973524343379964 ] } },
{ "type": "Feature", "properties": { "orden": 2210 }, "geometry": { "type": "Point", "coordinates": [ -64.072004564982308, -30.973533919324044 ] } },
{ "type": "Feature", "properties": { "orden": 2050 }, "geometry": { "type": "Point", "coordinates": [ -64.073481779164737, -30.974530681113556 ] } },
{ "type": "Feature", "properties": { "orden": 610 }, "geometry": { "type": "Point", "coordinates": [ -64.076538430719381, -30.972213856838529 ] } },
{ "type": "Feature", "properties": { "orden": 600 }, "geometry": { "type": "Point", "coordinates": [ -64.07641056231455, -30.972228084364129 ] } },
{ "type": "Feature", "properties": { "orden": 590 }, "geometry": { "type": "Point", "coordinates": [ -64.076282864926455, -30.972242185373286 ] } },
{ "type": "Feature", "properties": { "orden": 580 }, "geometry": { "type": "Point", "coordinates": [ -64.076155167474639, -30.972256286259462 ] } },
{ "type": "Feature", "properties": { "orden": 570 }, "geometry": { "type": "Point", "coordinates": [ -64.076029032274363, -30.97227021474869 ] } },
{ "type": "Feature", "properties": { "orden": 560 }, "geometry": { "type": "Point", "coordinates": [ -64.075904449091396, -30.972283971858669 ] } },
{ "type": "Feature", "properties": { "orden": 550 }, "geometry": { "type": "Point", "coordinates": [ -64.075779865850507, -30.972297728851341 ] } },
{ "type": "Feature", "properties": { "orden": 540 }, "geometry": { "type": "Point", "coordinates": [ -64.075655282552049, -30.972311485726394 ] } },
{ "type": "Feature", "properties": { "orden": 530 }, "geometry": { "type": "Point", "coordinates": [ -64.075530699428981, -30.972325242311555 ] } },
{ "type": "Feature", "properties": { "orden": 520 }, "geometry": { "type": "Point", "coordinates": [ -64.075406116551108, -30.972338999053417 ] } },
{ "type": "Feature", "properties": { "orden": 510 }, "geometry": { "type": "Point", "coordinates": [ -64.075068104512425, -30.97237632142031 ] } },
{ "type": "Feature", "properties": { "orden": 500 }, "geometry": { "type": "Point", "coordinates": [ -64.0749539027927, -30.972388931028405 ] } },
{ "type": "Feature", "properties": { "orden": 490 }, "geometry": { "type": "Point", "coordinates": [ -64.074839701342086, -30.972401540465352 ] } },
{ "type": "Feature", "properties": { "orden": 480 }, "geometry": { "type": "Point", "coordinates": [ -64.074725499490626, -30.972414149668115 ] } },
{ "type": "Feature", "properties": { "orden": 470 }, "geometry": { "type": "Point", "coordinates": [ -64.074611297724985, -30.972426759106813 ] } },
{ "type": "Feature", "properties": { "orden": 460 }, "geometry": { "type": "Point", "coordinates": [ -64.074497095854611, -30.972439368491361 ] } },
{ "type": "Feature", "properties": { "orden": 450 }, "geometry": { "type": "Point", "coordinates": [ -64.074382893935464, -30.972451977348996 ] } },
{ "type": "Feature", "properties": { "orden": 440 }, "geometry": { "type": "Point", "coordinates": [ -64.074268691930598, -30.972464585902276 ] } },
{ "type": "Feature", "properties": { "orden": 430 }, "geometry": { "type": "Point", "coordinates": [ -64.074154489952221, -30.9724771947463 ] } },
{ "type": "Feature", "properties": { "orden": 420 }, "geometry": { "type": "Point", "coordinates": [ -64.074040288158599, -30.972489803285093 ] } },
{ "type": "Feature", "properties": { "orden": 410 }, "geometry": { "type": "Point", "coordinates": [ -64.073926828786071, -30.972503001660201 ] } },
{ "type": "Feature", "properties": { "orden": 200 }, "geometry": { "type": "Point", "coordinates": [ -64.074055084205071, -30.972798913584594 ] } },
{ "type": "Feature", "properties": { "orden": 190 }, "geometry": { "type": "Point", "coordinates": [ -64.074069818230015, -30.972902978409547 ] } },
{ "type": "Feature", "properties": { "orden": 180 }, "geometry": { "type": "Point", "coordinates": [ -64.074083918740598, -30.973002570650433 ] } },
{ "type": "Feature", "properties": { "orden": 170 }, "geometry": { "type": "Point", "coordinates": [ -64.074111803786181, -30.973199520001938 ] } },
{ "type": "Feature", "properties": { "orden": 160 }, "geometry": { "type": "Point", "coordinates": [ -64.074125745988496, -30.973297994803048 ] } },
{ "type": "Feature", "properties": { "orden": 150 }, "geometry": { "type": "Point", "coordinates": [ -64.074139688550105, -30.973396469523905 ] } },
{ "type": "Feature", "properties": { "orden": 140 }, "geometry": { "type": "Point", "coordinates": [ -64.074153630985109, -30.973494943941883 ] } },
{ "type": "Feature", "properties": { "orden": 130 }, "geometry": { "type": "Point", "coordinates": [ -64.074167573269506, -30.97359341851503 ] } },
{ "type": "Feature", "properties": { "orden": 120 }, "geometry": { "type": "Point", "coordinates": [ -64.074182150490898, -30.973696375445563 ] } },
{ "type": "Feature", "properties": { "orden": 110 }, "geometry": { "type": "Point", "coordinates": [ -64.074197733700444, -30.973806437186024 ] } },
{ "type": "Feature", "properties": { "orden": 1670 }, "geometry": { "type": "Point", "coordinates": [ -64.073970905270969, -30.973765306727589 ] } },
{ "type": "Feature", "properties": { "orden": 1670 }, "geometry": { "type": "Point", "coordinates": [ -64.073970905270969, -30.973765306727589 ] } },
{ "type": "Feature", "properties": { "orden": 1680 }, "geometry": { "type": "Point", "coordinates": [ -64.073850981898246, -30.973780112947949 ] } },
{ "type": "Feature", "properties": { "orden": 1690 }, "geometry": { "type": "Point", "coordinates": [ -64.073729364809978, -30.973794259253005 ] } },
{ "type": "Feature", "properties": { "orden": 1700 }, "geometry": { "type": "Point", "coordinates": [ -64.073824128629198, -30.973607045560701 ] } },
{ "type": "Feature", "properties": { "orden": 1710 }, "geometry": { "type": "Point", "coordinates": [ -64.073808837310338, -30.973502258083482 ] } },
{ "type": "Feature", "properties": { "orden": 1720 }, "geometry": { "type": "Point", "coordinates": [ -64.073793539782415, -30.973397477422079 ] } },
{ "type": "Feature", "properties": { "orden": 1730 }, "geometry": { "type": "Point", "coordinates": [ -64.073762924279578, -30.973187900005712 ] } },
{ "type": "Feature", "properties": { "orden": 1740 }, "geometry": { "type": "Point", "coordinates": [ -64.073747672473175, -30.973083108045206 ] } },
{ "type": "Feature", "properties": { "orden": 400 }, "geometry": { "type": "Point", "coordinates": [ -64.074760211137715, -30.972734530254865 ] } },
{ "type": "Feature", "properties": { "orden": 210 }, "geometry": { "type": "Point", "coordinates": [ -64.074500442024146, -30.97276158420372 ] } },
{ "type": "Feature", "properties": { "orden": 220 }, "geometry": { "type": "Point", "coordinates": [ -64.074516768409225, -30.972877977403396 ] } },
{ "type": "Feature", "properties": { "orden": 230 }, "geometry": { "type": "Point", "coordinates": [ -64.07453183904606, -30.972985417449706 ] } },
{ "type": "Feature", "properties": { "orden": 240 }, "geometry": { "type": "Point", "coordinates": [ -64.074546909662445, -30.973092856973562 ] } },
{ "type": "Feature", "properties": { "orden": 250 }, "geometry": { "type": "Point", "coordinates": [ -64.074561980359476, -30.973200296560986 ] } },
{ "type": "Feature", "properties": { "orden": 260 }, "geometry": { "type": "Point", "coordinates": [ -64.074577050782409, -30.973307736498956 ] } },
{ "type": "Feature", "properties": { "orden": 270 }, "geometry": { "type": "Point", "coordinates": [ -64.07459212156914, -30.973415176528061 ] } },
{ "type": "Feature", "properties": { "orden": 280 }, "geometry": { "type": "Point", "coordinates": [ -64.074607192633366, -30.973522616513129 ] } },
{ "type": "Feature", "properties": { "orden": 290 }, "geometry": { "type": "Point", "coordinates": [ -64.074622263735208, -30.97363005649358 ] } },
{ "type": "Feature", "properties": { "orden": 300 }, "geometry": { "type": "Point", "coordinates": [ -64.074639116584819, -30.973750199322321 ] } },
{ "type": "Feature", "properties": { "orden": 310 }, "geometry": { "type": "Point", "coordinates": [ -64.074898888873605, -30.973723145019139 ] } },
{ "type": "Feature", "properties": { "orden": 320 }, "geometry": { "type": "Point", "coordinates": [ -64.074882035674406, -30.973603002237127 ] } },
{ "type": "Feature", "properties": { "orden": 330 }, "geometry": { "type": "Point", "coordinates": [ -64.074866964287864, -30.973495562292886 ] } },
{ "type": "Feature", "properties": { "orden": 340 }, "geometry": { "type": "Point", "coordinates": [ -64.074851892938568, -30.973388122344648 ] } },
{ "type": "Feature", "properties": { "orden": 350 }, "geometry": { "type": "Point", "coordinates": [ -64.074836821910594, -30.973280682419865 ] } },
{ "type": "Feature", "properties": { "orden": 360 }, "geometry": { "type": "Point", "coordinates": [ -64.074821750704416, -30.973173242670143 ] } },
{ "type": "Feature", "properties": { "orden": 370 }, "geometry": { "type": "Point", "coordinates": [ -64.074806679840947, -30.973065803115521 ] } },
{ "type": "Feature", "properties": { "orden": 380 }, "geometry": { "type": "Point", "coordinates": [ -64.074791608709731, -30.972958363357197 ] } },
{ "type": "Feature", "properties": { "orden": 390 }, "geometry": { "type": "Point", "coordinates": [ -64.074776537831625, -30.972850923415226 ] } },
{ "type": "Feature", "properties": { "orden": 800 }, "geometry": { "type": "Point", "coordinates": [ -64.07613549721745, -30.97258748264537 ] } },
{ "type": "Feature", "properties": { "orden": 810 }, "geometry": { "type": "Point", "coordinates": [ -64.075875728715346, -30.972614541303304 ] } },
{ "type": "Feature", "properties": { "orden": 820 }, "geometry": { "type": "Point", "coordinates": [ -64.075892059194587, -30.972730933266206 ] } },
{ "type": "Feature", "properties": { "orden": 830 }, "geometry": { "type": "Point", "coordinates": [ -64.075907131270682, -30.972838372912118 ] } },
{ "type": "Feature", "properties": { "orden": 840 }, "geometry": { "type": "Point", "coordinates": [ -64.075922203036058, -30.972945812286177 ] } },
{ "type": "Feature", "properties": { "orden": 850 }, "geometry": { "type": "Point", "coordinates": [ -64.075937275667073, -30.973053251843432 ] } },
{ "type": "Feature", "properties": { "orden": 860 }, "geometry": { "type": "Point", "coordinates": [ -64.075952347605735, -30.973160691738983 ] } },
{ "type": "Feature", "properties": { "orden": 870 }, "geometry": { "type": "Point", "coordinates": [ -64.07596741965169, -30.973268131464796 ] } },
{ "type": "Feature", "properties": { "orden": 880 }, "geometry": { "type": "Point", "coordinates": [ -64.075982492223304, -30.973375571256014 ] } },
{ "type": "Feature", "properties": { "orden": 890 }, "geometry": { "type": "Point", "coordinates": [ -64.075997564817655, -30.973483010592673 ] } },
{ "type": "Feature", "properties": { "orden": 900 }, "geometry": { "type": "Point", "coordinates": [ -64.076014419732587, -30.973603153847108 ] } },
{ "type": "Feature", "properties": { "orden": 710 }, "geometry": { "type": "Point", "coordinates": [ -64.076274190981721, -30.973576097045978 ] } },
{ "type": "Feature", "properties": { "orden": 720 }, "geometry": { "type": "Point", "coordinates": [ -64.076257336072146, -30.973455953791163 ] } },
{ "type": "Feature", "properties": { "orden": 730 }, "geometry": { "type": "Point", "coordinates": [ -64.076242263006165, -30.973348514287942 ] } },
{ "type": "Feature", "properties": { "orden": 740 }, "geometry": { "type": "Point", "coordinates": [ -64.076227190150092, -30.973241074533192 ] } },
{ "type": "Feature", "properties": { "orden": 750 }, "geometry": { "type": "Point", "coordinates": [ -64.076212117613991, -30.973133634801513 ] } },
{ "type": "Feature", "properties": { "orden": 760 }, "geometry": { "type": "Point", "coordinates": [ -64.07619704507222, -30.973026194997672 ] } },
{ "type": "Feature", "properties": { "orden": 770 }, "geometry": { "type": "Point", "coordinates": [ -64.076181972583129, -30.97291875564029 ] } },
{ "type": "Feature", "properties": { "orden": 780 }, "geometry": { "type": "Point", "coordinates": [ -64.076166900414634, -30.972811316306181 ] } },
{ "type": "Feature", "properties": { "orden": 790 }, "geometry": { "type": "Point", "coordinates": [ -64.076151828311652, -30.972703876584873 ] } },
{ "type": "Feature", "properties": { "orden": 620 }, "geometry": { "type": "Point", "coordinates": [ -64.07653203612449, -30.972527507878812 ] } },
{ "type": "Feature", "properties": { "orden": 630 }, "geometry": { "type": "Point", "coordinates": [ -64.076546945020183, -30.972635122908901 ] } },
{ "type": "Feature", "properties": { "orden": 640 }, "geometry": { "type": "Point", "coordinates": [ -64.076563329885232, -30.97275338782373 ] } },
{ "type": "Feature", "properties": { "orden": 650 }, "geometry": { "type": "Point", "coordinates": [ -64.076581170118274, -30.972882159397102 ] } },
{ "type": "Feature", "properties": { "orden": 660 }, "geometry": { "type": "Point", "coordinates": [ -64.076599010803378, -30.97301093076446 ] } },
{ "type": "Feature", "properties": { "orden": 670 }, "geometry": { "type": "Point", "coordinates": [ -64.076616851637027, -30.973139702233969 ] } },
{ "type": "Feature", "properties": { "orden": 680 }, "geometry": { "type": "Point", "coordinates": [ -64.076634691912858, -30.973268474031237 ] } },
{ "type": "Feature", "properties": { "orden": 690 }, "geometry": { "type": "Point", "coordinates": [ -64.076652532609586, -30.973397245543996 ] } },
{ "type": "Feature", "properties": { "orden": 700 }, "geometry": { "type": "Point", "coordinates": [ -64.076670461878777, -30.97352665615346 ] } },
{ "type": "Feature", "properties": { "orden": 1470 }, "geometry": { "type": "Point", "coordinates": [ -64.076728747291867, -30.973792009196117 ] } },
{ "type": "Feature", "properties": { "orden": 1480 }, "geometry": { "type": "Point", "coordinates": [ -64.076746761217748, -30.973922029803298 ] } },
{ "type": "Feature", "properties": { "orden": 1490 }, "geometry": { "type": "Point", "coordinates": [ -64.076764924477473, -30.974053129489292 ] } },
{ "type": "Feature", "properties": { "orden": 1500 }, "geometry": { "type": "Point", "coordinates": [ -64.076783087512283, -30.974184229123509 ] } },
{ "type": "Feature", "properties": { "orden": 1510 }, "geometry": { "type": "Point", "coordinates": [ -64.076801250882284, -30.974315328795921 ] } },
{ "type": "Feature", "properties": { "orden": 1520 }, "geometry": { "type": "Point", "coordinates": [ -64.076819414307295, -30.974446428462105 ] } },
{ "type": "Feature", "properties": { "orden": 1530 }, "geometry": { "type": "Point", "coordinates": [ -64.076837646067119, -30.974578020296299 ] } },
{ "type": "Feature", "properties": { "orden": 1540 }, "geometry": { "type": "Point", "coordinates": [ -64.076856007939739, -30.974710552256482 ] } },
{ "type": "Feature", "properties": { "orden": 1040 }, "geometry": { "type": "Point", "coordinates": [ -64.074695927979008, -30.974016399794408 ] } },
{ "type": "Feature", "properties": { "orden": 1050 }, "geometry": { "type": "Point", "coordinates": [ -64.074713392467899, -30.974130623850431 ] } },
{ "type": "Feature", "properties": { "orden": 1060 }, "geometry": { "type": "Point", "coordinates": [ -64.074730850259414, -30.974244803000929 ] } },
{ "type": "Feature", "properties": { "orden": 1070 }, "geometry": { "type": "Point", "coordinates": [ -64.074748315362754, -30.974359027028829 ] } },
{ "type": "Feature", "properties": { "orden": 1080 }, "geometry": { "type": "Point", "coordinates": [ -64.074945360414702, -30.97427857808918 ] } },
{ "type": "Feature", "properties": { "orden": 1090 }, "geometry": { "type": "Point", "coordinates": [ -64.07508109004317, -30.974263169934392 ] } },
{ "type": "Feature", "properties": { "orden": 1100 }, "geometry": { "type": "Point", "coordinates": [ -64.075215989640455, -30.974247856040424 ] } },
{ "type": "Feature", "properties": { "orden": 1110 }, "geometry": { "type": "Point", "coordinates": [ -64.075350889425422, -30.974232541851862 ] } },
{ "type": "Feature", "properties": { "orden": 1120 }, "geometry": { "type": "Point", "coordinates": [ -64.075485788980558, -30.974217227968243 ] } },
{ "type": "Feature", "properties": { "orden": 1130 }, "geometry": { "type": "Point", "coordinates": [ -64.075620688147779, -30.974201913517387 ] } },
{ "type": "Feature", "properties": { "orden": 1140 }, "geometry": { "type": "Point", "coordinates": [ -64.07575558755542, -30.974186599063202 ] } },
{ "type": "Feature", "properties": { "orden": 1150 }, "geometry": { "type": "Point", "coordinates": [ -64.075890486915569, -30.974171284469392 ] } },
{ "type": "Feature", "properties": { "orden": 1160 }, "geometry": { "type": "Point", "coordinates": [ -64.076025386228437, -30.974155969735317 ] } },
{ "type": "Feature", "properties": { "orden": 1170 }, "geometry": { "type": "Point", "coordinates": [ -64.076160285493799, -30.974140654861678 ] } },
{ "type": "Feature", "properties": { "orden": 1180 }, "geometry": { "type": "Point", "coordinates": [ -64.07637395823923, -30.974174476760687 ] } },
{ "type": "Feature", "properties": { "orden": 910 }, "geometry": { "type": "Point", "coordinates": [ -64.076356491414884, -30.974060252744657 ] } },
{ "type": "Feature", "properties": { "orden": 920 }, "geometry": { "type": "Point", "coordinates": [ -64.076339031546865, -30.973946073653096 ] } },
{ "type": "Feature", "properties": { "orden": 930 }, "geometry": { "type": "Point", "coordinates": [ -64.076321565525404, -30.973831849810647 ] } },
{ "type": "Feature", "properties": { "orden": 940 }, "geometry": { "type": "Point", "coordinates": [ -64.076125352291882, -30.9739122066463 ] } },
{ "type": "Feature", "properties": { "orden": 950 }, "geometry": { "type": "Point", "coordinates": [ -64.075990453392677, -30.973927521767667 ] } },
{ "type": "Feature", "properties": { "orden": 960 }, "geometry": { "type": "Point", "coordinates": [ -64.075855554340677, -30.973942836167669 ] } },
{ "type": "Feature", "properties": { "orden": 970 }, "geometry": { "type": "Point", "coordinates": [ -64.075720655346629, -30.973958151008681 ] } },
{ "type": "Feature", "properties": { "orden": 980 }, "geometry": { "type": "Point", "coordinates": [ -64.0755857561998, -30.97397346512885 ] } },
{ "type": "Feature", "properties": { "orden": 990 }, "geometry": { "type": "Point", "coordinates": [ -64.075450857346084, -30.97398877953643 ] } },
{ "type": "Feature", "properties": { "orden": 1000 }, "geometry": { "type": "Point", "coordinates": [ -64.075315958444918, -30.97400409380408 ] } },
{ "type": "Feature", "properties": { "orden": 1010 }, "geometry": { "type": "Point", "coordinates": [ -64.075181058920762, -30.974019407658666 ] } },
{ "type": "Feature", "properties": { "orden": 1020 }, "geometry": { "type": "Point", "coordinates": [ -64.075046159636955, -30.974034721509348 ] } },
{ "type": "Feature", "properties": { "orden": 1030 }, "geometry": { "type": "Point", "coordinates": [ -64.074910430291737, -30.97405012986426 ] } },
{ "type": "Feature", "properties": { "orden": 1310 }, "geometry": { "type": "Point", "coordinates": [ -64.0747849488301, -30.974617112854897 ] } },
{ "type": "Feature", "properties": { "orden": 1320 }, "geometry": { "type": "Point", "coordinates": [ -64.074802960406942, -30.974731273817639 ] } },
{ "type": "Feature", "properties": { "orden": 1330 }, "geometry": { "type": "Point", "coordinates": [ -64.07482096526202, -30.974845390100104 ] } },
{ "type": "Feature", "properties": { "orden": 1340 }, "geometry": { "type": "Point", "coordinates": [ -64.074838977099759, -30.974959551080925 ] } },
{ "type": "Feature", "properties": { "orden": 1350 }, "geometry": { "type": "Point", "coordinates": [ -64.07503563649027, -30.974878402095236 ] } },
{ "type": "Feature", "properties": { "orden": 1360 }, "geometry": { "type": "Point", "coordinates": [ -64.075171292057277, -30.97486251159615 ] } },
{ "type": "Feature", "properties": { "orden": 1370 }, "geometry": { "type": "Point", "coordinates": [ -64.075306117992284, -30.974846718101496 ] } },
{ "type": "Feature", "properties": { "orden": 1380 }, "geometry": { "type": "Point", "coordinates": [ -64.075440943878561, -30.974830924467092 ] } },
{ "type": "Feature", "properties": { "orden": 1390 }, "geometry": { "type": "Point", "coordinates": [ -64.075575769716096, -30.974815130692967 ] } },
{ "type": "Feature", "properties": { "orden": 1400 }, "geometry": { "type": "Point", "coordinates": [ -64.075710595504958, -30.97479933677911 ] } },
{ "type": "Feature", "properties": { "orden": 1410 }, "geometry": { "type": "Point", "coordinates": [ -64.075845421509825, -30.974783542326939 ] } },
{ "type": "Feature", "properties": { "orden": 1410 }, "geometry": { "type": "Point", "coordinates": [ -64.075845421509825, -30.974783542326939 ] } },
{ "type": "Feature", "properties": { "orden": 1420 }, "geometry": { "type": "Point", "coordinates": [ -64.075980247436803, -30.974767748062408 ] } },
{ "type": "Feature", "properties": { "orden": 1430 }, "geometry": { "type": "Point", "coordinates": [ -64.076115073079421, -30.974751953729626 ] } },
{ "type": "Feature", "properties": { "orden": 1440 }, "geometry": { "type": "Point", "coordinates": [ -64.076249898438945, -30.97473615941178 ] } },
{ "type": "Feature", "properties": { "orden": 1450 }, "geometry": { "type": "Point", "coordinates": [ -64.076463732402345, -30.974769221017095 ] } },
{ "type": "Feature", "properties": { "orden": 1460 }, "geometry": { "type": "Point", "coordinates": [ -64.076445718490575, -30.974655060102606 ] } },
{ "type": "Feature", "properties": { "orden": 1190 }, "geometry": { "type": "Point", "coordinates": [ -64.076427711941847, -30.974540944288385 ] } },
{ "type": "Feature", "properties": { "orden": 1190 }, "geometry": { "type": "Point", "coordinates": [ -64.076427711941847, -30.974540944288385 ] } },
{ "type": "Feature", "properties": { "orden": 1200 }, "geometry": { "type": "Point", "coordinates": [ -64.076409698480333, -30.974426783593021 ] } },
{ "type": "Feature", "properties": { "orden": 1210 }, "geometry": { "type": "Point", "coordinates": [ -64.076213871298293, -30.974507837242797 ] } },
{ "type": "Feature", "properties": { "orden": 1220 }, "geometry": { "type": "Point", "coordinates": [ -64.076079046305537, -30.9745236318068 ] } },
{ "type": "Feature", "properties": { "orden": 1230 }, "geometry": { "type": "Point", "coordinates": [ -64.0759442209756, -30.9745394260955 ] } },
{ "type": "Feature", "properties": { "orden": 1240 }, "geometry": { "type": "Point", "coordinates": [ -64.075809395332172, -30.974555220643328 ] } },
{ "type": "Feature", "properties": { "orden": 1250 }, "geometry": { "type": "Point", "coordinates": [ -64.075674569669232, -30.974571014723153 ] } },
{ "type": "Feature", "properties": { "orden": 1260 }, "geometry": { "type": "Point", "coordinates": [ -64.075539744193136, -30.974586808592658 ] } },
{ "type": "Feature", "properties": { "orden": 1270 }, "geometry": { "type": "Point", "coordinates": [ -64.075404918668269, -30.97460260232241 ] } },
{ "type": "Feature", "properties": { "orden": 1280 }, "geometry": { "type": "Point", "coordinates": [ -64.075270093094673, -30.974618395912444 ] } },
{ "type": "Feature", "properties": { "orden": 1290 }, "geometry": { "type": "Point", "coordinates": [ -64.07513526747239, -30.974634189362742 ] } },
{ "type": "Feature", "properties": { "orden": 1300 }, "geometry": { "type": "Point", "coordinates": [ -64.074999612273544, -30.974650080023991 ] } },
{ "type": "Feature", "properties": { "orden": 100 }, "geometry": { "type": "Point", "coordinates": [ -64.074235298212969, -30.97406168790787 ] } },
{ "type": "Feature", "properties": { "orden": 90 }, "geometry": { "type": "Point", "coordinates": [ -64.07424973157832, -30.974161690665188 ] } },
{ "type": "Feature", "properties": { "orden": 80 }, "geometry": { "type": "Point", "coordinates": [ -64.074263100690715, -30.974254319927674 ] } },
{ "type": "Feature", "properties": { "orden": 70 }, "geometry": { "type": "Point", "coordinates": [ -64.074276469831787, -30.974346949187602 ] } },
{ "type": "Feature", "properties": { "orden": 60 }, "geometry": { "type": "Point", "coordinates": [ -64.074289838734188, -30.974439578250504 ] } },
{ "type": "Feature", "properties": { "orden": 50 }, "geometry": { "type": "Point", "coordinates": [ -64.074303208181291, -30.974532207248746 ] } },
{ "type": "Feature", "properties": { "orden": 40 }, "geometry": { "type": "Point", "coordinates": [ -64.074316577408695, -30.97462483650067 ] } },
{ "type": "Feature", "properties": { "orden": 30 }, "geometry": { "type": "Point", "coordinates": [ -64.0743299463943, -30.97471746555615 ] } },
{ "type": "Feature", "properties": { "orden": 20 }, "geometry": { "type": "Point", "coordinates": [ -64.07434331593052, -30.974810094546584 ] } },
{ "type": "Feature", "properties": { "orden": 10 }, "geometry": { "type": "Point", "coordinates": [ -64.074356716862525, -30.974902943901451 ] } },
{ "type": "Feature", "properties": { "orden": 0 }, "geometry": { "type": "Point", "coordinates": [ -64.074371184989388, -30.975003185558389 ] } },
{ "type": "Feature", "properties": { "orden": 1560 }, "geometry": { "type": "Point", "coordinates": [ -64.074036632198059, -30.974974937013222 ] } },
{ "type": "Feature", "properties": { "orden": 1570 }, "geometry": { "type": "Point", "coordinates": [ -64.073920153616584, -30.974988497259655 ] } },
{ "type": "Feature", "properties": { "orden": 1580 }, "geometry": { "type": "Point", "coordinates": [ -64.074001270023132, -30.974798336035306 ] } },
{ "type": "Feature", "properties": { "orden": 1590 }, "geometry": { "type": "Point", "coordinates": [ -64.07398796991221, -30.97470887852371 ] } },
{ "type": "Feature", "properties": { "orden": 1600 }, "geometry": { "type": "Point", "coordinates": [ -64.073974669828274, -30.974619421006508 ] } },
{ "type": "Feature", "properties": { "orden": 1610 }, "geometry": { "type": "Point", "coordinates": [ -64.073961369771368, -30.974529963483736 ] } },
{ "type": "Feature", "properties": { "orden": 1620 }, "geometry": { "type": "Point", "coordinates": [ -64.073948069741462, -30.974440505955435 ] } },
{ "type": "Feature", "properties": { "orden": 1630 }, "geometry": { "type": "Point", "coordinates": [ -64.073934768880534, -30.974351049335635 ] } },
{ "type": "Feature", "properties": { "orden": 1640 }, "geometry": { "type": "Point", "coordinates": [ -64.073792891000551, -30.97419036976483 ] } },
{ "type": "Feature", "properties": { "orden": 1650 }, "geometry": { "type": "Point", "coordinates": [ -64.073914003429053, -30.974176034802166 ] } },
{ "type": "Feature", "properties": { "orden": 1660 }, "geometry": { "type": "Point", "coordinates": [ -64.074029798943911, -30.974161273617973 ] } },
{ "type": "Feature", "properties": { "orden": 1550 }, "geometry": { "type": "Point", "coordinates": [ -64.07414404378116, -30.974961324295638 ] } },
{ "type": "Feature", "properties": { "orden": 1800 }, "geometry": { "type": "Point", "coordinates": [ -64.073361661630898, -30.973369194950862 ] } },
{ "type": "Feature", "properties": { "orden": 1790 }, "geometry": { "type": "Point", "coordinates": [ -64.073237296080322, -30.973382608150583 ] } },
{ "type": "Feature", "properties": { "orden": 1780 }, "geometry": { "type": "Point", "coordinates": [ -64.073151230457924, -30.973410977111531 ] } },
{ "type": "Feature", "properties": { "orden": 1770 }, "geometry": { "type": "Point", "coordinates": [ -64.073062434948326, -30.973420553824891 ] } },
{ "type": "Feature", "properties": { "orden": 1760 }, "geometry": { "type": "Point", "coordinates": [ -64.072970909602475, -30.973411338283448 ] } },
{ "type": "Feature", "properties": { "orden": 1750 }, "geometry": { "type": "Point", "coordinates": [ -64.07284654391934, -30.973424751075456 ] } },
{ "type": "Feature", "properties": { "orden": 1980 }, "geometry": { "type": "Point", "coordinates": [ -64.072906053054453, -30.973523990931771 ] } },
{ "type": "Feature", "properties": { "orden": 1970 }, "geometry": { "type": "Point", "coordinates": [ -64.072917167254616, -30.973600501974254 ] } },
{ "type": "Feature", "properties": { "orden": 1960 }, "geometry": { "type": "Point", "coordinates": [ -64.07308310367246, -30.973562837476173 ] } },
{ "type": "Feature", "properties": { "orden": 1830 }, "geometry": { "type": "Point", "coordinates": [ -64.073171899310879, -30.973553260745895 ] } },
{ "type": "Feature", "properties": { "orden": 1820 }, "geometry": { "type": "Point", "coordinates": [ -64.073343490258097, -30.973554522457054 ] } },
{ "type": "Feature", "properties": { "orden": 1810 }, "geometry": { "type": "Point", "coordinates": [ -64.073332375725542, -30.973478011458472 ] } },
{ "type": "Feature", "properties": { "orden": 1850 }, "geometry": { "type": "Point", "coordinates": [ -64.073365524389445, -30.973706202149284 ] } },
{ "type": "Feature", "properties": { "orden": 1840 }, "geometry": { "type": "Point", "coordinates": [ -64.073199587891409, -30.973743867128174 ] } },
{ "type": "Feature", "properties": { "orden": 1950 }, "geometry": { "type": "Point", "coordinates": [ -64.073110792080456, -30.973753443881211 ] } },
{ "type": "Feature", "properties": { "orden": 1940 }, "geometry": { "type": "Point", "coordinates": [ -64.072939200726708, -30.973752181753667 ] } },
{ "type": "Feature", "properties": { "orden": 1930 }, "geometry": { "type": "Point", "coordinates": [ -64.072950314985533, -30.973828692789414 ] } },
{ "type": "Feature", "properties": { "orden": 1920 }, "geometry": { "type": "Point", "coordinates": [ -64.072921028522671, -30.97393750929815 ] } },
{ "type": "Feature", "properties": { "orden": 1910 }, "geometry": { "type": "Point", "coordinates": [ -64.073045394855868, -30.973924096420372 ] } },
{ "type": "Feature", "properties": { "orden": 1900 }, "geometry": { "type": "Point", "coordinates": [ -64.073131460979738, -30.973895727538849 ] } },
{ "type": "Feature", "properties": { "orden": 1890 }, "geometry": { "type": "Point", "coordinates": [ -64.073220256919441, -30.97388615076882 ] } },
{ "type": "Feature", "properties": { "orden": 1880 }, "geometry": { "type": "Point", "coordinates": [ -64.073311782725995, -30.973895366103566 ] } },
{ "type": "Feature", "properties": { "orden": 1870 }, "geometry": { "type": "Point", "coordinates": [ -64.073436148926618, -30.973881952818111 ] } },
{ "type": "Feature", "properties": { "orden": 2380 }, "geometry": { "type": "Point", "coordinates": [ -64.072064022972413, -30.973632813059126 ] } },
{ "type": "Feature", "properties": { "orden": 2370 }, "geometry": { "type": "Point", "coordinates": [ -64.072075134992033, -30.973709313680228 ] } },
{ "type": "Feature", "properties": { "orden": 2360 }, "geometry": { "type": "Point", "coordinates": [ -64.072086248557781, -30.973785824808196 ] } },
{ "type": "Feature", "properties": { "orden": 2350 }, "geometry": { "type": "Point", "coordinates": [ -64.072097362142955, -30.973862335933088 ] } },
{ "type": "Feature", "properties": { "orden": 2340 }, "geometry": { "type": "Point", "coordinates": [ -64.0721084732278, -30.973938829707329 ] } },
{ "type": "Feature", "properties": { "orden": 2330 }, "geometry": { "type": "Point", "coordinates": [ -64.072079138667036, -30.974047321522043 ] } },
{ "type": "Feature", "properties": { "orden": 2320 }, "geometry": { "type": "Point", "coordinates": [ -64.072167934509054, -30.974037745548163 ] } },
{ "type": "Feature", "properties": { "orden": 2310 }, "geometry": { "type": "Point", "coordinates": [ -64.07225673064643, -30.974028169448463 ] } },
{ "type": "Feature", "properties": { "orden": 2300 }, "geometry": { "type": "Point", "coordinates": [ -64.072359910680944, -30.974017042004352 ] } },
{ "type": "Feature", "properties": { "orden": 2290 }, "geometry": { "type": "Point", "coordinates": [ -64.072300448921695, -30.973918126313958 ] } },
{ "type": "Feature", "properties": { "orden": 2280 }, "geometry": { "type": "Point", "coordinates": [ -64.072289337687138, -30.973841632559473 ] } },
{ "type": "Feature", "properties": { "orden": 2270 }, "geometry": { "type": "Point", "coordinates": [ -64.072278223952196, -30.973765121454338 ] } },
{ "type": "Feature", "properties": { "orden": 2260 }, "geometry": { "type": "Point", "coordinates": [ -64.072267110236766, -30.973688610346141 ] } },
{ "type": "Feature", "properties": { "orden": 2250 }, "geometry": { "type": "Point", "coordinates": [ -64.072255998067448, -30.973612109744803 ] } },
{ "type": "Feature", "properties": { "orden": 2850 }, "geometry": { "type": "Point", "coordinates": [ -64.071160520118525, -30.974139100055623 ] } },
{ "type": "Feature", "properties": { "orden": 2460 }, "geometry": { "type": "Point", "coordinates": [ -64.072329537500508, -30.974284388163856 ] } },
{ "type": "Feature", "properties": { "orden": 2460 }, "geometry": { "type": "Point", "coordinates": [ -64.072329537500508, -30.974284388163856 ] } },
{ "type": "Feature", "properties": { "orden": 2450 }, "geometry": { "type": "Point", "coordinates": [ -64.072130222667553, -30.974376681786126 ] } },
{ "type": "Feature", "properties": { "orden": 2450 }, "geometry": { "type": "Point", "coordinates": [ -64.072130222667553, -30.974376681786126 ] } },
{ "type": "Feature", "properties": { "orden": 2440 }, "geometry": { "type": "Point", "coordinates": [ -64.072013372973785, -30.974389601548584 ] } },
{ "type": "Feature", "properties": { "orden": 2430 }, "geometry": { "type": "Point", "coordinates": [ -64.071896527366661, -30.974402523407008 ] } },
{ "type": "Feature", "properties": { "orden": 2430 }, "geometry": { "type": "Point", "coordinates": [ -64.071896527366661, -30.974402523407008 ] } },
{ "type": "Feature", "properties": { "orden": 2040 }, "geometry": { "type": "Point", "coordinates": [ -64.073466926617272, -30.974430970251902 ] } },
{ "type": "Feature", "properties": { "orden": 2420 }, "geometry": { "type": "Point", "coordinates": [ -64.071779679664033, -30.974415444061957 ] } },
{ "type": "Feature", "properties": { "orden": 2410 }, "geometry": { "type": "Point", "coordinates": [ -64.071662831925309, -30.974428364605227 ] } },
{ "type": "Feature", "properties": { "orden": 2400 }, "geometry": { "type": "Point", "coordinates": [ -64.071545984152863, -30.97444128504965 ] } },
{ "type": "Feature", "properties": { "orden": 2390 }, "geometry": { "type": "Point", "coordinates": [ -64.071430924356108, -30.974454749240735 ] } },
{ "type": "Feature", "properties": { "orden": 2550 }, "geometry": { "type": "Point", "coordinates": [ -64.071699404634799, -30.974673922395688 ] } },
{ "type": "Feature", "properties": { "orden": 2540 }, "geometry": { "type": "Point", "coordinates": [ -64.071816252664689, -30.974661001810848 ] } },
{ "type": "Feature", "properties": { "orden": 2530 }, "geometry": { "type": "Point", "coordinates": [ -64.071933100659848, -30.974648081121007 ] } },
{ "type": "Feature", "properties": { "orden": 2520 }, "geometry": { "type": "Point", "coordinates": [ -64.072049948620304, -30.974635160325033 ] } },
{ "type": "Feature", "properties": { "orden": 2510 }, "geometry": { "type": "Point", "coordinates": [ -64.072166796545858, -30.974622239424086 ] } },
{ "type": "Feature", "properties": { "orden": 2500 }, "geometry": { "type": "Point", "coordinates": [ -64.072386710810392, -30.974668175645526 ] } },
{ "type": "Feature", "properties": { "orden": 2490 }, "geometry": { "type": "Point", "coordinates": [ -64.072371847024385, -30.974568451209343 ] } },
{ "type": "Feature", "properties": { "orden": 2480 }, "geometry": { "type": "Point", "coordinates": [ -64.072358124027161, -30.974476316220553 ] } },
{ "type": "Feature", "properties": { "orden": 3010 }, "geometry": { "type": "Point", "coordinates": [ -64.071247989870955, -30.974687372410358 ] } },
{ "type": "Feature", "properties": { "orden": 3000 }, "geometry": { "type": "Point", "coordinates": [ -64.071261594883367, -30.974786326363976 ] } },
{ "type": "Feature", "properties": { "orden": 2010 }, "geometry": { "type": "Point", "coordinates": [ -64.073423431879732, -30.974146850019803 ] } },
{ "type": "Feature", "properties": { "orden": 2000 }, "geometry": { "type": "Point", "coordinates": [ -64.07323765351947, -30.974237781208878 ] } },
{ "type": "Feature", "properties": { "orden": 1990 }, "geometry": { "type": "Point", "coordinates": [ -64.073030115395824, -30.974190506655265 ] } },
{ "type": "Feature", "properties": { "orden": 2100 }, "geometry": { "type": "Point", "coordinates": [ -64.073044979663237, -30.974290299624073 ] } },
{ "type": "Feature", "properties": { "orden": 2090 }, "geometry": { "type": "Point", "coordinates": [ -64.073058707359522, -30.974382461876747 ] } },
{ "type": "Feature", "properties": { "orden": 2080 }, "geometry": { "type": "Point", "coordinates": [ -64.073072431011241, -30.974474596777139 ] } },
{ "type": "Feature", "properties": { "orden": 2070 }, "geometry": { "type": "Point", "coordinates": [ -64.073087283158131, -30.974574307692844 ] } },
{ "type": "Feature", "properties": { "orden": 2060 }, "geometry": { "type": "Point", "coordinates": [ -64.073274232245652, -30.974483352477893 ] } },
{ "type": "Feature", "properties": { "orden": 2030 }, "geometry": { "type": "Point", "coordinates": [ -64.073453202595402, -30.974338835401429 ] } },
{ "type": "Feature", "properties": { "orden": 2020 }, "geometry": { "type": "Point", "coordinates": [ -64.073439458629153, -30.974246661058697 ] } },
{ "type": "Feature", "properties": { "orden": 2140 }, "geometry": { "type": "Point", "coordinates": [ -64.073456190214969, -30.97482379499694 ] } },
{ "type": "Feature", "properties": { "orden": 2130 }, "geometry": { "type": "Point", "coordinates": [ -64.073321230683433, -30.974838719996253 ] } },
{ "type": "Feature", "properties": { "orden": 2120 }, "geometry": { "type": "Point", "coordinates": [ -64.073186271105627, -30.974853644855504 ] } },
{ "type": "Feature", "properties": { "orden": 2110 }, "geometry": { "type": "Point", "coordinates": [ -64.07305131148145, -30.974868569574678 ] } },
{ "type": "Feature", "properties": { "orden": 2200 }, "geometry": { "type": "Point", "coordinates": [ -64.073083542817287, -30.97508473292373 ] } },
{ "type": "Feature", "properties": { "orden": 2190 }, "geometry": { "type": "Point", "coordinates": [ -64.073218548643993, -30.975070116993582 ] } },
{ "type": "Feature", "properties": { "orden": 2180 }, "geometry": { "type": "Point", "coordinates": [ -64.073353554425779, -30.975055500923183 ] } },
{ "type": "Feature", "properties": { "orden": 2170 }, "geometry": { "type": "Point", "coordinates": [ -64.07348856016263, -30.975040884712556 ] } },
{ "type": "Feature", "properties": { "orden": 2160 }, "geometry": { "type": "Point", "coordinates": [ -64.073623565854518, -30.975026268361677 ] } },
{ "type": "Feature", "properties": { "orden": 2150 }, "geometry": { "type": "Point", "coordinates": [ -64.073591120755523, -30.974808789931995 ] } },
{ "type": "Feature", "properties": { "orden": 2640 }, "geometry": { "type": "Point", "coordinates": [ -64.072448048778043, -30.97490739572131 ] } },
{ "type": "Feature", "properties": { "orden": 2630 }, "geometry": { "type": "Point", "coordinates": [ -64.072259582796207, -30.974982933036358 ] } },
{ "type": "Feature", "properties": { "orden": 2620 }, "geometry": { "type": "Point", "coordinates": [ -64.072128253100743, -30.974997433138434 ] } },
{ "type": "Feature", "properties": { "orden": 2610 }, "geometry": { "type": "Point", "coordinates": [ -64.072002961416871, -30.975011266458843 ] } },
{ "type": "Feature", "properties": { "orden": 2600 }, "geometry": { "type": "Point", "coordinates": [ -64.071883707748398, -30.975024433009342 ] } },
{ "type": "Feature", "properties": { "orden": 2590 }, "geometry": { "type": "Point", "coordinates": [ -64.071764454043844, -30.975037599450502 ] } },
{ "type": "Feature", "properties": { "orden": 2580 }, "geometry": { "type": "Point", "coordinates": [ -64.071645200303166, -30.975050765782314 ] } },
{ "type": "Feature", "properties": { "orden": 2570 }, "geometry": { "type": "Point", "coordinates": [ -64.071522793793122, -30.975064786365515 ] } },
{ "type": "Feature", "properties": { "orden": 2740 }, "geometry": { "type": "Point", "coordinates": [ -64.07155272386278, -30.975277655576544 ] } },
{ "type": "Feature", "properties": { "orden": 2730 }, "geometry": { "type": "Point", "coordinates": [ -64.071676899102968, -30.975263754540432 ] } },
{ "type": "Feature", "properties": { "orden": 2720 }, "geometry": { "type": "Point", "coordinates": [ -64.071796192144916, -30.975250851132667 ] } },
{ "type": "Feature", "properties": { "orden": 2710 }, "geometry": { "type": "Point", "coordinates": [ -64.071915485151692, -30.97523794761543 ] } },
{ "type": "Feature", "properties": { "orden": 2700 }, "geometry": { "type": "Point", "coordinates": [ -64.07203477812331, -30.975225043988701 ] } },
{ "type": "Feature", "properties": { "orden": 2690 }, "geometry": { "type": "Point", "coordinates": [ -64.072160116322351, -30.97521148633961 ] } },
{ "type": "Feature", "properties": { "orden": 2690 }, "geometry": { "type": "Point", "coordinates": [ -64.072160116322351, -30.97521148633961 ] } },
{ "type": "Feature", "properties": { "orden": 2680 }, "geometry": { "type": "Point", "coordinates": [ -64.072291481732435, -30.975197413191463 ] } },
{ "type": "Feature", "properties": { "orden": 2670 }, "geometry": { "type": "Point", "coordinates": [ -64.072496240948624, -30.975229835853543 ] } },
{ "type": "Feature", "properties": { "orden": 2660 }, "geometry": { "type": "Point", "coordinates": [ -64.072480301151131, -30.975122527647535 ] } },
{ "type": "Feature", "properties": { "orden": 2650 }, "geometry": { "type": "Point", "coordinates": [ -64.072464038456744, -30.975014912246511 ] } },
{ "type": "Feature", "properties": { "orden": 2560 }, "geometry": { "type": "Point", "coordinates": [ -64.07129874381188, -30.975018262691915 ] } },
{ "type": "Feature", "properties": { "orden": 2770 }, "geometry": { "type": "Point", "coordinates": [ -64.071313749923846, -30.97512879075024 ] } },
{ "type": "Feature", "properties": { "orden": 2760 }, "geometry": { "type": "Point", "coordinates": [ -64.071328895573984, -30.975238949102689 ] } },
{ "type": "Feature", "properties": { "orden": 2750 }, "geometry": { "type": "Point", "coordinates": [ -64.071344118044138, -30.975349665898644 ] } },
{ "type": "Feature", "properties": { "orden": 3250 }, "geometry": { "type": "Point", "coordinates": [ -64.070284470285259, -30.973872778915439 ] } },
{ "type": "Feature", "properties": { "orden": 3210 }, "geometry": { "type": "Point", "coordinates": [ -64.070500208938739, -30.974147299888195 ] } },
{ "type": "Feature", "properties": { "orden": 3130 }, "geometry": { "type": "Point", "coordinates": [ -64.070550775066323, -30.973403609833458 ] } },
{ "type": "Feature", "properties": { "orden": 3120 }, "geometry": { "type": "Point", "coordinates": [ -64.070478652088966, -30.973218256462339 ] } },
{ "type": "Feature", "properties": { "orden": 3600 }, "geometry": { "type": "Point", "coordinates": [ -64.069352968486569, -30.973329317884403 ] } },
{ "type": "Feature", "properties": { "orden": 3580 }, "geometry": { "type": "Point", "coordinates": [ -64.06938773886435, -30.973543678381699 ] } },
{ "type": "Feature", "properties": { "orden": 3560 }, "geometry": { "type": "Point", "coordinates": [ -64.069422509412149, -30.973758038859049 ] } },
{ "type": "Feature", "properties": { "orden": 3480 }, "geometry": { "type": "Point", "coordinates": [ -64.069934235496561, -30.974215462753119 ] } },
{ "type": "Feature", "properties": { "orden": 3400 }, "geometry": { "type": "Point", "coordinates": [ -64.069688818164082, -30.973288871455907 ] } },
{ "type": "Feature", "properties": { "orden": 3630 }, "geometry": { "type": "Point", "coordinates": [ -64.068520462941208, -30.973122479057608 ] } },
{ "type": "Feature", "properties": { "orden": 3840 }, "geometry": { "type": "Point", "coordinates": [ -64.06859531917587, -30.973857653739849 ] } },
{ "type": "Feature", "properties": { "orden": 3800 }, "geometry": { "type": "Point", "coordinates": [ -64.068584602973218, -30.974377995049689 ] } },
{ "type": "Feature", "properties": { "orden": 3790 }, "geometry": { "type": "Point", "coordinates": [ -64.068721432307385, -30.974361517765253 ] } },
{ "type": "Feature", "properties": { "orden": 3770 }, "geometry": { "type": "Point", "coordinates": [ -64.068970212778723, -30.974331558685758 ] } },
{ "type": "Feature", "properties": { "orden": 3970 }, "geometry": { "type": "Point", "coordinates": [ -64.068133046823064, -30.973723330596563 ] } },
{ "type": "Feature", "properties": { "orden": 4000 }, "geometry": { "type": "Point", "coordinates": [ -64.06818703872321, -30.974044651198803 ] } },
{ "type": "Feature", "properties": { "orden": 2810 }, "geometry": { "type": "Point", "coordinates": [ -64.070445295469767, -30.974864194562457 ] } },
{ "type": "Feature", "properties": { "orden": 2860 }, "geometry": { "type": "Point", "coordinates": [ -64.07048006928494, -30.97507855460524 ] } },
{ "type": "Feature", "properties": { "orden": 2790 }, "geometry": { "type": "Point", "coordinates": [ -64.070819128228308, -30.975331355404371 ] } },
{ "type": "Feature", "properties": { "orden": 2780 }, "geometry": { "type": "Point", "coordinates": [ -64.070955979167877, -30.975315052864758 ] } },
{ "type": "Feature", "properties": { "orden": 2780 }, "geometry": { "type": "Point", "coordinates": [ -64.070955979167877, -30.975315052864758 ] } },
{ "type": "Feature", "properties": { "orden": 2780 }, "geometry": { "type": "Point", "coordinates": [ -64.070955979167877, -30.975315052864758 ] } },
{ "type": "Feature", "properties": { "orden": 2970 }, "geometry": { "type": "Point", "coordinates": [ -64.070798537201853, -30.974930925142449 ] } },
{ "type": "Feature", "properties": { "orden": 4470 }, "geometry": { "type": "Point", "coordinates": [ -64.069999433239204, -30.974617388251449 ] } },
{ "type": "Feature", "properties": { "orden": 4390 }, "geometry": { "type": "Point", "coordinates": [ -64.069652868586317, -30.975178176517812 ] } },
{ "type": "Feature", "properties": { "orden": 4380 }, "geometry": { "type": "Point", "coordinates": [ -64.069670254487278, -30.975285356682939 ] } },
{ "type": "Feature", "properties": { "orden": 4350 }, "geometry": { "type": "Point", "coordinates": [ -64.069867323339196, -30.975444692445194 ] } },
{ "type": "Feature", "properties": { "orden": 4490 }, "geometry": { "type": "Point", "coordinates": [ -64.069953952158855, -30.974923368935222 ] } },
{ "type": "Feature", "properties": { "orden": 4170 }, "geometry": { "type": "Point", "coordinates": [ -64.068778676687842, -30.975574364978254 ] } },
{ "type": "Feature", "properties": { "orden": 4140 }, "geometry": { "type": "Point", "coordinates": [ -64.069164367586907, -30.975528444879885 ] } },
{ "type": "Feature", "properties": { "orden": 4320 }, "geometry": { "type": "Point", "coordinates": [ -64.069178908538831, -30.97534452816398 ] } },
{ "type": "Feature", "properties": { "orden": 4310 }, "geometry": { "type": "Point", "coordinates": [ -64.06916152317217, -30.975237347921254 ] } },
{ "type": "Feature", "properties": { "orden": 4300 }, "geometry": { "type": "Point", "coordinates": [ -64.069144137848042, -30.975130167673534 ] } },
{ "type": "Feature", "properties": { "orden": 4290 }, "geometry": { "type": "Point", "coordinates": [ -64.069126752566447, -30.975022987420836 ] } },
{ "type": "Feature", "properties": { "orden": 4280 }, "geometry": { "type": "Point", "coordinates": [ -64.069109367327329, -30.974915807163153 ] } }
]
}
