{
"type": "FeatureCollection",
"name": "VICENTEAGUEROESTE",
"crs": { "type": "name", "properties": { "name": "urn:ogc:def:crs:OGC:1.3:CRS84" } },
"features": [
{ "type": "Feature", "properties": { "orden": 1 }, "geometry": { "type": "Point", "coordinates": [ -64.087874945279879, -30.977079208180086 ] } },
{ "type": "Feature", "properties": { "orden": 2 }, "geometry": { "type": "Point", "coordinates": [ -64.087787969298191, -30.976861502485409 ] } },
{ "type": "Feature", "properties": { "orden": 3 }, "geometry": { "type": "Point", "coordinates": [ -64.08760279716239, -30.976583012720933 ] } },
{ "type": "Feature", "properties": { "orden": 4 }, "geometry": { "type": "Point", "coordinates": [ -64.08804779286352, -30.97627121175983 ] } },
{ "type": "Feature", "properties": { "orden": 5 }, "geometry": { "type": "Point", "coordinates": [ -64.088329487126757, -30.976176422774081 ] } },
{ "type": "Feature", "properties": { "orden": 6 }, "geometry": { "type": "Point", "coordinates": [ -64.088340094836425, -30.976251946601739 ] } },
{ "type": "Feature", "properties": { "orden": 7 }, "geometry": { "type": "Point", "coordinates": [ -64.088387373247244, -30.976408375647861 ] } },
{ "type": "Feature", "properties": { "orden": 8 }, "geometry": { "type": "Point", "coordinates": [ -64.088450329416631, -30.976514263784502 ] } },
{ "type": "Feature", "properties": { "orden": 9 }, "geometry": { "type": "Point", "coordinates": [ -64.088493309427804, -30.976578312879706 ] } },
{ "type": "Feature", "properties": { "orden": 10 }, "geometry": { "type": "Point", "coordinates": [ -64.08854995666583, -30.976701057050477 ] } },
{ "type": "Feature", "properties": { "orden": 11 }, "geometry": { "type": "Point", "coordinates": [ -64.088655925256589, -30.976873794347441 ] } },
{ "type": "Feature", "properties": { "orden": 12 }, "geometry": { "type": "Point", "coordinates": [ -64.088441969598193, -30.976923205527847 ] } },
{ "type": "Feature", "properties": { "orden": 13 }, "geometry": { "type": "Point", "coordinates": [ -64.088306266525166, -30.976994361044465 ] } },
{ "type": "Feature", "properties": { "orden": 14 }, "geometry": { "type": "Point", "coordinates": [ -64.088850787248219, -30.977146599885572 ] } },
{ "type": "Feature", "properties": { "orden": 15 }, "geometry": { "type": "Point", "coordinates": [ -64.088640907495531, -30.977268789736861 ] } },
{ "type": "Feature", "properties": { "orden": 16 }, "geometry": { "type": "Point", "coordinates": [ -64.088556949086197, -30.977317105540699 ] } },
{ "type": "Feature", "properties": { "orden": 17 }, "geometry": { "type": "Point", "coordinates": [ -64.088404519077585, -30.977346394790619 ] } },
{ "type": "Feature", "properties": { "orden": 18 }, "geometry": { "type": "Point", "coordinates": [ -64.088468778970793, -30.977567091920072 ] } },
{ "type": "Feature", "properties": { "orden": 19 }, "geometry": { "type": "Point", "coordinates": [ -64.088358661612489, -30.977601625567974 ] } },
{ "type": "Feature", "properties": { "orden": 20 }, "geometry": { "type": "Point", "coordinates": [ -64.088126357397499, -30.977466358612514 ] } },
{ "type": "Feature", "properties": { "orden": 21 }, "geometry": { "type": "Point", "coordinates": [ -64.088174176272148, -30.977670391450374 ] } },
{ "type": "Feature", "properties": { "orden": 22 }, "geometry": { "type": "Point", "coordinates": [ -64.088198101677889, -30.97777380796871 ] } },
{ "type": "Feature", "properties": { "orden": 23 }, "geometry": { "type": "Point", "coordinates": [ -64.08830381666975, -30.97792414375126 ] } },
{ "type": "Feature", "properties": { "orden": 24 }, "geometry": { "type": "Point", "coordinates": [ -64.088492315158149, -30.977922555574512 ] } },
{ "type": "Feature", "properties": { "orden": 25 }, "geometry": { "type": "Point", "coordinates": [ -64.088651468506271, -30.977912812964938 ] } },
{ "type": "Feature", "properties": { "orden": 26 }, "geometry": { "type": "Point", "coordinates": [ -64.088800681145059, -30.977886351019031 ] } },
{ "type": "Feature", "properties": { "orden": 27 }, "geometry": { "type": "Point", "coordinates": [ -64.088934057187288, -30.977896428738333 ] } },
{ "type": "Feature", "properties": { "orden": 28 }, "geometry": { "type": "Point", "coordinates": [ -64.088922494923949, -30.977736898401663 ] } },
{ "type": "Feature", "properties": { "orden": 29 }, "geometry": { "type": "Point", "coordinates": [ -64.089115928432264, -30.977883693566266 ] } },
{ "type": "Feature", "properties": { "orden": 30 }, "geometry": { "type": "Point", "coordinates": [ -64.089192878240695, -30.977790628691505 ] } },
{ "type": "Feature", "properties": { "orden": 31 }, "geometry": { "type": "Point", "coordinates": [ -64.089146488224458, -30.977712606167948 ] } },
{ "type": "Feature", "properties": { "orden": 32 }, "geometry": { "type": "Point", "coordinates": [ -64.089100161886151, -30.977640184064324 ] } },
{ "type": "Feature", "properties": { "orden": 33 }, "geometry": { "type": "Point", "coordinates": [ -64.089043958540486, -30.977556643258119 ] } },
{ "type": "Feature", "properties": { "orden": 34 }, "geometry": { "type": "Point", "coordinates": [ -64.088826942381957, -30.977622883819549 ] } },
{ "type": "Feature", "properties": { "orden": 35 }, "geometry": { "type": "Point", "coordinates": [ -64.088851733948147, -30.977516256317912 ] } },
{ "type": "Feature", "properties": { "orden": 36 }, "geometry": { "type": "Point", "coordinates": [ -64.088853362461961, -30.977373417707433 ] } },
{ "type": "Feature", "properties": { "orden": 37 }, "geometry": { "type": "Point", "coordinates": [ -64.088852440468514, -30.9772922113277 ] } },
{ "type": "Feature", "properties": { "orden": 38 }, "geometry": { "type": "Point", "coordinates": [ -64.089346161943425, -30.978122594193877 ] } },
{ "type": "Feature", "properties": { "orden": 39 }, "geometry": { "type": "Point", "coordinates": [ -64.089178880381681, -30.9782752310572 ] } },
{ "type": "Feature", "properties": { "orden": 40 }, "geometry": { "type": "Point", "coordinates": [ -64.089082780065738, -30.978399262739771 ] } },
{ "type": "Feature", "properties": { "orden": 41 }, "geometry": { "type": "Point", "coordinates": [ -64.088972566605662, -30.978425396265841 ] } },
{ "type": "Feature", "properties": { "orden": 42 }, "geometry": { "type": "Point", "coordinates": [ -64.088862830001673, -30.978493532991472 ] } },
{ "type": "Feature", "properties": { "orden": 43 }, "geometry": { "type": "Point", "coordinates": [ -64.088599993804479, -30.978532154534179 ] } },
{ "type": "Feature", "properties": { "orden": 44 }, "geometry": { "type": "Point", "coordinates": [ -64.088712591774296, -30.9787160377888 ] } },
{ "type": "Feature", "properties": { "orden": 45 }, "geometry": { "type": "Point", "coordinates": [ -64.088761882244313, -30.978763230647051 ] } },
{ "type": "Feature", "properties": { "orden": 46 }, "geometry": { "type": "Point", "coordinates": [ -64.088798617853087, -30.978849736129657 ] } },
{ "type": "Feature", "properties": { "orden": 47 }, "geometry": { "type": "Point", "coordinates": [ -64.088757353342103, -30.978936899035425 ] } },
{ "type": "Feature", "properties": { "orden": 48 }, "geometry": { "type": "Point", "coordinates": [ -64.088794184398196, -30.979031805173484 ] } },
{ "type": "Feature", "properties": { "orden": 49 }, "geometry": { "type": "Point", "coordinates": [ -64.088909556416183, -30.979173657539135 ] } },
{ "type": "Feature", "properties": { "orden": 50 }, "geometry": { "type": "Point", "coordinates": [ -64.088932440398366, -30.978899016887546 ] } },
{ "type": "Feature", "properties": { "orden": 51 }, "geometry": { "type": "Point", "coordinates": [ -64.089093121793823, -30.979023684215093 ] } },
{ "type": "Feature", "properties": { "orden": 52 }, "geometry": { "type": "Point", "coordinates": [ -64.089170613175767, -30.978978223070893 ] } },
{ "type": "Feature", "properties": { "orden": 53 }, "geometry": { "type": "Point", "coordinates": [ -64.089329799986217, -30.978971279806363 ] } },
{ "type": "Feature", "properties": { "orden": 54 }, "geometry": { "type": "Point", "coordinates": [ -64.089443168533052, -30.978936717899547 ] } },
{ "type": "Feature", "properties": { "orden": 55 }, "geometry": { "type": "Point", "coordinates": [ -64.089683128124832, -30.978887085661345 ] } },
{ "type": "Feature", "properties": { "orden": 56 }, "geometry": { "type": "Point", "coordinates": [ -64.089656205353918, -30.978806098643371 ] } },
{ "type": "Feature", "properties": { "orden": 57 }, "geometry": { "type": "Point", "coordinates": [ -64.089553928148177, -30.978672537961152 ] } },
{ "type": "Feature", "properties": { "orden": 58 }, "geometry": { "type": "Point", "coordinates": [ -64.089487782915995, -30.978572278307176 ] } },
{ "type": "Feature", "properties": { "orden": 59 }, "geometry": { "type": "Point", "coordinates": [ -64.089334237946503, -30.978503561024805 ] } },
{ "type": "Feature", "properties": { "orden": 60 }, "geometry": { "type": "Point", "coordinates": [ -64.089371647385803, -30.978363221191081 ] } },
{ "type": "Feature", "properties": { "orden": 61 }, "geometry": { "type": "Point", "coordinates": [ -64.089354411374799, -30.97827655143411 ] } },
{ "type": "Feature", "properties": { "orden": 62 }, "geometry": { "type": "Point", "coordinates": [ -64.089327870761238, -30.97822916695953 ] } },
{ "type": "Feature", "properties": { "orden": 63 }, "geometry": { "type": "Point", "coordinates": [ -64.08991205875985, -30.979154001044463 ] } },
{ "type": "Feature", "properties": { "orden": 64 }, "geometry": { "type": "Point", "coordinates": [ -64.089818476643046, -30.979213600815246 ] } },
{ "type": "Feature", "properties": { "orden": 65 }, "geometry": { "type": "Point", "coordinates": [ -64.089721421646004, -30.979253626408806 ] } },
{ "type": "Feature", "properties": { "orden": 66 }, "geometry": { "type": "Point", "coordinates": [ -64.089673546412129, -30.979331043655463 ] } },
{ "type": "Feature", "properties": { "orden": 67 }, "geometry": { "type": "Point", "coordinates": [ -64.089613421036589, -30.979331550829318 ] } },
{ "type": "Feature", "properties": { "orden": 68 }, "geometry": { "type": "Point", "coordinates": [ -64.089512988550624, -30.979360402810521 ] } },
{ "type": "Feature", "properties": { "orden": 69 }, "geometry": { "type": "Point", "coordinates": [ -64.089427340164463, -30.979403132466189 ] } },
{ "type": "Feature", "properties": { "orden": 70 }, "geometry": { "type": "Point", "coordinates": [ -64.089322207458281, -30.979447426618247 ] } },
{ "type": "Feature", "properties": { "orden": 71 }, "geometry": { "type": "Point", "coordinates": [ -64.089137754162948, -30.979376169283345 ] } },
{ "type": "Feature", "properties": { "orden": 72 }, "geometry": { "type": "Point", "coordinates": [ -64.089140540016089, -30.979478363568994 ] } },
{ "type": "Feature", "properties": { "orden": 73 }, "geometry": { "type": "Point", "coordinates": [ -64.089204949210398, -30.979568836317405 ] } },
{ "type": "Feature", "properties": { "orden": 74 }, "geometry": { "type": "Point", "coordinates": [ -64.089248153802686, -30.97965248661805 ] } },
{ "type": "Feature", "properties": { "orden": 75 }, "geometry": { "type": "Point", "coordinates": [ -64.089302638165506, -30.9797276403234 ] } },
{ "type": "Feature", "properties": { "orden": 76 }, "geometry": { "type": "Point", "coordinates": [ -64.089337717825671, -30.979811359104652 ] } },
{ "type": "Feature", "properties": { "orden": 77 }, "geometry": { "type": "Point", "coordinates": [ -64.089364720166444, -30.979899346722323 ] } },
{ "type": "Feature", "properties": { "orden": 78 }, "geometry": { "type": "Point", "coordinates": [ -64.089365897178141, -30.980002954802263 ] } },
{ "type": "Feature", "properties": { "orden": 79 }, "geometry": { "type": "Point", "coordinates": [ -64.089383085841519, -30.980085424199935 ] } },
{ "type": "Feature", "properties": { "orden": 80 }, "geometry": { "type": "Point", "coordinates": [ -64.089431102281111, -30.980163432873773 ] } },
{ "type": "Feature", "properties": { "orden": 81 }, "geometry": { "type": "Point", "coordinates": [ -64.089534228890216, -30.980085549709138 ] } },
{ "type": "Feature", "properties": { "orden": 82 }, "geometry": { "type": "Point", "coordinates": [ -64.0895494792763, -30.979854380937155 ] } },
{ "type": "Feature", "properties": { "orden": 83 }, "geometry": { "type": "Point", "coordinates": [ -64.08965653739358, -30.979979499791721 ] } },
{ "type": "Feature", "properties": { "orden": 84 }, "geometry": { "type": "Point", "coordinates": [ -64.089677983059445, -30.979864498938216 ] } },
{ "type": "Feature", "properties": { "orden": 85 }, "geometry": { "type": "Point", "coordinates": [ -64.089716953834909, -30.979718544888556 ] } },
{ "type": "Feature", "properties": { "orden": 86 }, "geometry": { "type": "Point", "coordinates": [ -64.089847382860512, -30.97989807591533 ] } },
{ "type": "Feature", "properties": { "orden": 87 }, "geometry": { "type": "Point", "coordinates": [ -64.089940040806212, -30.979900094619115 ] } },
{ "type": "Feature", "properties": { "orden": 88 }, "geometry": { "type": "Point", "coordinates": [ -64.090004930186325, -30.979889745386171 ] } },
{ "type": "Feature", "properties": { "orden": 89 }, "geometry": { "type": "Point", "coordinates": [ -64.09006964447768, -30.979863994923278 ] } },
{ "type": "Feature", "properties": { "orden": 90 }, "geometry": { "type": "Point", "coordinates": [ -64.090190804605925, -30.979799961495523 ] } },
{ "type": "Feature", "properties": { "orden": 91 }, "geometry": { "type": "Point", "coordinates": [ -64.09012969211706, -30.979713662166827 ] } },
{ "type": "Feature", "properties": { "orden": 92 }, "geometry": { "type": "Point", "coordinates": [ -64.090062111511074, -30.979630217874643 ] } },
{ "type": "Feature", "properties": { "orden": 93 }, "geometry": { "type": "Point", "coordinates": [ -64.089996140122977, -30.979545359722383 ] } },
{ "type": "Feature", "properties": { "orden": 94 }, "geometry": { "type": "Point", "coordinates": [ -64.089615489189526, -30.979513565023609 ] } },
{ "type": "Feature", "properties": { "orden": 95 }, "geometry": { "type": "Point", "coordinates": [ -64.089711524072996, -30.979526757359089 ] } },
{ "type": "Feature", "properties": { "orden": 96 }, "geometry": { "type": "Point", "coordinates": [ -64.089788983726109, -30.979478495626477 ] } },
{ "type": "Feature", "properties": { "orden": 97 }, "geometry": { "type": "Point", "coordinates": [ -64.08991203910719, -30.979438250608307 ] } },
{ "type": "Feature", "properties": { "orden": 98 }, "geometry": { "type": "Point", "coordinates": [ -64.09034591122213, -30.980148713143034 ] } },
{ "type": "Feature", "properties": { "orden": 99 }, "geometry": { "type": "Point", "coordinates": [ -64.090288779422096, -30.980269616274352 ] } },
{ "type": "Feature", "properties": { "orden": 100 }, "geometry": { "type": "Point", "coordinates": [ -64.090189221662868, -30.980375474774558 ] } },
{ "type": "Feature", "properties": { "orden": 101 }, "geometry": { "type": "Point", "coordinates": [ -64.090088724615157, -30.980398726785531 ] } },
{ "type": "Feature", "properties": { "orden": 102 }, "geometry": { "type": "Point", "coordinates": [ -64.089996464064157, -30.98043171091981 ] } },
{ "type": "Feature", "properties": { "orden": 103 }, "geometry": { "type": "Point", "coordinates": [ -64.089899471583493, -30.980477337102236 ] } },
{ "type": "Feature", "properties": { "orden": 104 }, "geometry": { "type": "Point", "coordinates": [ -64.089824895267213, -30.980493368987545 ] } },
{ "type": "Feature", "properties": { "orden": 105 }, "geometry": { "type": "Point", "coordinates": [ -64.089614709587494, -30.980446133612489 ] } },
{ "type": "Feature", "properties": { "orden": 106 }, "geometry": { "type": "Point", "coordinates": [ -64.089646332908998, -30.980511678286984 ] } },
{ "type": "Feature", "properties": { "orden": 107 }, "geometry": { "type": "Point", "coordinates": [ -64.089722579943867, -30.980642657937061 ] } },
{ "type": "Feature", "properties": { "orden": 108 }, "geometry": { "type": "Point", "coordinates": [ -64.089777447149174, -30.980751414020805 ] } },
{ "type": "Feature", "properties": { "orden": 109 }, "geometry": { "type": "Point", "coordinates": [ -64.089824046086903, -30.980847637649184 ] } },
{ "type": "Feature", "properties": { "orden": 110 }, "geometry": { "type": "Point", "coordinates": [ -64.089855701517649, -30.98091598247942 ] } },
{ "type": "Feature", "properties": { "orden": 111 }, "geometry": { "type": "Point", "coordinates": [ -64.089830767097467, -30.981010009134394 ] } },
{ "type": "Feature", "properties": { "orden": 112 }, "geometry": { "type": "Point", "coordinates": [ -64.089872443360605, -30.98110207354247 ] } },
{ "type": "Feature", "properties": { "orden": 113 }, "geometry": { "type": "Point", "coordinates": [ -64.08994668592841, -30.981056639338089 ] } },
{ "type": "Feature", "properties": { "orden": 114 }, "geometry": { "type": "Point", "coordinates": [ -64.090031076554553, -30.981046125531229 ] } },
{ "type": "Feature", "properties": { "orden": 115 }, "geometry": { "type": "Point", "coordinates": [ -64.090131637960994, -30.9810284739855 ] } },
{ "type": "Feature", "properties": { "orden": 116 }, "geometry": { "type": "Point", "coordinates": [ -64.0902544245304, -30.980964426761567 ] } },
{ "type": "Feature", "properties": { "orden": 117 }, "geometry": { "type": "Point", "coordinates": [ -64.090389095663511, -30.980945086874875 ] } },
{ "type": "Feature", "properties": { "orden": 118 }, "geometry": { "type": "Point", "coordinates": [ -64.090445366927142, -30.980891402630633 ] } },
{ "type": "Feature", "properties": { "orden": 119 }, "geometry": { "type": "Point", "coordinates": [ -64.090536193794136, -30.980875233191799 ] } },
{ "type": "Feature", "properties": { "orden": 120 }, "geometry": { "type": "Point", "coordinates": [ -64.090724554608769, -30.980861040646964 ] } },
{ "type": "Feature", "properties": { "orden": 121 }, "geometry": { "type": "Point", "coordinates": [ -64.090643701661023, -30.980753904633897 ] } },
{ "type": "Feature", "properties": { "orden": 122 }, "geometry": { "type": "Point", "coordinates": [ -64.090581170112756, -30.980685820685668 ] } },
{ "type": "Feature", "properties": { "orden": 123 }, "geometry": { "type": "Point", "coordinates": [ -64.090497147027151, -30.980585712552646 ] } },
{ "type": "Feature", "properties": { "orden": 124 }, "geometry": { "type": "Point", "coordinates": [ -64.090453526945581, -30.980465659894502 ] } },
{ "type": "Feature", "properties": { "orden": 125 }, "geometry": { "type": "Point", "coordinates": [ -64.090436114386975, -30.980363589146961 ] } },
{ "type": "Feature", "properties": { "orden": 126 }, "geometry": { "type": "Point", "coordinates": [ -64.090420565711838, -30.980282506306473 ] } },
{ "type": "Feature", "properties": { "orden": 127 }, "geometry": { "type": "Point", "coordinates": [ -64.090766693011787, -30.981136532659178 ] } },
{ "type": "Feature", "properties": { "orden": 128 }, "geometry": { "type": "Point", "coordinates": [ -64.090649911718415, -30.981442771658667 ] } },
{ "type": "Feature", "properties": { "orden": 129 }, "geometry": { "type": "Point", "coordinates": [ -64.090528034165757, -30.98130097589878 ] } },
{ "type": "Feature", "properties": { "orden": 130 }, "geometry": { "type": "Point", "coordinates": [ -64.090476446776421, -30.981337817723904 ] } },
{ "type": "Feature", "properties": { "orden": 131 }, "geometry": { "type": "Point", "coordinates": [ -64.090392231088416, -30.981363733018647 ] } },
{ "type": "Feature", "properties": { "orden": 132 }, "geometry": { "type": "Point", "coordinates": [ -64.090266146262664, -30.981423607486395 ] } },
{ "type": "Feature", "properties": { "orden": 133 }, "geometry": { "type": "Point", "coordinates": [ -64.090161920509757, -30.981404883753598 ] } },
{ "type": "Feature", "properties": { "orden": 134 }, "geometry": { "type": "Point", "coordinates": [ -64.089996579721699, -30.981442685374169 ] } },
{ "type": "Feature", "properties": { "orden": 135 }, "geometry": { "type": "Point", "coordinates": [ -64.090153443680478, -30.981516974721181 ] } },
{ "type": "Feature", "properties": { "orden": 136 }, "geometry": { "type": "Point", "coordinates": [ -64.090189990642372, -30.981586678416047 ] } },
{ "type": "Feature", "properties": { "orden": 137 }, "geometry": { "type": "Point", "coordinates": [ -64.09031151783104, -30.981697672107963 ] } },
{ "type": "Feature", "properties": { "orden": 138 }, "geometry": { "type": "Point", "coordinates": [ -64.090410740393708, -30.981848060763674 ] } },
{ "type": "Feature", "properties": { "orden": 139 }, "geometry": { "type": "Point", "coordinates": [ -64.090374668701813, -30.982106009914286 ] } },
{ "type": "Feature", "properties": { "orden": 140 }, "geometry": { "type": "Point", "coordinates": [ -64.090513818480431, -30.982051626005333 ] } },
{ "type": "Feature", "properties": { "orden": 141 }, "geometry": { "type": "Point", "coordinates": [ -64.090624131167388, -30.982033891739228 ] } },
{ "type": "Feature", "properties": { "orden": 142 }, "geometry": { "type": "Point", "coordinates": [ -64.09075024840314, -30.981976817130146 ] } },
{ "type": "Feature", "properties": { "orden": 143 }, "geometry": { "type": "Point", "coordinates": [ -64.090876938925632, -30.981970146290774 ] } },
{ "type": "Feature", "properties": { "orden": 144 }, "geometry": { "type": "Point", "coordinates": [ -64.091060824982804, -30.981848172340563 ] } },
{ "type": "Feature", "properties": { "orden": 145 }, "geometry": { "type": "Point", "coordinates": [ -64.091045657917263, -30.981657867460004 ] } },
{ "type": "Feature", "properties": { "orden": 146 }, "geometry": { "type": "Point", "coordinates": [ -64.091002514538559, -30.981579818276593 ] } },
{ "type": "Feature", "properties": { "orden": 147 }, "geometry": { "type": "Point", "coordinates": [ -64.090916705871024, -30.981465723103049 ] } },
{ "type": "Feature", "properties": { "orden": 148 }, "geometry": { "type": "Point", "coordinates": [ -64.090863780564689, -30.981384955995207 ] } },
{ "type": "Feature", "properties": { "orden": 149 }, "geometry": { "type": "Point", "coordinates": [ -64.090814201000299, -30.981312562066101 ] } },
{ "type": "Feature", "properties": { "orden": 150 }, "geometry": { "type": "Point", "coordinates": [ -64.090780903784818, -30.98124283110829 ] } },
{ "type": "Feature", "properties": { "orden": 151 }, "geometry": { "type": "Point", "coordinates": [ -64.091372548966703, -30.982105984041613 ] } },
{ "type": "Feature", "properties": { "orden": 152 }, "geometry": { "type": "Point", "coordinates": [ -64.091260770922318, -30.982280558478539 ] } },
{ "type": "Feature", "properties": { "orden": 153 }, "geometry": { "type": "Point", "coordinates": [ -64.091190415540552, -30.982381970294082 ] } },
{ "type": "Feature", "properties": { "orden": 154 }, "geometry": { "type": "Point", "coordinates": [ -64.091083575748627, -30.982419279106406 ] } },
{ "type": "Feature", "properties": { "orden": 155 }, "geometry": { "type": "Point", "coordinates": [ -64.09092040052164, -30.982361847145107 ] } },
{ "type": "Feature", "properties": { "orden": 156 }, "geometry": { "type": "Point", "coordinates": [ -64.090913485650447, -30.982611148701878 ] } },
{ "type": "Feature", "properties": { "orden": 157 }, "geometry": { "type": "Point", "coordinates": [ -64.09066583870316, -30.982557230296347 ] } },
{ "type": "Feature", "properties": { "orden": 158 }, "geometry": { "type": "Point", "coordinates": [ -64.090788833078236, -30.982797033410943 ] } },
{ "type": "Feature", "properties": { "orden": 159 }, "geometry": { "type": "Point", "coordinates": [ -64.090851573273653, -30.982883318603083 ] } },
{ "type": "Feature", "properties": { "orden": 160 }, "geometry": { "type": "Point", "coordinates": [ -64.090859093023525, -30.982972870609011 ] } },
{ "type": "Feature", "properties": { "orden": 161 }, "geometry": { "type": "Point", "coordinates": [ -64.090866963238014, -30.983093224984771 ] } },
{ "type": "Feature", "properties": { "orden": 162 }, "geometry": { "type": "Point", "coordinates": [ -64.090964308321261, -30.983078400413376 ] } },
{ "type": "Feature", "properties": { "orden": 163 }, "geometry": { "type": "Point", "coordinates": [ -64.091064553006291, -30.983032745945863 ] } },
{ "type": "Feature", "properties": { "orden": 164 }, "geometry": { "type": "Point", "coordinates": [ -64.091158424778186, -30.982998347175791 ] } },
{ "type": "Feature", "properties": { "orden": 165 }, "geometry": { "type": "Point", "coordinates": [ -64.091268387836863, -30.982949809970616 ] } },
{ "type": "Feature", "properties": { "orden": 166 }, "geometry": { "type": "Point", "coordinates": [ -64.091372137364189, -30.982926529533437 ] } },
{ "type": "Feature", "properties": { "orden": 167 }, "geometry": { "type": "Point", "coordinates": [ -64.091530979816937, -30.982888781043293 ] } },
{ "type": "Feature", "properties": { "orden": 168 }, "geometry": { "type": "Point", "coordinates": [ -64.091686572001521, -30.982851059829549 ] } },
{ "type": "Feature", "properties": { "orden": 169 }, "geometry": { "type": "Point", "coordinates": [ -64.091655949855962, -30.982730897801968 ] } },
{ "type": "Feature", "properties": { "orden": 170 }, "geometry": { "type": "Point", "coordinates": [ -64.091618986934577, -30.982624791773059 ] } },
{ "type": "Feature", "properties": { "orden": 171 }, "geometry": { "type": "Point", "coordinates": [ -64.091559336971571, -30.982524478421052 ] } },
{ "type": "Feature", "properties": { "orden": 172 }, "geometry": { "type": "Point", "coordinates": [ -64.09151303827484, -30.982454857548795 ] } },
{ "type": "Feature", "properties": { "orden": 173 }, "geometry": { "type": "Point", "coordinates": [ -64.091462852016434, -30.982329259813163 ] } },
{ "type": "Feature", "properties": { "orden": 174 }, "geometry": { "type": "Point", "coordinates": [ -64.09141285713666, -30.982220463345453 ] } },
{ "type": "Feature", "properties": { "orden": 175 }, "geometry": { "type": "Point", "coordinates": [ -64.091732737529341, -30.982052531547801 ] } },
{ "type": "Feature", "properties": { "orden": 176 }, "geometry": { "type": "Point", "coordinates": [ -64.091916306224419, -30.982188203664052 ] } },
{ "type": "Feature", "properties": { "orden": 177 }, "geometry": { "type": "Point", "coordinates": [ -64.091910953974576, -30.982289066352674 ] } },
{ "type": "Feature", "properties": { "orden": 178 }, "geometry": { "type": "Point", "coordinates": [ -64.09194759817936, -30.982367170149768 ] } },
{ "type": "Feature", "properties": { "orden": 179 }, "geometry": { "type": "Point", "coordinates": [ -64.091984561353101, -30.982473276082569 ] } },
{ "type": "Feature", "properties": { "orden": 180 }, "geometry": { "type": "Point", "coordinates": [ -64.091985326733123, -30.982540481238292 ] } },
{ "type": "Feature", "properties": { "orden": 181 }, "geometry": { "type": "Point", "coordinates": [ -64.092025954750198, -30.982682962468886 ] } },
{ "type": "Feature", "properties": { "orden": 182 }, "geometry": { "type": "Point", "coordinates": [ -64.092132858231892, -30.982651253309438 ] } },
{ "type": "Feature", "properties": { "orden": 183 }, "geometry": { "type": "Point", "coordinates": [ -64.092229851763008, -30.982605625438079 ] } },
{ "type": "Feature", "properties": { "orden": 184 }, "geometry": { "type": "Point", "coordinates": [ -64.09232375457735, -30.982574026052955 ] } },
{ "type": "Feature", "properties": { "orden": 185 }, "geometry": { "type": "Point", "coordinates": [ -64.092414375298432, -30.982539653873584 ] } },
{ "type": "Feature", "properties": { "orden": 186 }, "geometry": { "type": "Point", "coordinates": [ -64.092504836422862, -30.982491280560268 ] } },
{ "type": "Feature", "properties": { "orden": 187 }, "geometry": { "type": "Point", "coordinates": [ -64.092679641084445, -30.982428191306862 ] } },
{ "type": "Feature", "properties": { "orden": 188 }, "geometry": { "type": "Point", "coordinates": [ -64.09279246983634, -30.982346022769853 ] } },
{ "type": "Feature", "properties": { "orden": 189 }, "geometry": { "type": "Point", "coordinates": [ -64.092667620333472, -30.981943809216656 ] } },
{ "type": "Feature", "properties": { "orden": 190 }, "geometry": { "type": "Point", "coordinates": [ -64.092489913196843, -30.981752078907348 ] } },
{ "type": "Feature", "properties": { "orden": 191 }, "geometry": { "type": "Point", "coordinates": [ -64.092241409900737, -30.981908207084814 ] } },
{ "type": "Feature", "properties": { "orden": 192 }, "geometry": { "type": "Point", "coordinates": [ -64.092131384750161, -30.981951144656541 ] } },
{ "type": "Feature", "properties": { "orden": 193 }, "geometry": { "type": "Point", "coordinates": [ -64.092044110254278, -30.981993889797455 ] } },
{ "type": "Feature", "properties": { "orden": 194 }, "geometry": { "type": "Point", "coordinates": [ -64.091943930908528, -30.982045145426042 ] } },
{ "type": "Feature", "properties": { "orden": 195 }, "geometry": { "type": "Point", "coordinates": [ -64.09182711826756, -30.982062935757952 ] } },
{ "type": "Feature", "properties": { "orden": 196 }, "geometry": { "type": "Point", "coordinates": [ -64.091491048751649, -30.981665306641997 ] } },
{ "type": "Feature", "properties": { "orden": 197 }, "geometry": { "type": "Point", "coordinates": [ -64.091701763087769, -30.981615917702719 ] } },
{ "type": "Feature", "properties": { "orden": 198 }, "geometry": { "type": "Point", "coordinates": [ -64.091870289752237, -30.981572486005721 ] } },
{ "type": "Feature", "properties": { "orden": 199 }, "geometry": { "type": "Point", "coordinates": [ -64.091996278049606, -30.981504209346546 ] } },
{ "type": "Feature", "properties": { "orden": 200 }, "geometry": { "type": "Point", "coordinates": [ -64.09217786852291, -30.981466267782114 ] } },
{ "type": "Feature", "properties": { "orden": 201 }, "geometry": { "type": "Point", "coordinates": [ -64.092339671215839, -30.981403288938171 ] } },
{ "type": "Feature", "properties": { "orden": 202 }, "geometry": { "type": "Point", "coordinates": [ -64.092289675868017, -30.981294492806601 ] } },
{ "type": "Feature", "properties": { "orden": 203 }, "geometry": { "type": "Point", "coordinates": [ -64.092219797402777, -30.981152258957067 ] } },
{ "type": "Feature", "properties": { "orden": 204 }, "geometry": { "type": "Point", "coordinates": [ -64.092114008867313, -30.980996326251155 ] } },
{ "type": "Feature", "properties": { "orden": 205 }, "geometry": { "type": "Point", "coordinates": [ -64.092080168676986, -30.980878991982486 ] } },
{ "type": "Feature", "properties": { "orden": 206 }, "geometry": { "type": "Point", "coordinates": [ -64.092025871482889, -30.980677816090992 ] } },
{ "type": "Feature", "properties": { "orden": 207 }, "geometry": { "type": "Point", "coordinates": [ -64.091870793108868, -30.980760341090885 ] } },
{ "type": "Feature", "properties": { "orden": 208 }, "geometry": { "type": "Point", "coordinates": [ -64.091669671542192, -30.980795646786252 ] } },
{ "type": "Feature", "properties": { "orden": 209 }, "geometry": { "type": "Point", "coordinates": [ -64.091663077400526, -30.981072950551535 ] } },
{ "type": "Feature", "properties": { "orden": 210 }, "geometry": { "type": "Point", "coordinates": [ -64.091627772852434, -30.98111245570426 ] } },
{ "type": "Feature", "properties": { "orden": 211 }, "geometry": { "type": "Point", "coordinates": [ -64.091559967476357, -30.981152235496474 ] } },
{ "type": "Feature", "properties": { "orden": 212 }, "geometry": { "type": "Point", "coordinates": [ -64.091324527569185, -30.981028203003412 ] } },
{ "type": "Feature", "properties": { "orden": 213 }, "geometry": { "type": "Point", "coordinates": [ -64.091177668703224, -30.980976234442068 ] } },
{ "type": "Feature", "properties": { "orden": 214 }, "geometry": { "type": "Point", "coordinates": [ -64.091270327925727, -30.981121076916754 ] } },
{ "type": "Feature", "properties": { "orden": 215 }, "geometry": { "type": "Point", "coordinates": [ -64.091303657317368, -30.981193607958325 ] } },
{ "type": "Feature", "properties": { "orden": 216 }, "geometry": { "type": "Point", "coordinates": [ -64.09135671036158, -30.981285575745787 ] } },
{ "type": "Feature", "properties": { "orden": 217 }, "geometry": { "type": "Point", "coordinates": [ -64.091429550894873, -30.981402580683579 ] } },
{ "type": "Feature", "properties": { "orden": 218 }, "geometry": { "type": "Point", "coordinates": [ -64.091476072122248, -30.98149180312052 ] } },
{ "type": "Feature", "properties": { "orden": 219 }, "geometry": { "type": "Point", "coordinates": [ -64.090998596364287, -30.980664092631855 ] } },
{ "type": "Feature", "properties": { "orden": 220 }, "geometry": { "type": "Point", "coordinates": [ -64.091131530348648, -30.980634964950923 ] } },
{ "type": "Feature", "properties": { "orden": 221 }, "geometry": { "type": "Point", "coordinates": [ -64.091263922502989, -30.980558233457337 ] } },
{ "type": "Feature", "properties": { "orden": 222 }, "geometry": { "type": "Point", "coordinates": [ -64.091409824616719, -30.980526195451887 ] } },
{ "type": "Feature", "properties": { "orden": 223 }, "geometry": { "type": "Point", "coordinates": [ -64.0914812302901, -30.980517190659544 ] } },
{ "type": "Feature", "properties": { "orden": 224 }, "geometry": { "type": "Point", "coordinates": [ -64.091610021287835, -30.980409683904899 ] } },
{ "type": "Feature", "properties": { "orden": 225 }, "geometry": { "type": "Point", "coordinates": [ -64.091746874275657, -30.980439332672763 ] } },
{ "type": "Feature", "properties": { "orden": 226 }, "geometry": { "type": "Point", "coordinates": [ -64.091863461772633, -30.98040194094439 ] } },
{ "type": "Feature", "properties": { "orden": 227 }, "geometry": { "type": "Point", "coordinates": [ -64.091810536296691, -30.980321174216389 ] } },
{ "type": "Feature", "properties": { "orden": 228 }, "geometry": { "type": "Point", "coordinates": [ -64.09172434529485, -30.980173476961106 ] } },
{ "type": "Feature", "properties": { "orden": 229 }, "geometry": { "type": "Point", "coordinates": [ -64.091611867339168, -30.980000797414103 ] } },
{ "type": "Feature", "properties": { "orden": 230 }, "geometry": { "type": "Point", "coordinates": [ -64.09159153831385, -30.979928156578151 ] } },
{ "type": "Feature", "properties": { "orden": 231 }, "geometry": { "type": "Point", "coordinates": [ -64.091574363730473, -30.979847087624638 ] } },
{ "type": "Feature", "properties": { "orden": 232 }, "geometry": { "type": "Point", "coordinates": [ -64.091544189046346, -30.979766128519675 ] } },
{ "type": "Feature", "properties": { "orden": 233 }, "geometry": { "type": "Point", "coordinates": [ -64.091520450728225, -30.979679514048044 ] } },
{ "type": "Feature", "properties": { "orden": 234 }, "geometry": { "type": "Point", "coordinates": [ -64.091411830069845, -30.979845660495286 ] } },
{ "type": "Feature", "properties": { "orden": 235 }, "geometry": { "type": "Point", "coordinates": [ -64.091304993164954, -30.979882969436602 ] } },
{ "type": "Feature", "properties": { "orden": 236 }, "geometry": { "type": "Point", "coordinates": [ -64.091184869242412, -30.979895186157901 ] } },
{ "type": "Feature", "properties": { "orden": 237 }, "geometry": { "type": "Point", "coordinates": [ -64.091160908208707, -30.980074619655465 ] } },
{ "type": "Feature", "properties": { "orden": 238 }, "geometry": { "type": "Point", "coordinates": [ -64.091083448800148, -30.98012288220156 ] } },
{ "type": "Feature", "properties": { "orden": 239 }, "geometry": { "type": "Point", "coordinates": [ -64.090776065202149, -30.979960249491896 ] } },
{ "type": "Feature", "properties": { "orden": 240 }, "geometry": { "type": "Point", "coordinates": [ -64.090796457327315, -30.980038490904242 ] } },
{ "type": "Feature", "properties": { "orden": 241 }, "geometry": { "type": "Point", "coordinates": [ -64.090862318271235, -30.980113547857531 ] } },
{ "type": "Feature", "properties": { "orden": 242 }, "geometry": { "type": "Point", "coordinates": [ -64.090882774214407, -30.980197389685699 ] } },
{ "type": "Feature", "properties": { "orden": 243 }, "geometry": { "type": "Point", "coordinates": [ -64.090912821065331, -30.980267148082675 ] } },
{ "type": "Feature", "properties": { "orden": 244 }, "geometry": { "type": "Point", "coordinates": [ -64.091014847022549, -30.980378305838659 ] } },
{ "type": "Feature", "properties": { "orden": 245 }, "geometry": { "type": "Point", "coordinates": [ -64.090538591149709, -30.979657001542911 ] } },
{ "type": "Feature", "properties": { "orden": 246 }, "geometry": { "type": "Point", "coordinates": [ -64.090768865518854, -30.97961305001072 ] } },
{ "type": "Feature", "properties": { "orden": 247 }, "geometry": { "type": "Point", "coordinates": [ -64.090911261513725, -30.979558638300013 ] } },
{ "type": "Feature", "properties": { "orden": 248 }, "geometry": { "type": "Point", "coordinates": [ -64.091011630032895, -30.97952418480337 ] } },
{ "type": "Feature", "properties": { "orden": 249 }, "geometry": { "type": "Point", "coordinates": [ -64.091121493655564, -30.979467247138722 ] } },
{ "type": "Feature", "properties": { "orden": 250 }, "geometry": { "type": "Point", "coordinates": [ -64.091354475528306, -30.979375663440244 ] } },
{ "type": "Feature", "properties": { "orden": 251 }, "geometry": { "type": "Point", "coordinates": [ -64.091190954831589, -30.979001779700113 ] } },
{ "type": "Feature", "properties": { "orden": 252 }, "geometry": { "type": "Point", "coordinates": [ -64.091134366519853, -30.978884637276483 ] } },
{ "type": "Feature", "properties": { "orden": 253 }, "geometry": { "type": "Point", "coordinates": [ -64.091101165554463, -30.978823307012821 ] } },
{ "type": "Feature", "properties": { "orden": 254 }, "geometry": { "type": "Point", "coordinates": [ -64.091031832338828, -30.978728676078024 ] } },
{ "type": "Feature", "properties": { "orden": 255 }, "geometry": { "type": "Point", "coordinates": [ -64.090887684779815, -30.978914725563012 ] } },
{ "type": "Feature", "properties": { "orden": 256 }, "geometry": { "type": "Point", "coordinates": [ -64.090682520438833, -30.97888005165558 ] } },
{ "type": "Feature", "properties": { "orden": 257 }, "geometry": { "type": "Point", "coordinates": [ -64.090566443797954, -30.978962245776998 ] } },
{ "type": "Feature", "properties": { "orden": 258 }, "geometry": { "type": "Point", "coordinates": [ -64.090394193431621, -30.978963699861804 ] } },
{ "type": "Feature", "properties": { "orden": 259 }, "geometry": { "type": "Point", "coordinates": [ -64.090262089239886, -30.979065632408439 ] } },
{ "type": "Feature", "properties": { "orden": 260 }, "geometry": { "type": "Point", "coordinates": [ -64.090334449107914, -30.979140634806996 ] } },
{ "type": "Feature", "properties": { "orden": 261 }, "geometry": { "type": "Point", "coordinates": [ -64.090397409286922, -30.979246521857831 ] } },
{ "type": "Feature", "properties": { "orden": 262 }, "geometry": { "type": "Point", "coordinates": [ -64.090457119587597, -30.979352436308336 ] } },
{ "type": "Feature", "properties": { "orden": 263 }, "geometry": { "type": "Point", "coordinates": [ -64.090513293403205, -30.979433176205518 ] } },
{ "type": "Feature", "properties": { "orden": 264 }, "geometry": { "type": "Point", "coordinates": [ -64.089991355213016, -30.978695452378389 ] } },
{ "type": "Feature", "properties": { "orden": 265 }, "geometry": { "type": "Point", "coordinates": [ -64.090088600517063, -30.978672227904113 ] } },
{ "type": "Feature", "properties": { "orden": 266 }, "geometry": { "type": "Point", "coordinates": [ -64.090182563941909, -30.97864623056731 ] } },
{ "type": "Feature", "properties": { "orden": 267 }, "geometry": { "type": "Point", "coordinates": [ -64.090212740014863, -30.978441540356719 ] } },
{ "type": "Feature", "properties": { "orden": 268 }, "geometry": { "type": "Point", "coordinates": [ -64.090405922174639, -30.978565931749397 ] } },
{ "type": "Feature", "properties": { "orden": 269 }, "geometry": { "type": "Point", "coordinates": [ -64.090476753353414, -30.978506523618325 ] } },
{ "type": "Feature", "properties": { "orden": 270 }, "geometry": { "type": "Point", "coordinates": [ -64.090619338976069, -30.978468913562406 ] } },
{ "type": "Feature", "properties": { "orden": 271 }, "geometry": { "type": "Point", "coordinates": [ -64.090816887623447, -30.978405634862675 ] } },
{ "type": "Feature", "properties": { "orden": 272 }, "geometry": { "type": "Point", "coordinates": [ -64.090713590128004, -30.978182468147722 ] } },
{ "type": "Feature", "properties": { "orden": 273 }, "geometry": { "type": "Point", "coordinates": [ -64.0903523010562, -30.978137909864294 ] } },
{ "type": "Feature", "properties": { "orden": 274 }, "geometry": { "type": "Point", "coordinates": [ -64.090562212250873, -30.978018517472922 ] } },
{ "type": "Feature", "properties": { "orden": 275 }, "geometry": { "type": "Point", "coordinates": [ -64.090548097840028, -30.977920619585124 ] } },
{ "type": "Feature", "properties": { "orden": 276 }, "geometry": { "type": "Point", "coordinates": [ -64.090540292341075, -30.977805865512224 ] } },
{ "type": "Feature", "properties": { "orden": 277 }, "geometry": { "type": "Point", "coordinates": [ -64.09040108498634, -30.977854648902873 ] } },
{ "type": "Feature", "properties": { "orden": 278 }, "geometry": { "type": "Point", "coordinates": [ -64.090287845420363, -30.977900412491618 ] } },
{ "type": "Feature", "properties": { "orden": 279 }, "geometry": { "type": "Point", "coordinates": [ -64.090187350974162, -30.977923664526497 ] } },
{ "type": "Feature", "properties": { "orden": 280 }, "geometry": { "type": "Point", "coordinates": [ -64.090100111009079, -30.977969208532627 ] } },
{ "type": "Feature", "properties": { "orden": 281 }, "geometry": { "type": "Point", "coordinates": [ -64.090026284625182, -30.978051045630309 ] } },
{ "type": "Feature", "properties": { "orden": 282 }, "geometry": { "type": "Point", "coordinates": [ -64.089876276523142, -30.978007503521322 ] } },
{ "type": "Feature", "properties": { "orden": 283 }, "geometry": { "type": "Point", "coordinates": [ -64.089733468527143, -30.978025511218242 ] } },
{ "type": "Feature", "properties": { "orden": 284 }, "geometry": { "type": "Point", "coordinates": [ -64.089816340843626, -30.978167636948758 ] } },
{ "type": "Feature", "properties": { "orden": 285 }, "geometry": { "type": "Point", "coordinates": [ -64.089885449687813, -30.978242667051475 ] } },
{ "type": "Feature", "properties": { "orden": 286 }, "geometry": { "type": "Point", "coordinates": [ -64.089944840509986, -30.978320579597465 ] } },
{ "type": "Feature", "properties": { "orden": 287 }, "geometry": { "type": "Point", "coordinates": [ -64.089975458940089, -30.978440742194969 ] } },
{ "type": "Feature", "properties": { "orden": 288 }, "geometry": { "type": "Point", "coordinates": [ -64.090018854627459, -30.97854119355868 ] } },
{ "type": "Feature", "properties": { "orden": 289 }, "geometry": { "type": "Point", "coordinates": [ -64.089438690929086, -30.977255062983957 ] } },
{ "type": "Feature", "properties": { "orden": 290 }, "geometry": { "type": "Point", "coordinates": [ -64.09016148482884, -30.977363785362822 ] } },
{ "type": "Feature", "properties": { "orden": 291 }, "geometry": { "type": "Point", "coordinates": [ -64.088985117082345, -30.976525159459342 ] } },
{ "type": "Feature", "properties": { "orden": 292 }, "geometry": { "type": "Point", "coordinates": [ -64.089199453173961, -30.97650935004409 ] } },
{ "type": "Feature", "properties": { "orden": 293 }, "geometry": { "type": "Point", "coordinates": [ -64.08933238204348, -30.976480224319065 ] } },
{ "type": "Feature", "properties": { "orden": 294 }, "geometry": { "type": "Point", "coordinates": [ -64.089423093638572, -30.976454254976442 ] } },
{ "type": "Feature", "properties": { "orden": 295 }, "geometry": { "type": "Point", "coordinates": [ -64.089582308049643, -30.976450111716698 ] } },
{ "type": "Feature", "properties": { "orden": 296 }, "geometry": { "type": "Point", "coordinates": [ -64.089705677843824, -30.976437869162133 ] } },
{ "type": "Feature", "properties": { "orden": 297 }, "geometry": { "type": "Point", "coordinates": [ -64.089868333054739, -30.976450499453431 ] } },
{ "type": "Feature", "properties": { "orden": 298 }, "geometry": { "type": "Point", "coordinates": [ -64.089838192778629, -30.976372340068512 ] } },
{ "type": "Feature", "properties": { "orden": 299 }, "geometry": { "type": "Point", "coordinates": [ -64.089759112886668, -30.976277790595713 ] } },
{ "type": "Feature", "properties": { "orden": 300 }, "geometry": { "type": "Point", "coordinates": [ -64.089699818979085, -30.976208278565878 ] } },
{ "type": "Feature", "properties": { "orden": 301 }, "geometry": { "type": "Point", "coordinates": [ -64.089653333918221, -30.976121855538022 ] } },
{ "type": "Feature", "properties": { "orden": 302 }, "geometry": { "type": "Point", "coordinates": [ -64.089600126434362, -30.976015885773698 ] } },
{ "type": "Feature", "properties": { "orden": 303 }, "geometry": { "type": "Point", "coordinates": [ -64.089421158832678, -30.97599779171945 ] } },
{ "type": "Feature", "properties": { "orden": 304 }, "geometry": { "type": "Point", "coordinates": [ -64.08952056991896, -30.975879332837749 ] } },
{ "type": "Feature", "properties": { "orden": 305 }, "geometry": { "type": "Point", "coordinates": [ -64.08949342554169, -30.975778744185305 ] } },
{ "type": "Feature", "properties": { "orden": 306 }, "geometry": { "type": "Point", "coordinates": [ -64.089450318015224, -30.975703494541797 ] } },
{ "type": "Feature", "properties": { "orden": 307 }, "geometry": { "type": "Point", "coordinates": [ -64.089348166001514, -30.975866784297803 ] } },
{ "type": "Feature", "properties": { "orden": 308 }, "geometry": { "type": "Point", "coordinates": [ -64.08935023336808, -30.976048798605881 ] } },
{ "type": "Feature", "properties": { "orden": 309 }, "geometry": { "type": "Point", "coordinates": [ -64.089237637486946, -30.975864915787639 ] } },
{ "type": "Feature", "properties": { "orden": 310 }, "geometry": { "type": "Point", "coordinates": [ -64.089236454734191, -30.976046957504476 ] } },
{ "type": "Feature", "properties": { "orden": 311 }, "geometry": { "type": "Point", "coordinates": [ -64.089165878937862, -30.97612876671478 ] } },
{ "type": "Feature", "properties": { "orden": 312 }, "geometry": { "type": "Point", "coordinates": [ -64.089046490700156, -30.97620538641662 ] } },
{ "type": "Feature", "properties": { "orden": 313 }, "geometry": { "type": "Point", "coordinates": [ -64.088843787896352, -30.976100676513262 ] } },
{ "type": "Feature", "properties": { "orden": 314 }, "geometry": { "type": "Point", "coordinates": [ -64.088677883462935, -30.976088072301948 ] } },
{ "type": "Feature", "properties": { "orden": 315 }, "geometry": { "type": "Point", "coordinates": [ -64.088763779864962, -30.976210569893677 ] } },
{ "type": "Feature", "properties": { "orden": 316 }, "geometry": { "type": "Point", "coordinates": [ -64.088823359225444, -30.976305284353327 ] } },
{ "type": "Feature", "properties": { "orden": 317 }, "geometry": { "type": "Point", "coordinates": [ -64.089853273461401, -30.975697295217294 ] } },
{ "type": "Feature", "properties": { "orden": 318 }, "geometry": { "type": "Point", "coordinates": [ -64.089937388910656, -30.975662979706147 ] } },
{ "type": "Feature", "properties": { "orden": 319 }, "geometry": { "type": "Point", "coordinates": [ -64.090034472050846, -30.975625754235672 ] } },
{ "type": "Feature", "properties": { "orden": 320 }, "geometry": { "type": "Point", "coordinates": [ -64.090137959415074, -30.975580073186737 ] } },
{ "type": "Feature", "properties": { "orden": 321 }, "geometry": { "type": "Point", "coordinates": [ -64.090225420038607, -30.975554130726469 ] } },
{ "type": "Feature", "properties": { "orden": 322 }, "geometry": { "type": "Point", "coordinates": [ -64.090345220349207, -30.975513912820709 ] } },
{ "type": "Feature", "properties": { "orden": 323 }, "geometry": { "type": "Point", "coordinates": [ -64.090454984354508, -30.975448575129047 ] } },
{ "type": "Feature", "properties": { "orden": 324 }, "geometry": { "type": "Point", "coordinates": [ -64.090545758333363, -30.975428205462542 ] } },
{ "type": "Feature", "properties": { "orden": 325 }, "geometry": { "type": "Point", "coordinates": [ -64.090560161034134, -30.975265655572507 ] } },
{ "type": "Feature", "properties": { "orden": 326 }, "geometry": { "type": "Point", "coordinates": [ -64.090713701577798, -30.975334371532707 ] } },
{ "type": "Feature", "properties": { "orden": 327 }, "geometry": { "type": "Point", "coordinates": [ -64.090719180607351, -30.975530359429335 ] } },
{ "type": "Feature", "properties": { "orden": 328 }, "geometry": { "type": "Point", "coordinates": [ -64.090743426595296, -30.97566177764751 ] } },
{ "type": "Feature", "properties": { "orden": 329 }, "geometry": { "type": "Point", "coordinates": [ -64.090822984637882, -30.975798329798071 ] } },
{ "type": "Feature", "properties": { "orden": 330 }, "geometry": { "type": "Point", "coordinates": [ -64.090895406089459, -30.975878932404786 ] } },
{ "type": "Feature", "properties": { "orden": 331 }, "geometry": { "type": "Point", "coordinates": [ -64.090974741563343, -30.97599588291779 ] } },
{ "type": "Feature", "properties": { "orden": 332 }, "geometry": { "type": "Point", "coordinates": [ -64.090696459757424, -30.976104651256485 ] } },
{ "type": "Feature", "properties": { "orden": 333 }, "geometry": { "type": "Point", "coordinates": [ -64.090566877298912, -30.976142151586274 ] } },
{ "type": "Feature", "properties": { "orden": 334 }, "geometry": { "type": "Point", "coordinates": [ -64.090201483488968, -30.976307663990568 ] } },
{ "type": "Feature", "properties": { "orden": 335 }, "geometry": { "type": "Point", "coordinates": [ -64.09016809307775, -30.976229532112594 ] } },
{ "type": "Feature", "properties": { "orden": 336 }, "geometry": { "type": "Point", "coordinates": [ -64.09013785714798, -30.976142972141201 ] } },
{ "type": "Feature", "properties": { "orden": 337 }, "geometry": { "type": "Point", "coordinates": [ -64.090107525791367, -30.976048011502161 ] } },
{ "type": "Feature", "properties": { "orden": 338 }, "geometry": { "type": "Point", "coordinates": [ -64.090080476229915, -30.975955823649592 ] } },
{ "type": "Feature", "properties": { "orden": 339 }, "geometry": { "type": "Point", "coordinates": [ -64.090024464028929, -30.975889084562588 ] } },
{ "type": "Feature", "properties": { "orden": 340 }, "geometry": { "type": "Point", "coordinates": [ -64.089977851547843, -30.975791460772179 ] } },
{ "type": "Feature", "properties": { "orden": 341 }, "geometry": { "type": "Point", "coordinates": [ -64.090609375134107, -30.977021145893431 ] } },
{ "type": "Feature", "properties": { "orden": 342 }, "geometry": { "type": "Point", "coordinates": [ -64.090536252511754, -30.976878938345731 ] } },
{ "type": "Feature", "properties": { "orden": 343 }, "geometry": { "type": "Point", "coordinates": [ -64.090577227978571, -30.976766572935603 ] } },
{ "type": "Feature", "properties": { "orden": 344 }, "geometry": { "type": "Point", "coordinates": [ -64.090466189007842, -30.976719902002532 ] } },
{ "type": "Feature", "properties": { "orden": 345 }, "geometry": { "type": "Point", "coordinates": [ -64.09042301660611, -30.976639052284725 ] } },
{ "type": "Feature", "properties": { "orden": 346 }, "geometry": { "type": "Point", "coordinates": [ -64.090363435471161, -30.976544338609802 ] } },
{ "type": "Feature", "properties": { "orden": 347 }, "geometry": { "type": "Point", "coordinates": [ -64.090568403636468, -30.976562211844382 ] } },
{ "type": "Feature", "properties": { "orden": 348 }, "geometry": { "type": "Point", "coordinates": [ -64.090682246561073, -30.976569652194616 ] } },
{ "type": "Feature", "properties": { "orden": 349 }, "geometry": { "type": "Point", "coordinates": [ -64.090808579619008, -30.976532179180914 ] } },
{ "type": "Feature", "properties": { "orden": 350 }, "geometry": { "type": "Point", "coordinates": [ -64.09108546081373, -30.976300200975103 ] } },
{ "type": "Feature", "properties": { "orden": 351 }, "geometry": { "type": "Point", "coordinates": [ -64.091270897233869, -30.976601087278151 ] } },
{ "type": "Feature", "properties": { "orden": 352 }, "geometry": { "type": "Point", "coordinates": [ -64.09132283254327, -30.976880697259698 ] } },
{ "type": "Feature", "properties": { "orden": 353 }, "geometry": { "type": "Point", "coordinates": [ -64.090820714398433, -30.97759906234408 ] } },
{ "type": "Feature", "properties": { "orden": 354 }, "geometry": { "type": "Point", "coordinates": [ -64.090972920992456, -30.977550168726346 ] } },
{ "type": "Feature", "properties": { "orden": 355 }, "geometry": { "type": "Point", "coordinates": [ -64.09110929180963, -30.977537815016095 ] } },
{ "type": "Feature", "properties": { "orden": 356 }, "geometry": { "type": "Point", "coordinates": [ -64.091232790208068, -30.977536771847458 ] } },
{ "type": "Feature", "properties": { "orden": 357 }, "geometry": { "type": "Point", "coordinates": [ -64.091326592866821, -30.977496772619226 ] } },
{ "type": "Feature", "properties": { "orden": 358 }, "geometry": { "type": "Point", "coordinates": [ -64.09144588518491, -30.977411750177335 ] } },
{ "type": "Feature", "properties": { "orden": 359 }, "geometry": { "type": "Point", "coordinates": [ -64.091561959212044, -30.977329555308117 ] } },
{ "type": "Feature", "properties": { "orden": 360 }, "geometry": { "type": "Point", "coordinates": [ -64.091612142774338, -30.977455153159344 ] } },
{ "type": "Feature", "properties": { "orden": 361 }, "geometry": { "type": "Point", "coordinates": [ -64.091726273705532, -30.977487794516954 ] } },
{ "type": "Feature", "properties": { "orden": 362 }, "geometry": { "type": "Point", "coordinates": [ -64.091675262556663, -30.977575040693612 ] } },
{ "type": "Feature", "properties": { "orden": 363 }, "geometry": { "type": "Point", "coordinates": [ -64.0917069181382, -30.977643385098563 ] } },
{ "type": "Feature", "properties": { "orden": 364 }, "geometry": { "type": "Point", "coordinates": [ -64.091743353077646, -30.977703287643152 ] } },
{ "type": "Feature", "properties": { "orden": 365 }, "geometry": { "type": "Point", "coordinates": [ -64.091788056431625, -30.977775722484115 ] } },
{ "type": "Feature", "properties": { "orden": 366 }, "geometry": { "type": "Point", "coordinates": [ -64.091809770981754, -30.977827347958531 ] } },
{ "type": "Feature", "properties": { "orden": 367 }, "geometry": { "type": "Point", "coordinates": [ -64.091908146764595, -30.977903529843601 ] } },
{ "type": "Feature", "properties": { "orden": 368 }, "geometry": { "type": "Point", "coordinates": [ -64.092005168746056, -30.978003527228221 ] } },
{ "type": "Feature", "properties": { "orden": 369 }, "geometry": { "type": "Point", "coordinates": [ -64.09194227253569, -30.978046066191393 ] } },
{ "type": "Feature", "properties": { "orden": 370 }, "geometry": { "type": "Point", "coordinates": [ -64.091845665027407, -30.977982471579619 ] } },
{ "type": "Feature", "properties": { "orden": 371 }, "geometry": { "type": "Point", "coordinates": [ -64.091777670642855, -30.978005450149134 ] } },
{ "type": "Feature", "properties": { "orden": 372 }, "geometry": { "type": "Point", "coordinates": [ -64.091703335661805, -30.97804248469998 ] } },
{ "type": "Feature", "properties": { "orden": 373 }, "geometry": { "type": "Point", "coordinates": [ -64.091614168547835, -30.978061441384177 ] } },
{ "type": "Feature", "properties": { "orden": 374 }, "geometry": { "type": "Point", "coordinates": [ -64.091608719255547, -30.977868253864635 ] } },
{ "type": "Feature", "properties": { "orden": 375 }, "geometry": { "type": "Point", "coordinates": [ -64.091532440607736, -30.977877299876202 ] } },
{ "type": "Feature", "properties": { "orden": 376 }, "geometry": { "type": "Point", "coordinates": [ -64.091402744591051, -30.977905000322515 ] } },
{ "type": "Feature", "properties": { "orden": 377 }, "geometry": { "type": "Point", "coordinates": [ -64.091523360472962, -30.978079011629553 ] } },
{ "type": "Feature", "properties": { "orden": 378 }, "geometry": { "type": "Point", "coordinates": [ -64.091482130646654, -30.978168975567137 ] } },
{ "type": "Feature", "properties": { "orden": 379 }, "geometry": { "type": "Point", "coordinates": [ -64.091409372608496, -30.978201795897657 ] } },
{ "type": "Feature", "properties": { "orden": 380 }, "geometry": { "type": "Point", "coordinates": [ -64.091234670264512, -30.978273283962647 ] } },
{ "type": "Feature", "properties": { "orden": 381 }, "geometry": { "type": "Point", "coordinates": [ -64.091162549344915, -30.978219283690638 ] } },
{ "type": "Feature", "properties": { "orden": 382 }, "geometry": { "type": "Point", "coordinates": [ -64.091244531672416, -30.978140177547697 ] } },
{ "type": "Feature", "properties": { "orden": 383 }, "geometry": { "type": "Point", "coordinates": [ -64.091196467050864, -30.978057969208667 ] } },
{ "type": "Feature", "properties": { "orden": 384 }, "geometry": { "type": "Point", "coordinates": [ -64.091136916097497, -30.977966056167297 ] } },
{ "type": "Feature", "properties": { "orden": 385 }, "geometry": { "type": "Point", "coordinates": [ -64.091078974315664, -30.977872729260771 ] } },
{ "type": "Feature", "properties": { "orden": 386 }, "geometry": { "type": "Point", "coordinates": [ -64.091019471378914, -30.977785016483946 ] } },
{ "type": "Feature", "properties": { "orden": 387 }, "geometry": { "type": "Point", "coordinates": [ -64.090870530850196, -30.97769245799131 ] } },
{ "type": "Feature", "properties": { "orden": 388 }, "geometry": { "type": "Point", "coordinates": [ -64.091326841268739, -30.978661072810453 ] } },
{ "type": "Feature", "properties": { "orden": 389 }, "geometry": { "type": "Point", "coordinates": [ -64.091417363107411, -30.978618300737672 ] } },
{ "type": "Feature", "properties": { "orden": 390 }, "geometry": { "type": "Point", "coordinates": [ -64.091521012323923, -30.978586619625816 ] } },
{ "type": "Feature", "properties": { "orden": 391 }, "geometry": { "type": "Point", "coordinates": [ -64.091715948141669, -30.978579371358553 ] } },
{ "type": "Feature", "properties": { "orden": 392 }, "geometry": { "type": "Point", "coordinates": [ -64.09186140074678, -30.978508129874019 ] } },
{ "type": "Feature", "properties": { "orden": 393 }, "geometry": { "type": "Point", "coordinates": [ -64.091987416979165, -30.978442653502977 ] } },
{ "type": "Feature", "properties": { "orden": 394 }, "geometry": { "type": "Point", "coordinates": [ -64.092064173050275, -30.978332785681108 ] } },
{ "type": "Feature", "properties": { "orden": 395 }, "geometry": { "type": "Point", "coordinates": [ -64.09221000772088, -30.97829514641402 ] } },
{ "type": "Feature", "properties": { "orden": 396 }, "geometry": { "type": "Point", "coordinates": [ -64.092192389434487, -30.97846052405259 ] } },
{ "type": "Feature", "properties": { "orden": 397 }, "geometry": { "type": "Point", "coordinates": [ -64.092202872917539, -30.978524846593803 ] } },
{ "type": "Feature", "properties": { "orden": 398 }, "geometry": { "type": "Point", "coordinates": [ -64.09221192277505, -30.978605984170478 ] } },
{ "type": "Feature", "properties": { "orden": 399 }, "geometry": { "type": "Point", "coordinates": [ -64.092225592499219, -30.978664678796267 ] } },
{ "type": "Feature", "properties": { "orden": 400 }, "geometry": { "type": "Point", "coordinates": [ -64.092268974681531, -30.978763729234544 ] } },
{ "type": "Feature", "properties": { "orden": 401 }, "geometry": { "type": "Point", "coordinates": [ -64.092373343219506, -30.978937877064272 ] } },
{ "type": "Feature", "properties": { "orden": 402 }, "geometry": { "type": "Point", "coordinates": [ -64.092457031774245, -30.97900858172283 ] } },
{ "type": "Feature", "properties": { "orden": 403 }, "geometry": { "type": "Point", "coordinates": [ -64.092254320996986, -30.979046702205046 ] } },
{ "type": "Feature", "properties": { "orden": 404 }, "geometry": { "type": "Point", "coordinates": [ -64.092152376281945, -30.979085370710674 ] } },
{ "type": "Feature", "properties": { "orden": 405 }, "geometry": { "type": "Point", "coordinates": [ -64.092014777027359, -30.979132742008481 ] } },
{ "type": "Feature", "properties": { "orden": 406 }, "geometry": { "type": "Point", "coordinates": [ -64.091862297511028, -30.979157835049573 ] } },
{ "type": "Feature", "properties": { "orden": 407 }, "geometry": { "type": "Point", "coordinates": [ -64.091765641975087, -30.979232864863558 ] } },
{ "type": "Feature", "properties": { "orden": 408 }, "geometry": { "type": "Point", "coordinates": [ -64.091649454306506, -30.979305259184351 ] } },
{ "type": "Feature", "properties": { "orden": 409 }, "geometry": { "type": "Point", "coordinates": [ -64.091624106952139, -30.979220058566117 ] } },
{ "type": "Feature", "properties": { "orden": 410 }, "geometry": { "type": "Point", "coordinates": [ -64.091582190839219, -30.979106993092248 ] } },
{ "type": "Feature", "properties": { "orden": 411 }, "geometry": { "type": "Point", "coordinates": [ -64.091492161698241, -30.97890751907298 ] } },
{ "type": "Feature", "properties": { "orden": 412 }, "geometry": { "type": "Point", "coordinates": [ -64.091445769268077, -30.978829497445261 ] } },
{ "type": "Feature", "properties": { "orden": 413 }, "geometry": { "type": "Point", "coordinates": [ -64.09145746257272, -30.978714578711319 ] } },
{ "type": "Feature", "properties": { "orden": 414 }, "geometry": { "type": "Point", "coordinates": [ -64.092080597291513, -30.979917721792187 ] } },
{ "type": "Feature", "properties": { "orden": 415 }, "geometry": { "type": "Point", "coordinates": [ -64.092004730343405, -30.97982034617371 ] } },
{ "type": "Feature", "properties": { "orden": 416 }, "geometry": { "type": "Point", "coordinates": [ -64.091961395748498, -30.979725495991506 ] } },
{ "type": "Feature", "properties": { "orden": 417 }, "geometry": { "type": "Point", "coordinates": [ -64.091920896760584, -30.97959421550928 ] } },
{ "type": "Feature", "properties": { "orden": 418 }, "geometry": { "type": "Point", "coordinates": [ -64.092102292330367, -30.979539472828368 ] } },
{ "type": "Feature", "properties": { "orden": 419 }, "geometry": { "type": "Point", "coordinates": [ -64.092290283419004, -30.979493075581821 ] } },
{ "type": "Feature", "properties": { "orden": 420 }, "geometry": { "type": "Point", "coordinates": [ -64.092432805921433, -30.979449863080212 ] } },
{ "type": "Feature", "properties": { "orden": 421 }, "geometry": { "type": "Point", "coordinates": [ -64.092580520255481, -30.979291786605689 ] } },
{ "type": "Feature", "properties": { "orden": 422 }, "geometry": { "type": "Point", "coordinates": [ -64.092659637361336, -30.979389134399174 ] } },
{ "type": "Feature", "properties": { "orden": 423 }, "geometry": { "type": "Point", "coordinates": [ -64.092696153354851, -30.979456037168141 ] } },
{ "type": "Feature", "properties": { "orden": 424 }, "geometry": { "type": "Point", "coordinates": [ -64.092726839437631, -30.979581799433689 ] } },
{ "type": "Feature", "properties": { "orden": 425 }, "geometry": { "type": "Point", "coordinates": [ -64.092753988388495, -30.979682387243134 ] } },
{ "type": "Feature", "properties": { "orden": 426 }, "geometry": { "type": "Point", "coordinates": [ -64.092926846291149, -30.979734134069748 ] } },
{ "type": "Feature", "properties": { "orden": 427 }, "geometry": { "type": "Point", "coordinates": [ -64.092956894458311, -30.979803891964472 ] } },
{ "type": "Feature", "properties": { "orden": 428 }, "geometry": { "type": "Point", "coordinates": [ -64.092958937079203, -30.979983105727385 ] } },
{ "type": "Feature", "properties": { "orden": 429 }, "geometry": { "type": "Point", "coordinates": [ -64.092764636773538, -30.98004636023763 ] } },
{ "type": "Feature", "properties": { "orden": 430 }, "geometry": { "type": "Point", "coordinates": [ -64.092615645374821, -30.980092428314645 ] } },
{ "type": "Feature", "properties": { "orden": 431 }, "geometry": { "type": "Point", "coordinates": [ -64.092489755068854, -30.980169106184658 ] } },
{ "type": "Feature", "properties": { "orden": 432 }, "geometry": { "type": "Point", "coordinates": [ -64.09241236008053, -30.980222969943888 ] } },
{ "type": "Feature", "properties": { "orden": 433 }, "geometry": { "type": "Point", "coordinates": [ -64.092191803355448, -30.980264041764755 ] } },
{ "type": "Feature", "properties": { "orden": 434 }, "geometry": { "type": "Point", "coordinates": [ -64.092114819804095, -30.98006865867508 ] } },
{ "type": "Feature", "properties": { "orden": 435 }, "geometry": { "type": "Point", "coordinates": [ -64.092521274786478, -30.98065332352062 ] } },
{ "type": "Feature", "properties": { "orden": 436 }, "geometry": { "type": "Point", "coordinates": [ -64.092711688229741, -30.980534092542868 ] } },
{ "type": "Feature", "properties": { "orden": 437 }, "geometry": { "type": "Point", "coordinates": [ -64.092850706695444, -30.980468505328417 ] } },
{ "type": "Feature", "properties": { "orden": 438 }, "geometry": { "type": "Point", "coordinates": [ -64.092976884341383, -30.980417029040872 ] } },
{ "type": "Feature", "properties": { "orden": 439 }, "geometry": { "type": "Point", "coordinates": [ -64.09312141299246, -30.980264579885905 ] } },
{ "type": "Feature", "properties": { "orden": 440 }, "geometry": { "type": "Point", "coordinates": [ -64.093200818783899, -30.98038712923325 ] } },
{ "type": "Feature", "properties": { "orden": 441 }, "geometry": { "type": "Point", "coordinates": [ -64.093228894298591, -30.980568923134616 ] } },
{ "type": "Feature", "properties": { "orden": 442 }, "geometry": { "type": "Point", "coordinates": [ -64.093234091778655, -30.980739708710527 ] } },
{ "type": "Feature", "properties": { "orden": 443 }, "geometry": { "type": "Point", "coordinates": [ -64.093397457086724, -30.980813939080662 ] } },
{ "type": "Feature", "properties": { "orden": 444 }, "geometry": { "type": "Point", "coordinates": [ -64.093515481346685, -30.980902555503999 ] } },
{ "type": "Feature", "properties": { "orden": 445 }, "geometry": { "type": "Point", "coordinates": [ -64.093434836303928, -30.980956447383758 ] } },
{ "type": "Feature", "properties": { "orden": 446 }, "geometry": { "type": "Point", "coordinates": [ -64.093331249087996, -30.980993730493982 ] } },
{ "type": "Feature", "properties": { "orden": 447 }, "geometry": { "type": "Point", "coordinates": [ -64.093195001427461, -30.981017287510245 ] } },
{ "type": "Feature", "properties": { "orden": 448 }, "geometry": { "type": "Point", "coordinates": [ -64.093046742918418, -30.981127761039758 ] } },
{ "type": "Feature", "properties": { "orden": 449 }, "geometry": { "type": "Point", "coordinates": [ -64.092949208674497, -30.981125785843808 ] } },
{ "type": "Feature", "properties": { "orden": 450 }, "geometry": { "type": "Point", "coordinates": [ -64.092855179825904, -30.981146184793964 ] } },
{ "type": "Feature", "properties": { "orden": 451 }, "geometry": { "type": "Point", "coordinates": [ -64.092784316351512, -30.981202794002112 ] } },
{ "type": "Feature", "properties": { "orden": 452 }, "geometry": { "type": "Point", "coordinates": [ -64.09264819587716, -30.981237551309849 ] } },
{ "type": "Feature", "properties": { "orden": 453 }, "geometry": { "type": "Point", "coordinates": [ -64.092749837038454, -30.981029455639113 ] } },
{ "type": "Feature", "properties": { "orden": 454 }, "geometry": { "type": "Point", "coordinates": [ -64.092735368842526, -30.980900755735405 ] } },
{ "type": "Feature", "properties": { "orden": 455 }, "geometry": { "type": "Point", "coordinates": [ -64.092539822241562, -30.980854801562984 ] } },
{ "type": "Feature", "properties": { "orden": 456 }, "geometry": { "type": "Point", "coordinates": [ -64.092867137464978, -30.981624966476769 ] } },
{ "type": "Feature", "properties": { "orden": 457 }, "geometry": { "type": "Point", "coordinates": [ -64.093010109700543, -30.981620956283624 ] } },
{ "type": "Feature", "properties": { "orden": 458 }, "geometry": { "type": "Point", "coordinates": [ -64.093159645955055, -30.98162249135072 ] } },
{ "type": "Feature", "properties": { "orden": 459 }, "geometry": { "type": "Point", "coordinates": [ -64.09330542126267, -30.98157925032972 ] } },
{ "type": "Feature", "properties": { "orden": 460 }, "geometry": { "type": "Point", "coordinates": [ -64.093362390295553, -30.981444344889372 ] } },
{ "type": "Feature", "properties": { "orden": 461 }, "geometry": { "type": "Point", "coordinates": [ -64.093443259306312, -30.981410054545773 ] } },
{ "type": "Feature", "properties": { "orden": 462 }, "geometry": { "type": "Point", "coordinates": [ -64.093571889531205, -30.981288544803494 ] } },
{ "type": "Feature", "properties": { "orden": 463 }, "geometry": { "type": "Point", "coordinates": [ -64.09366104703858, -30.981411011269007 ] } },
{ "type": "Feature", "properties": { "orden": 464 }, "geometry": { "type": "Point", "coordinates": [ -64.093687494878409, -30.981449994117941 ] } },
{ "type": "Feature", "properties": { "orden": 465 }, "geometry": { "type": "Point", "coordinates": [ -64.093634255464579, -30.98162687537895 ] } },
{ "type": "Feature", "properties": { "orden": 466 }, "geometry": { "type": "Point", "coordinates": [ -64.093713375622116, -30.981724222421668 ] } },
{ "type": "Feature", "properties": { "orden": 467 }, "geometry": { "type": "Point", "coordinates": [ -64.093851413023003, -30.981857476790331 ] } },
{ "type": "Feature", "properties": { "orden": 468 }, "geometry": { "type": "Point", "coordinates": [ -64.094083384358143, -30.981961930573242 ] } },
{ "type": "Feature", "properties": { "orden": 469 }, "geometry": { "type": "Point", "coordinates": [ -64.093991934144356, -30.981923498357059 ] } },
{ "type": "Feature", "properties": { "orden": 470 }, "geometry": { "type": "Point", "coordinates": [ -64.09391476226935, -30.981996964508262 ] } },
{ "type": "Feature", "properties": { "orden": 471 }, "geometry": { "type": "Point", "coordinates": [ -64.093879681959535, -30.982056071749827 ] } },
{ "type": "Feature", "properties": { "orden": 472 }, "geometry": { "type": "Point", "coordinates": [ -64.093775550729589, -30.982045751607846 ] } },
{ "type": "Feature", "properties": { "orden": 473 }, "geometry": { "type": "Point", "coordinates": [ -64.093672154128797, -30.982099836290345 ] } },
{ "type": "Feature", "properties": { "orden": 474 }, "geometry": { "type": "Point", "coordinates": [ -64.093542245542451, -30.982109337599653 ] } },
{ "type": "Feature", "properties": { "orden": 475 }, "geometry": { "type": "Point", "coordinates": [ -64.093435790221164, -30.982180250893713 ] } },
{ "type": "Feature", "properties": { "orden": 476 }, "geometry": { "type": "Point", "coordinates": [ -64.093348356478131, -30.982208995837418 ] } },
{ "type": "Feature", "properties": { "orden": 477 }, "geometry": { "type": "Point", "coordinates": [ -64.093232246331951, -30.982288392140479 ] } },
{ "type": "Feature", "properties": { "orden": 478 }, "geometry": { "type": "Point", "coordinates": [ -64.093146179002403, -30.982151896827066 ] } },
{ "type": "Feature", "properties": { "orden": 479 }, "geometry": { "type": "Point", "coordinates": [ -64.093062851283094, -30.981970570520179 ] } },
{ "type": "Feature", "properties": { "orden": 480 }, "geometry": { "type": "Point", "coordinates": [ -64.092980034592316, -30.981834047574189 ] } },
{ "type": "Feature", "properties": { "orden": 481 }, "geometry": { "type": "Point", "coordinates": [ -64.092933511806294, -30.981744825720536 ] } },
{ "type": "Feature", "properties": { "orden": 482 }, "geometry": { "type": "Point", "coordinates": [ -64.094536865257012, -30.981396591795217 ] } },
{ "type": "Feature", "properties": { "orden": 483 }, "geometry": { "type": "Point", "coordinates": [ -64.094194293816884, -30.98071477576373 ] } },
{ "type": "Feature", "properties": { "orden": 484 }, "geometry": { "type": "Point", "coordinates": [ -64.093964561671726, -30.980806337054386 ] } },
{ "type": "Feature", "properties": { "orden": 485 }, "geometry": { "type": "Point", "coordinates": [ -64.093857788655512, -30.980849248531257 ] } },
{ "type": "Feature", "properties": { "orden": 486 }, "geometry": { "type": "Point", "coordinates": [ -64.093830063220196, -30.980698257157172 ] } },
{ "type": "Feature", "properties": { "orden": 487 }, "geometry": { "type": "Point", "coordinates": [ -64.093757348123418, -30.980592454473129 ] } },
{ "type": "Feature", "properties": { "orden": 488 }, "geometry": { "type": "Point", "coordinates": [ -64.093723186703713, -30.980447118531075 ] } },
{ "type": "Feature", "properties": { "orden": 489 }, "geometry": { "type": "Point", "coordinates": [ -64.09366713735723, -30.980377580976825 ] } },
{ "type": "Feature", "properties": { "orden": 490 }, "geometry": { "type": "Point", "coordinates": [ -64.093616885605968, -30.98024638365089 ] } },
{ "type": "Feature", "properties": { "orden": 491 }, "geometry": { "type": "Point", "coordinates": [ -64.093502175990722, -30.980163340210872 ] } },
{ "type": "Feature", "properties": { "orden": 492 }, "geometry": { "type": "Point", "coordinates": [ -64.093576703468258, -30.980143105900449 ] } },
{ "type": "Feature", "properties": { "orden": 493 }, "geometry": { "type": "Point", "coordinates": [ -64.093703008031028, -30.980102829777447 ] } },
{ "type": "Feature", "properties": { "orden": 494 }, "geometry": { "type": "Point", "coordinates": [ -64.093952055713999, -30.980279951903501 ] } },
{ "type": "Feature", "properties": { "orden": 495 }, "geometry": { "type": "Point", "coordinates": [ -64.094459830159934, -30.980342862296339 ] } },
{ "type": "Feature", "properties": { "orden": 496 }, "geometry": { "type": "Point", "coordinates": [ -64.093591998609327, -30.978919164486229 ] } },
{ "type": "Feature", "properties": { "orden": 497 }, "geometry": { "type": "Point", "coordinates": [ -64.093667930268836, -30.979022139594019 ] } },
{ "type": "Feature", "properties": { "orden": 498 }, "geometry": { "type": "Point", "coordinates": [ -64.093771650737921, -30.979281706523469 ] } },
{ "type": "Feature", "properties": { "orden": 499 }, "geometry": { "type": "Point", "coordinates": [ -64.093973223867806, -30.979571250023145 ] } },
{ "type": "Feature", "properties": { "orden": 500 }, "geometry": { "type": "Point", "coordinates": [ -64.093307179635516, -30.979025193344004 ] } },
{ "type": "Feature", "properties": { "orden": 501 }, "geometry": { "type": "Point", "coordinates": [ -64.093256903417185, -30.979176845057079 ] } },
{ "type": "Feature", "properties": { "orden": 502 }, "geometry": { "type": "Point", "coordinates": [ -64.093335542205409, -30.979232189199433 ] } },
{ "type": "Feature", "properties": { "orden": 503 }, "geometry": { "type": "Point", "coordinates": [ -64.093424314273918, -30.979321053340446 ] } },
{ "type": "Feature", "properties": { "orden": 504 }, "geometry": { "type": "Point", "coordinates": [ -64.093467203082128, -30.979376700000859 ] } },
{ "type": "Feature", "properties": { "orden": 505 }, "geometry": { "type": "Point", "coordinates": [ -64.093527236135074, -30.97951061509508 ] } },
{ "type": "Feature", "properties": { "orden": 506 }, "geometry": { "type": "Point", "coordinates": [ -64.093710387118676, -30.97960988198021 ] } },
{ "type": "Feature", "properties": { "orden": 507 }, "geometry": { "type": "Point", "coordinates": [ -64.093740946825349, -30.979724443111763 ] } },
{ "type": "Feature", "properties": { "orden": 508 }, "geometry": { "type": "Point", "coordinates": [ -64.093643861113222, -30.97976167140888 ] } },
{ "type": "Feature", "properties": { "orden": 509 }, "geometry": { "type": "Point", "coordinates": [ -64.093523993167963, -30.979796292011574 ] } },
{ "type": "Feature", "properties": { "orden": 510 }, "geometry": { "type": "Point", "coordinates": [ -64.093352092674635, -30.979828552436604 ] } },
{ "type": "Feature", "properties": { "orden": 511 }, "geometry": { "type": "Point", "coordinates": [ -64.093208625265873, -30.979646334904285 ] } },
{ "type": "Feature", "properties": { "orden": 512 }, "geometry": { "type": "Point", "coordinates": [ -64.093188502617366, -30.979591895739755 ] } },
{ "type": "Feature", "properties": { "orden": 513 }, "geometry": { "type": "Point", "coordinates": [ -64.093135528630313, -30.979506929237974 ] } },
{ "type": "Feature", "properties": { "orden": 514 }, "geometry": { "type": "Point", "coordinates": [ -64.093053748601761, -30.979318588508274 ] } },
{ "type": "Feature", "properties": { "orden": 515 }, "geometry": { "type": "Point", "coordinates": [ -64.092959543336121, -30.979180761583237 ] } },
{ "type": "Feature", "properties": { "orden": 516 }, "geometry": { "type": "Point", "coordinates": [ -64.093659506772809, -30.978568532302013 ] } },
{ "type": "Feature", "properties": { "orden": 517 }, "geometry": { "type": "Point", "coordinates": [ -64.093503922336211, -30.97860625573496 ] } },
{ "type": "Feature", "properties": { "orden": 518 }, "geometry": { "type": "Point", "coordinates": [ -64.093358343159252, -30.978666298182084 ] } },
{ "type": "Feature", "properties": { "orden": 519 }, "geometry": { "type": "Point", "coordinates": [ -64.093232359538959, -30.978734576088598 ] } },
{ "type": "Feature", "properties": { "orden": 520 }, "geometry": { "type": "Point", "coordinates": [ -64.093125524614621, -30.978771886496251 ] } },
{ "type": "Feature", "properties": { "orden": 521 }, "geometry": { "type": "Point", "coordinates": [ -64.093035003433116, -30.978814659750668 ] } },
{ "type": "Feature", "properties": { "orden": 522 }, "geometry": { "type": "Point", "coordinates": [ -64.092837104500717, -30.978847139452746 ] } },
{ "type": "Feature", "properties": { "orden": 523 }, "geometry": { "type": "Point", "coordinates": [ -64.092769966584285, -30.978660074878675 ] } },
{ "type": "Feature", "properties": { "orden": 524 }, "geometry": { "type": "Point", "coordinates": [ -64.092823940067134, -30.978547598858029 ] } },
{ "type": "Feature", "properties": { "orden": 525 }, "geometry": { "type": "Point", "coordinates": [ -64.09273497783505, -30.978441932968643 ] } },
{ "type": "Feature", "properties": { "orden": 526 }, "geometry": { "type": "Point", "coordinates": [ -64.092659462408179, -30.978375360076722 ] } },
{ "type": "Feature", "properties": { "orden": 527 }, "geometry": { "type": "Point", "coordinates": [ -64.09249801201959, -30.978183492068325 ] } },
{ "type": "Feature", "properties": { "orden": 528 }, "geometry": { "type": "Point", "coordinates": [ -64.092686032166526, -30.978139894519455 ] } },
{ "type": "Feature", "properties": { "orden": 529 }, "geometry": { "type": "Point", "coordinates": [ -64.092786558078771, -30.978119440766154 ] } },
{ "type": "Feature", "properties": { "orden": 530 }, "geometry": { "type": "Point", "coordinates": [ -64.09290986568314, -30.978101594681448 ] } },
{ "type": "Feature", "properties": { "orden": 531 }, "geometry": { "type": "Point", "coordinates": [ -64.093178209117227, -30.97797610274397 ] } },
{ "type": "Feature", "properties": { "orden": 532 }, "geometry": { "type": "Point", "coordinates": [ -64.093341825006377, -30.978072735051928 ] } },
{ "type": "Feature", "properties": { "orden": 533 }, "geometry": { "type": "Point", "coordinates": [ -64.093185353368426, -30.978317701543528 ] } },
{ "type": "Feature", "properties": { "orden": 534 }, "geometry": { "type": "Point", "coordinates": [ -64.09344551156407, -30.978329502110544 ] } },
{ "type": "Feature", "properties": { "orden": 535 }, "geometry": { "type": "Point", "coordinates": [ -64.093602819953176, -30.978442990372088 ] } },
{ "type": "Feature", "properties": { "orden": 536 }, "geometry": { "type": "Point", "coordinates": [ -64.093202958060701, -30.977581024798692 ] } },
{ "type": "Feature", "properties": { "orden": 537 }, "geometry": { "type": "Point", "coordinates": [ -64.093059433328975, -30.977536031286185 ] } },
{ "type": "Feature", "properties": { "orden": 538 }, "geometry": { "type": "Point", "coordinates": [ -64.092945480010712, -30.977661617074485 ] } },
{ "type": "Feature", "properties": { "orden": 539 }, "geometry": { "type": "Point", "coordinates": [ -64.092801638540962, -30.977731445885208 ] } },
{ "type": "Feature", "properties": { "orden": 540 }, "geometry": { "type": "Point", "coordinates": [ -64.092618170997525, -30.977461350632904 ] } },
{ "type": "Feature", "properties": { "orden": 541 }, "geometry": { "type": "Point", "coordinates": [ -64.092637595180491, -30.97773983471712 ] } },
{ "type": "Feature", "properties": { "orden": 542 }, "geometry": { "type": "Point", "coordinates": [ -64.092552412248494, -30.977823169525255 ] } },
{ "type": "Feature", "properties": { "orden": 543 }, "geometry": { "type": "Point", "coordinates": [ -64.092422684733947, -30.977848070770886 ] } },
{ "type": "Feature", "properties": { "orden": 544 }, "geometry": { "type": "Point", "coordinates": [ -64.092324292665666, -30.9777704891771 ] } },
{ "type": "Feature", "properties": { "orden": 545 }, "geometry": { "type": "Point", "coordinates": [ -64.092313697569665, -30.977696365880242 ] } },
{ "type": "Feature", "properties": { "orden": 546 }, "geometry": { "type": "Point", "coordinates": [ -64.092280257095311, -30.977614034291747 ] } },
{ "type": "Feature", "properties": { "orden": 547 }, "geometry": { "type": "Point", "coordinates": [ -64.092245351162973, -30.977545717515302 ] } },
{ "type": "Feature", "properties": { "orden": 548 }, "geometry": { "type": "Point", "coordinates": [ -64.092224671434181, -30.977442274366293 ] } },
{ "type": "Feature", "properties": { "orden": 549 }, "geometry": { "type": "Point", "coordinates": [ -64.092005059269596, -30.977280302528122 ] } },
{ "type": "Feature", "properties": { "orden": 550 }, "geometry": { "type": "Point", "coordinates": [ -64.09198751821522, -30.977167031097029 ] } },
{ "type": "Feature", "properties": { "orden": 551 }, "geometry": { "type": "Point", "coordinates": [ -64.092140409097055, -30.977178340796808 ] } },
{ "type": "Feature", "properties": { "orden": 552 }, "geometry": { "type": "Point", "coordinates": [ -64.092303033897096, -30.977188167766684 ] } },
{ "type": "Feature", "properties": { "orden": 553 }, "geometry": { "type": "Point", "coordinates": [ -64.092455175238655, -30.977133671998885 ] } },
{ "type": "Feature", "properties": { "orden": 554 }, "geometry": { "type": "Point", "coordinates": [ -64.092762832687797, -30.976893028523875 ] } },
{ "type": "Feature", "properties": { "orden": 555 }, "geometry": { "type": "Point", "coordinates": [ -64.092836485079232, -30.977081438303149 ] } },
{ "type": "Feature", "properties": { "orden": 556 }, "geometry": { "type": "Point", "coordinates": [ -64.092872984309565, -30.977146940955251 ] } },
{ "type": "Feature", "properties": { "orden": 557 }, "geometry": { "type": "Point", "coordinates": [ -64.092916653620051, -30.977271193145423 ] } },
{ "type": "Feature", "properties": { "orden": 558 }, "geometry": { "type": "Point", "coordinates": [ -64.092965293714073, -30.977403804719028 ] } },
{ "type": "Feature", "properties": { "orden": 559 }, "geometry": { "type": "Point", "coordinates": [ -64.09267321597045, -30.976587133289321 ] } },
{ "type": "Feature", "properties": { "orden": 560 }, "geometry": { "type": "Point", "coordinates": [ -64.09252899308774, -30.976623359172635 ] } },
{ "type": "Feature", "properties": { "orden": 561 }, "geometry": { "type": "Point", "coordinates": [ -64.092456236582592, -30.976656180064499 ] } },
{ "type": "Feature", "properties": { "orden": 562 }, "geometry": { "type": "Point", "coordinates": [ -64.092336435807653, -30.976696399933978 ] } },
{ "type": "Feature", "properties": { "orden": 563 }, "geometry": { "type": "Point", "coordinates": [ -64.092215073744995, -30.976742233867427 ] } },
{ "type": "Feature", "properties": { "orden": 564 }, "geometry": { "type": "Point", "coordinates": [ -64.092067823712725, -30.976798088242273 ] } },
{ "type": "Feature", "properties": { "orden": 565 }, "geometry": { "type": "Point", "coordinates": [ -64.091811684777596, -30.976853462547194 ] } },
{ "type": "Feature", "properties": { "orden": 566 }, "geometry": { "type": "Point", "coordinates": [ -64.091777177150774, -30.976677323514043 ] } },
{ "type": "Feature", "properties": { "orden": 567 }, "geometry": { "type": "Point", "coordinates": [ -64.091720430214806, -30.976546180202124 ] } },
{ "type": "Feature", "properties": { "orden": 568 }, "geometry": { "type": "Point", "coordinates": [ -64.091680363338256, -30.976452702480955 ] } },
{ "type": "Feature", "properties": { "orden": 569 }, "geometry": { "type": "Point", "coordinates": [ -64.091619649631937, -30.976258581676092 ] } },
{ "type": "Feature", "properties": { "orden": 570 }, "geometry": { "type": "Point", "coordinates": [ -64.09180965721383, -30.976104349405137 ] } },
{ "type": "Feature", "properties": { "orden": 571 }, "geometry": { "type": "Point", "coordinates": [ -64.091913479906552, -30.976230894065122 ] } },
{ "type": "Feature", "properties": { "orden": 572 }, "geometry": { "type": "Point", "coordinates": [ -64.092039636638447, -30.976178018670762 ] } },
{ "type": "Feature", "properties": { "orden": 573 }, "geometry": { "type": "Point", "coordinates": [ -64.0920728041405, -30.976093723679121 ] } },
{ "type": "Feature", "properties": { "orden": 574 }, "geometry": { "type": "Point", "coordinates": [ -64.0921072298475, -30.97597721244054 ] } },
{ "type": "Feature", "properties": { "orden": 575 }, "geometry": { "type": "Point", "coordinates": [ -64.092189400849378, -30.975914907039503 ] } },
{ "type": "Feature", "properties": { "orden": 576 }, "geometry": { "type": "Point", "coordinates": [ -64.092310044322019, -30.97580606825705 ] } },
{ "type": "Feature", "properties": { "orden": 577 }, "geometry": { "type": "Point", "coordinates": [ -64.092368544112233, -30.975948398444956 ] } },
{ "type": "Feature", "properties": { "orden": 578 }, "geometry": { "type": "Point", "coordinates": [ -64.092370027177481, -30.976078608548441 ] } },
{ "type": "Feature", "properties": { "orden": 579 }, "geometry": { "type": "Point", "coordinates": [ -64.092372465430202, -30.976150000347474 ] } },
{ "type": "Feature", "properties": { "orden": 580 }, "geometry": { "type": "Point", "coordinates": [ -64.092380974600971, -30.97632635906729 ] } },
{ "type": "Feature", "properties": { "orden": 581 }, "geometry": { "type": "Point", "coordinates": [ -64.092445990626274, -30.976470034344437 ] } },
{ "type": "Feature", "properties": { "orden": 582 }, "geometry": { "type": "Point", "coordinates": [ -64.092564644614697, -30.976471831376315 ] } },
{ "type": "Feature", "properties": { "orden": 583 }, "geometry": { "type": "Point", "coordinates": [ -64.091447435257166, -30.975834362709726 ] } },
{ "type": "Feature", "properties": { "orden": 584 }, "geometry": { "type": "Point", "coordinates": [ -64.091708255323013, -30.975762146673887 ] } },
{ "type": "Feature", "properties": { "orden": 585 }, "geometry": { "type": "Point", "coordinates": [ -64.091823196320519, -30.975723368711808 ] } },
{ "type": "Feature", "properties": { "orden": 586 }, "geometry": { "type": "Point", "coordinates": [ -64.091889436627298, -30.975689203011505 ] } },
{ "type": "Feature", "properties": { "orden": 587 }, "geometry": { "type": "Point", "coordinates": [ -64.09195750906197, -30.975673224958932 ] } },
{ "type": "Feature", "properties": { "orden": 588 }, "geometry": { "type": "Point", "coordinates": [ -64.092112260411412, -30.97556269780959 ] } },
{ "type": "Feature", "properties": { "orden": 589 }, "geometry": { "type": "Point", "coordinates": [ -64.092067302825697, -30.975467861295545 ] } },
{ "type": "Feature", "properties": { "orden": 590 }, "geometry": { "type": "Point", "coordinates": [ -64.092014204681035, -30.975371693331944 ] } },
{ "type": "Feature", "properties": { "orden": 591 }, "geometry": { "type": "Point", "coordinates": [ -64.091964388406723, -30.975278298090682 ] } },
{ "type": "Feature", "properties": { "orden": 592 }, "geometry": { "type": "Point", "coordinates": [ -64.091909697415701, -30.975184944029415 ] } },
{ "type": "Feature", "properties": { "orden": 593 }, "geometry": { "type": "Point", "coordinates": [ -64.091867990091217, -30.975090079963177 ] } },
{ "type": "Feature", "properties": { "orden": 594 }, "geometry": { "type": "Point", "coordinates": [ -64.091822969227508, -30.974989642909922 ] } },
{ "type": "Feature", "properties": { "orden": 595 }, "geometry": { "type": "Point", "coordinates": [ -64.091813378240673, -30.974860901534676 ] } },
{ "type": "Feature", "properties": { "orden": 596 }, "geometry": { "type": "Point", "coordinates": [ -64.091649945214257, -30.974922493151752 ] } },
{ "type": "Feature", "properties": { "orden": 597 }, "geometry": { "type": "Point", "coordinates": [ -64.091582685926767, -30.975009876603607 ] } },
{ "type": "Feature", "properties": { "orden": 598 }, "geometry": { "type": "Point", "coordinates": [ -64.091530369637113, -30.97512513864249 ] } },
{ "type": "Feature", "properties": { "orden": 599 }, "geometry": { "type": "Point", "coordinates": [ -64.091351690191075, -30.975132249197255 ] } },
{ "type": "Feature", "properties": { "orden": 600 }, "geometry": { "type": "Point", "coordinates": [ -64.091410411184597, -30.975294181406415 ] } },
{ "type": "Feature", "properties": { "orden": 601 }, "geometry": { "type": "Point", "coordinates": [ -64.09117200700048, -30.975193977496371 ] } },
{ "type": "Feature", "properties": { "orden": 602 }, "geometry": { "type": "Point", "coordinates": [ -64.091037455580519, -30.975223118788524 ] } },
{ "type": "Feature", "properties": { "orden": 603 }, "geometry": { "type": "Point", "coordinates": [ -64.091152842021316, -30.975366369371685 ] } },
{ "type": "Feature", "properties": { "orden": 604 }, "geometry": { "type": "Point", "coordinates": [ -64.091183269743951, -30.975469730411696 ] } },
{ "type": "Feature", "properties": { "orden": 605 }, "geometry": { "type": "Point", "coordinates": [ -64.091215226902264, -30.975564677060049 ] } },
{ "type": "Feature", "properties": { "orden": 606 }, "geometry": { "type": "Point", "coordinates": [ -64.091277819159117, -30.9756383612593 ] } },
{ "type": "Feature", "properties": { "orden": 607 }, "geometry": { "type": "Point", "coordinates": [ -64.091307880692, -30.975709519748829 ] } },
{ "type": "Feature", "properties": { "orden": 131 }, "geometry": { "type": "Point", "coordinates": [ -64.088252531239903, -30.977015642859268 ] } },
{ "type": "Feature", "properties": { "orden": 135 }, "geometry": { "type": "Point", "coordinates": [ -64.08813905227565, -30.977071781009226 ] } }
]
}
